{
	"data": [{
			"address": {
				"street": "Wade",
				"housenumber": "10",
				"postalcode": "8043 LS",
				"city": "Zwolle",
				"geoLocation": {
					"lat": "52.533678",
					"lng": "6.05504"
				}
			},
			"distance": 0,
			"type": "ING"
		},
		{
			"address": {
				"street": "Lovinkstraat",
				"housenumber": "20",
				"postalcode": "8265 BT",
				"city": "Kampen",
				"geoLocation": {
					"lat": "52.54835",
					"lng": "5.910573"
				}
			},
			"distance": 0,
			"type": "ING"
		},
		{
			"address": {
				"street": "Schuttersveld",
				"housenumber": "18",
				"postalcode": "2316 ZC",
				"city": "Leiden",
				"geoLocation": {
					"lat": "52.166403",
					"lng": "4.485687"
				}
			},
			"distance": 0,
			"type": "ING"
		},
		{
			"address": {
				"street": "Loosduinse Hoofdplein",
				"housenumber": "260",
				"postalcode": "2553 CT",
				"city": "Den Haag",
				"geoLocation": {
					"lat": "52.052755",
					"lng": "4.234435"
				}
			},
			"distance": 0,
			"type": "ING"
		},
		{
			"address": {
				"street": "Vuurbaak",
				"housenumber": "1",
				"postalcode": "1906 BS",
				"city": "Limmen",
				"geoLocation": {
					"lat": "52.571244",
					"lng": "4.695699"
				}
			},
			"distance": 0,
			"type": "ING"
		},
		{
			"address": {
				"street": "Fuormanderij",
				"housenumber": "5",
				"postalcode": "9254 GS",
				"city": "Hurdegaryp",
				"geoLocation": {
					"lat": "53.214141",
					"lng": "5.941999"
				}
			},
			"distance": 0,
			"type": "ING"
		},
		{
			"address": {
				"street": "Drooghe Bol",
				"housenumber": "1034-1036",
				"postalcode": "1788 VB",
				"city": "Julianadorp",
				"geoLocation": {
					"lat": "52.885049",
					"lng": "4.739538"
				}
			},
			"distance": 0,
			"type": "ING"
		},
		{
			"address": {
				"street": "Insulindeweg",
				"housenumber": "478",
				"postalcode": "1094 MH",
				"city": "Amsterdam",
				"geoLocation": {
					"lat": "52.36139",
					"lng": "4.939421"
				}
			},
			"distance": 0,
			"type": "ING"
		},
		{
			"address": {
				"street": "Lindenburghlaan",
				"housenumber": "1",
				"postalcode": "4651 TM",
				"city": "Steenbergen",
				"geoLocation": {
					"lat": "51.587139",
					"lng": "4.314353"
				}
			},
			"distance": 0,
			"type": "ING"
		},
		{
			"address": {
				"street": "De Ruyterstraat",
				"housenumber": "1",
				"postalcode": "1271 SR",
				"city": "Huizen",
				"geoLocation": {
					"lat": "52.297108",
					"lng": "5.229755"
				}
			},
			"distance": 0,
			"type": "ING"
		},
		{
			"address": {
				"street": "Molenstraat",
				"housenumber": "2",
				"postalcode": "5281 JP",
				"city": "Boxtel",
				"geoLocation": {
					"lat": "51.588332",
					"lng": "5.324485"
				}
			},
			"distance": 0,
			"type": "ING"
		},
		{
			"address": {
				"street": "Van Woustraat",
				"housenumber": "90",
				"postalcode": "1073 LP",
				"city": "Amsterdam",
				"geoLocation": {
					"lat": "52.354964",
					"lng": "4.900921"
				}
			},
			"distance": 0,
			"type": "ING"
		},
		{
			"address": {
				"street": "Spuiplein",
				"housenumber": "53",
				"postalcode": "4511 AP",
				"city": "Breskens",
				"geoLocation": {
					"lat": "51.396208",
					"lng": "3.560461"
				}
			},
			"distance": 0,
			"type": "ING"
		},
		{
			"address": {
				"street": "Lange Wal",
				"housenumber": "51",
				"postalcode": "6826 NA",
				"city": "Arnhem",
				"geoLocation": {
					"lat": "51.983299",
					"lng": "5.953547"
				}
			},
			"distance": 0,
			"type": "ING"
		},
		{
			"address": {
				"street": "Irislaan",
				"housenumber": "83",
				"postalcode": "2343 CH",
				"city": "Oegstgeest",
				"geoLocation": {
					"lat": "52.187208",
					"lng": "4.470935"
				}
			},
			"distance": 0,
			"type": "ING"
		},
		{
			"address": {
				"street": "De Beurs",
				"housenumber": "1",
				"postalcode": "3823 GA",
				"city": "Amersfoort",
				"geoLocation": {
					"lat": "52.185824",
					"lng": "5.399119"
				}
			},
			"distance": 0,
			"type": "ING"
		},
		{
			"address": {
				"street": "Deltaplein",
				"housenumber": "409",
				"postalcode": "2554 GG",
				"city": "Den Haag",
				"geoLocation": {
					"lat": "52.068603",
					"lng": "4.220592"
				}
			},
			"distance": 0,
			"type": "ING"
		},
		{
			"address": {
				"street": "Westergracht",
				"housenumber": "70",
				"postalcode": "2014 XA",
				"city": "Haarlem",
				"geoLocation": {
					"lat": "52.378213",
					"lng": "4.617979"
				}
			},
			"distance": 0,
			"type": "ING"
		},
		{
			"address": {
				"street": "Arent Janszoon Ernststraat",
				"housenumber": "551-559",
				"postalcode": "1082 LD",
				"city": "Amsterdam",
				"geoLocation": {
					"lat": "52.3321007",
					"lng": "4.8775673"
				}
			},
			"distance": 0,
			"type": "ING"
		},
		{
			"address": {
				"street": "Stadsplein",
				"housenumber": "96",
				"postalcode": "1181 ZM",
				"city": "Amstelveen",
				"geoLocation": {
					"lat": "52.302359",
					"lng": "4.860175"
				}
			},
			"distance": 0,
			"type": "ING"
		},
		{
			"address": {
				"street": "Muiderbos",
				"housenumber": "140",
				"postalcode": "2134 SV",
				"city": "Hoofddorp",
				"geoLocation": {
					"lat": "52.31469",
					"lng": "4.65953"
				}
			},
			"distance": 0,
			"type": "ING"
		},
		{
			"address": {
				"street": "Brabantse Turfmarkt",
				"housenumber": "33-43",
				"postalcode": "2611 CL",
				"city": "Delft",
				"geoLocation": {
					"lat": "52.0096221",
					"lng": "4.3608348"
				}
			},
			"distance": 0,
			"type": "ING"
		},
		{
			"address": {
				"street": "Wilhelminalaan",
				"housenumber": "9",
				"postalcode": "4551 EP",
				"city": "Sas van Gent",
				"geoLocation": {
					"lat": "51.227241",
					"lng": "3.799528"
				}
			},
			"distance": 0,
			"type": "ING"
		},
		{
			"address": {
				"street": "Meenthof",
				"housenumber": "37",
				"postalcode": "1241 CZ",
				"city": "Kortenhoef",
				"geoLocation": {
					"lat": "52.240094",
					"lng": "5.112716"
				}
			},
			"distance": 0,
			"type": "ING"
		},
		{
			"address": {
				"street": "Julianastraat",
				"housenumber": "12",
				"postalcode": "6691 AV",
				"city": "Gendt",
				"geoLocation": {
					"lat": "51.876135",
					"lng": "5.971708"
				}
			},
			"distance": 0,
			"type": "ING"
		},
		{
			"address": {
				"street": "Amersfoortsestraatweg",
				"housenumber": "3",
				"postalcode": "1411 HB",
				"city": "Naarden",
				"geoLocation": {
					"lat": "52.289078",
					"lng": "5.170857"
				}
			},
			"distance": 0,
			"type": "ING"
		},
		{
			"address": {
				"street": "Valkeniersplein",
				"housenumber": "2",
				"postalcode": "4835 RB",
				"city": "Breda",
				"geoLocation": {
					"lat": "51.569736",
					"lng": "4.79207"
				}
			},
			"distance": 0,
			"type": "ING"
		},
		{
			"address": {
				"street": "De Passage",
				"housenumber": "2",
				"postalcode": "8442 PH",
				"city": "Heerenveen",
				"geoLocation": {
					"lat": "52.958803",
					"lng": "5.926121"
				}
			},
			"distance": 0,
			"type": "ING"
		},
		{
			"address": {
				"street": "Zwanenveld",
				"housenumber": "9014",
				"postalcode": "6538 SB",
				"city": "Nijmegen",
				"geoLocation": {
					"lat": "51.822592",
					"lng": "5.794669"
				}
			},
			"distance": 0,
			"type": "ING"
		},
		{
			"address": {
				"street": "Euterpedreef",
				"housenumber": "13",
				"postalcode": "3561 CV",
				"city": "Utrecht",
				"geoLocation": {
					"lat": "52.115684",
					"lng": "5.127556"
				}
			},
			"distance": 0,
			"type": "ING"
		},
		{
			"address": {
				"street": "Rijksstraatweg",
				"housenumber": "40",
				"postalcode": "1964 LJ",
				"city": "Heemskerk",
				"geoLocation": {
					"lat": "52.504581",
					"lng": "4.655879"
				}
			},
			"distance": 0,
			"type": "ING"
		},
		{
			"address": {
				"street": "Gerrit van Assendelftstraat",
				"housenumber": "11",
				"postalcode": "1961 NH",
				"city": "Heemskerk",
				"geoLocation": {
					"lat": "52.509976",
					"lng": "4.673925"
				}
			},
			"distance": 0,
			"type": "ING"
		},
		{
			"address": {
				"street": "Keizerstraat",
				"housenumber": "342",
				"postalcode": "2584 BP",
				"city": "Den Haag",
				"geoLocation": {
					"lat": "52.104049",
					"lng": "4.276401"
				}
			},
			"distance": 0,
			"type": "ING"
		},
		{
			"address": {
				"street": "Molenwijk",
				"housenumber": "25",
				"postalcode": "1035 EG",
				"city": "Amsterdam",
				"geoLocation": {
					"lat": "52.417007",
					"lng": "4.893037"
				}
			},
			"distance": 0,
			"type": "ING"
		},
		{
			"address": {
				"street": "Buitenveer",
				"housenumber": "25",
				"postalcode": "1381 AB",
				"city": "Weesp",
				"geoLocation": {
					"lat": "52.308224",
					"lng": "5.035951"
				}
			},
			"distance": 0,
			"type": "ING"
		},
		{
			"address": {
				"street": "Lange Kerkstraat",
				"housenumber": "34",
				"postalcode": "3111 NP",
				"city": "Schiedam",
				"geoLocation": {
					"lat": "51.918305",
					"lng": "4.400434"
				}
			},
			"distance": 0,
			"type": "ING"
		},
		{
			"address": {
				"street": "Kasteel Traverse",
				"housenumber": "9",
				"postalcode": "5701 NR",
				"city": "Helmond",
				"geoLocation": {
					"lat": "51.477157",
					"lng": "5.660631"
				}
			},
			"distance": 0,
			"type": "ING"
		},
		{
			"address": {
				"street": "Frederiksplein",
				"housenumber": "1",
				"postalcode": "1017 XK",
				"city": "Amsterdam",
				"geoLocation": {
					"lat": "52.361171",
					"lng": "4.899663"
				}
			},
			"distance": 0,
			"type": "ING"
		},
		{
			"address": {
				"street": "Het Schar",
				"housenumber": "3",
				"postalcode": "8332 CL",
				"city": "Steenwijk",
				"geoLocation": {
					"lat": "52.793003",
					"lng": "6.13071"
				}
			},
			"distance": 0,
			"type": "ING"
		},
		{
			"address": {
				"street": "Reaal",
				"housenumber": "6",
				"postalcode": "2353 TL",
				"city": "Leiderdorp",
				"geoLocation": {
					"lat": "52.163126",
					"lng": "4.532282"
				}
			},
			"distance": 0,
			"type": "ING"
		},
		{
			"address": {
				"street": "Bannerschultestraat",
				"housenumber": "7",
				"postalcode": "7841 AA",
				"city": "Sleen",
				"geoLocation": {
					"lat": "52.773199",
					"lng": "6.802689"
				}
			},
			"distance": 0,
			"type": "ING"
		},
		{
			"address": {
				"street": "Molenstraat",
				"housenumber": "18",
				"postalcode": "5431 BX",
				"city": "Cuijk",
				"geoLocation": {
					"lat": "51.729155",
					"lng": "5.878578"
				}
			},
			"distance": 0,
			"type": "ING"
		},
		{
			"address": {
				"street": "Nieuwe Es",
				"housenumber": "7",
				"postalcode": "4254 AW",
				"city": "Sleeuwijk",
				"geoLocation": {
					"lat": "51.81423",
					"lng": "4.950886"
				}
			},
			"distance": 0,
			"type": "ING"
		},
		{
			"address": {
				"street": "Montageweg",
				"housenumber": "35",
				"postalcode": "1948 PH",
				"city": "Beverwijk",
				"geoLocation": {
					"lat": "52.477247",
					"lng": "4.672185"
				}
			},
			"distance": 0,
			"type": "ING"
		},
		{
			"address": {
				"street": "Kooikersgracht",
				"housenumber": "6",
				"postalcode": "3831 NG",
				"city": "Leusden",
				"geoLocation": {
					"lat": "52.129501",
					"lng": "5.428098"
				}
			},
			"distance": 0,
			"type": "ING"
		},
		{
			"address": {
				"street": "De Kolk",
				"housenumber": "29",
				"postalcode": "9231 CV",
				"city": "Surhuisterveen",
				"geoLocation": {
					"lat": "53.182911",
					"lng": "6.166116"
				}
			},
			"distance": 0,
			"type": "ING"
		},
		{
			"address": {
				"street": "Vlietlaan",
				"housenumber": "61",
				"postalcode": "3061 DV",
				"city": "Rotterdam",
				"geoLocation": {
					"lat": "51.928727",
					"lng": "4.501522"
				}
			},
			"distance": 0,
			"type": "ING"
		},
		{
			"address": {
				"street": "Kerkstraat",
				"housenumber": "26",
				"postalcode": "3891 ET",
				"city": "Zeewolde",
				"geoLocation": {
					"lat": "52.330156",
					"lng": "5.541664"
				}
			},
			"distance": 0,
			"type": "ING"
		},
		{
			"address": {
				"street": "Theresiastraat",
				"housenumber": "97-99",
				"postalcode": "2593 AC",
				"city": "Den Haag",
				"geoLocation": {
					"lat": "52.084992",
					"lng": "4.334441"
				}
			},
			"distance": 0,
			"type": "ING"
		},
		{
			"address": {
				"street": "Venestraat",
				"housenumber": "49",
				"postalcode": "2511 AR",
				"city": "Den Haag",
				"geoLocation": {
					"lat": "52.076927",
					"lng": "4.310382"
				}
			},
			"distance": 0,
			"type": "ING"
		},
		{
			"address": {
				"street": "Goeverneurplein",
				"housenumber": "20",
				"postalcode": "2523 EC",
				"city": "Den Haag",
				"geoLocation": {
					"lat": "52.055548",
					"lng": "4.314235"
				}
			},
			"distance": 0,
			"type": "ING"
		},
		{
			"address": {
				"street": "Houtweg",
				"housenumber": "152",
				"postalcode": "7823 PG",
				"city": "Emmen",
				"geoLocation": {
					"lat": "52.791881",
					"lng": "6.936418"
				}
			},
			"distance": 0,
			"type": "ING"
		},
		{
			"address": {
				"street": "Raadhuisplein",
				"housenumber": "16",
				"postalcode": "5981 AT",
				"city": "Panningen",
				"geoLocation": {
					"lat": "51.327876",
					"lng": "5.980421"
				}
			},
			"distance": 0,
			"type": "ING"
		},
		{
			"address": {
				"street": "Brouwerij",
				"housenumber": "40",
				"postalcode": "4861 SN",
				"city": "Chaam",
				"geoLocation": {
					"lat": "51.504866",
					"lng": "4.86002"
				}
			},
			"distance": 0,
			"type": "ING"
		},
		{
			"address": {
				"street": "Veldhoflanden",
				"housenumber": "2",
				"postalcode": "7542 LA",
				"city": "Enschede",
				"geoLocation": {
					"lat": "52.193578",
					"lng": "6.900874"
				}
			},
			"distance": 0,
			"type": "ING"
		},
		{
			"address": {
				"street": "Middenburcht",
				"housenumber": "14",
				"postalcode": "3452 MT",
				"city": "Vleuten",
				"geoLocation": {
					"lat": "52.09294",
					"lng": "5.013051"
				}
			},
			"distance": 0,
			"type": "ING"
		},
		{
			"address": {
				"street": "Rijnstraat",
				"housenumber": "20",
				"postalcode": "7523 GG",
				"city": "Enschede",
				"geoLocation": {
					"lat": "52.239195",
					"lng": "6.893078"
				}
			},
			"distance": 0,
			"type": "ING"
		},
		{
			"address": {
				"street": "Markenlaan",
				"housenumber": "3",
				"postalcode": "1355 BA",
				"city": "Almere",
				"geoLocation": {
					"lat": "52.341348",
					"lng": "5.227837"
				}
			},
			"distance": 0,
			"type": "ING"
		},
		{
			"address": {
				"street": "Puccinipassage",
				"housenumber": "28-30",
				"postalcode": "2901 GK",
				"city": "Capelle aan den IJssel",
				"geoLocation": {
					"lat": "51.917695",
					"lng": "4.565586"
				}
			},
			"distance": 0,
			"type": "ING"
		},
		{
			"address": {
				"street": "Dabbestraat",
				"housenumber": "6",
				"postalcode": "3255 XB",
				"city": "Oude-Tonge",
				"geoLocation": {
					"lat": "51.689554",
					"lng": "4.214188"
				}
			},
			"distance": 0,
			"type": "ING"
		},
		{
			"address": {
				"street": "Osdorpplein",
				"housenumber": "113",
				"postalcode": "1068 SP",
				"city": "Amsterdam",
				"geoLocation": {
					"lat": "52.359387",
					"lng": "4.806997"
				}
			},
			"distance": 0,
			"type": "ING"
		},
		{
			"address": {
				"street": "Betje Wolffplein",
				"housenumber": "109",
				"postalcode": "1628 NG",
				"city": "Hoorn",
				"geoLocation": {
					"lat": "52.652351",
					"lng": "5.085143"
				}
			},
			"distance": 0,
			"type": "ING"
		},
		{
			"address": {
				"street": "Sint Jacobslaan",
				"housenumber": "61",
				"postalcode": "6533 BP",
				"city": "Nijmegen",
				"geoLocation": {
					"lat": "51.819974",
					"lng": "5.851089"
				}
			},
			"distance": 0,
			"type": "ING"
		},
		{
			"address": {
				"street": "Van Baerlestraat",
				"housenumber": "33",
				"postalcode": "1071 AP",
				"city": "Amsterdam",
				"geoLocation": {
					"lat": "52.357087",
					"lng": "4.879845"
				}
			},
			"distance": 0,
			"type": "ING"
		},
		{
			"address": {
				"street": "Zuiderhaven",
				"housenumber": "8",
				"postalcode": "8861 XB",
				"city": "Harlingen",
				"geoLocation": {
					"lat": "53.174016",
					"lng": "5.41296"
				}
			},
			"distance": 0,
			"type": "ING"
		},
		{
			"address": {
				"street": "Homerusplein",
				"housenumber": "9",
				"postalcode": "6411 AW",
				"city": "Heerlen",
				"geoLocation": {
					"lat": "50.886494",
					"lng": "5.969686"
				}
			},
			"distance": 0,
			"type": "ING"
		},
		{
			"address": {
				"street": "Prinssenstraat",
				"housenumber": "52",
				"postalcode": "6372 EX",
				"city": "Landgraaf",
				"geoLocation": {
					"lat": "50.894201",
					"lng": "6.015714"
				}
			},
			"distance": 0,
			"type": "ING"
		},
		{
			"address": {
				"street": "Margrietstraat",
				"housenumber": "47",
				"postalcode": "5731 BN",
				"city": "Mierlo",
				"geoLocation": {
					"lat": "51.4422048",
					"lng": "5.6164695"
				}
			},
			"distance": 0,
			"type": "ING"
		},
		{
			"address": {
				"street": "Houtstraat",
				"housenumber": "67",
				"postalcode": "6127 EC",
				"city": "Grevenbicht",
				"geoLocation": {
					"lat": "51.036001",
					"lng": "5.777912"
				}
			},
			"distance": 0,
			"type": "ING"
		},
		{
			"address": {
				"street": "Kerkweg",
				"housenumber": "100",
				"postalcode": "2941 BP",
				"city": "Lekkerkerk",
				"geoLocation": {
					"lat": "51.900257",
					"lng": "4.684022"
				}
			},
			"distance": 0,
			"type": "ING"
		},
		{
			"address": {
				"street": "Monseigneur Bekkersplein",
				"housenumber": "3",
				"postalcode": "5076 AZ",
				"city": "Haaren",
				"geoLocation": {
					"lat": "51.601588",
					"lng": "5.226416"
				}
			},
			"distance": 0,
			"type": "ING"
		},
		{
			"address": {
				"street": "Thuvinestraat",
				"housenumber": "33",
				"postalcode": "6921 BB",
				"city": "Duiven",
				"geoLocation": {
					"lat": "51.948285",
					"lng": "6.020636"
				}
			},
			"distance": 0,
			"type": "ING"
		},
		{
			"address": {
				"street": "Muntpassage",
				"housenumber": "49",
				"postalcode": "6001 GL",
				"city": "Weert",
				"geoLocation": {
					"lat": "51.254995",
					"lng": "5.705041"
				}
			},
			"distance": 0,
			"type": "ING"
		},
		{
			"address": {
				"street": "Lange Nering",
				"housenumber": "200",
				"postalcode": "8302 EZ",
				"city": "Emmeloord",
				"geoLocation": {
					"lat": "52.7109411",
					"lng": "5.7605634"
				}
			},
			"distance": 0,
			"type": "ING"
		},
		{
			"address": {
				"street": "Verlengde Houtrakgracht",
				"housenumber": "389",
				"postalcode": "3544 EC",
				"city": "Utrecht",
				"geoLocation": {
					"lat": "52.087851",
					"lng": "5.054624"
				}
			},
			"distance": 0,
			"type": "ING"
		},
		{
			"address": {
				"street": "Klaverweide",
				"housenumber": "10",
				"postalcode": "1511 XW",
				"city": "Oostzaan",
				"geoLocation": {
					"lat": "52.437335",
					"lng": "4.879177"
				}
			},
			"distance": 0,
			"type": "ING"
		},
		{
			"address": {
				"street": "Grote Staat",
				"housenumber": "54",
				"postalcode": "6211 CS",
				"city": "Maastricht",
				"geoLocation": {
					"lat": "50.849819",
					"lng": "5.689473"
				}
			},
			"distance": 0,
			"type": "ING"
		},
		{
			"address": {
				"street": "Kornputsingel",
				"housenumber": "23",
				"postalcode": "8331 JS",
				"city": "Steenwijk",
				"geoLocation": {
					"lat": "52.786026",
					"lng": "6.113663"
				}
			},
			"distance": 0,
			"type": "ING"
		},
		{
			"address": {
				"street": "Wendelaarstraat",
				"housenumber": "1",
				"postalcode": "1814 GR",
				"city": "Alkmaar",
				"geoLocation": {
					"lat": "52.61977",
					"lng": "4.736865"
				}
			},
			"distance": 0,
			"type": "ING"
		},
		{
			"address": {
				"street": "Oudedijk",
				"housenumber": "149",
				"postalcode": "3061 AA",
				"city": "Rotterdam",
				"geoLocation": {
					"lat": "51.927469",
					"lng": "4.509787"
				}
			},
			"distance": 0,
			"type": "ING"
		},
		{
			"address": {
				"street": "Grote Markt",
				"housenumber": "98",
				"postalcode": "3011 PA",
				"city": "Rotterdam",
				"geoLocation": {
					"lat": "51.918592",
					"lng": "4.398644"
				}
			},
			"distance": 0,
			"type": "ING"
		},
		{
			"address": {
				"street": "Ringdijk",
				"housenumber": "54",
				"postalcode": "8244 BB",
				"city": "Lelystad",
				"geoLocation": {
					"lat": "52.499881",
					"lng": "5.41873"
				}
			},
			"distance": 0,
			"type": "ING"
		},
		{
			"address": {
				"street": "Roelantdreef",
				"housenumber": "41",
				"postalcode": "3562 KC",
				"city": "Utrecht",
				"geoLocation": {
					"lat": "52.11308",
					"lng": "5.11281"
				}
			},
			"distance": 0,
			"type": "ING"
		},
		{
			"address": {
				"street": "Merseloseweg",
				"housenumber": "62",
				"postalcode": "5801 CE",
				"city": "Venray",
				"geoLocation": {
					"lat": "51.525503",
					"lng": "5.972771"
				}
			},
			"distance": 0,
			"type": "ING"
		},
		{
			"address": {
				"street": "De Biezenkamp",
				"housenumber": "164",
				"postalcode": "3831 JA",
				"city": "Leusden",
				"geoLocation": {
					"lat": "52.136881",
					"lng": "5.428732"
				}
			},
			"distance": 0,
			"type": "ING"
		},
		{
			"address": {
				"street": "Buitenveldertselaan",
				"housenumber": "164",
				"postalcode": "1081 AC",
				"city": "Amsterdam",
				"geoLocation": {
					"lat": "52.325261",
					"lng": "4.867929"
				}
			},
			"distance": 0,
			"type": "ING"
		},
		{
			"address": {
				"street": "Admiraalsplein",
				"housenumber": "6",
				"postalcode": "3317 BA",
				"city": "Dordrecht",
				"geoLocation": {
					"lat": "51.791775",
					"lng": "4.654324"
				}
			},
			"distance": 0,
			"type": "ING"
		},
		{
			"address": {
				"street": "Parkstraat",
				"housenumber": "22",
				"postalcode": "5671 GG",
				"city": "Nuenen",
				"geoLocation": {
					"lat": "51.472325",
					"lng": "5.545828"
				}
			},
			"distance": 0,
			"type": "ING"
		},
		{
			"address": {
				"street": "Walstraat",
				"housenumber": "71",
				"postalcode": "6131 CV",
				"city": "Sittard",
				"geoLocation": {
					"lat": "50.997611",
					"lng": "5.86702"
				}
			},
			"distance": 0,
			"type": "ING"
		},
		{
			"address": {
				"street": "'s-Hertogenboschplein",
				"housenumber": "15",
				"postalcode": "1324 WB",
				"city": "Almere",
				"geoLocation": {
					"lat": "52.359841",
					"lng": "5.205645"
				}
			},
			"distance": 0,
			"type": "ING"
		},
		{
			"address": {
				"street": "Laan van Brabant",
				"housenumber": "9",
				"postalcode": "4701 BM",
				"city": "Roosendaal",
				"geoLocation": {
					"lat": "51.530845",
					"lng": "4.453483"
				}
			},
			"distance": 0,
			"type": "ING"
		},
		{
			"address": {
				"street": "Raadhuisplein",
				"housenumber": "58A",
				"postalcode": "2922 AH",
				"city": "Krimpen aan den IJssel",
				"geoLocation": {
					"lat": "51.9158462",
					"lng": "4.5883535"
				}
			},
			"distance": 0,
			"type": "ING"
		},
		{
			"address": {
				"street": "Van Lawick van Pabststraat",
				"housenumber": "76",
				"postalcode": "6814 HK",
				"city": "Arnhem",
				"geoLocation": {
					"lat": "51.990106",
					"lng": "5.893758"
				}
			},
			"distance": 0,
			"type": "ING"
		},
		{
			"address": {
				"street": "Vaart Zuidzijde",
				"housenumber": "52",
				"postalcode": "7833 AC",
				"city": "Nieuw-Amsterdam",
				"geoLocation": {
					"lat": "52.7147718",
					"lng": "6.8579083"
				}
			},
			"distance": 0,
			"type": "ING"
		},
		{
			"address": {
				"street": "Schoolstraat",
				"housenumber": "34",
				"postalcode": "9934 CD",
				"city": "Delfzijl",
				"geoLocation": {
					"lat": "53.330284",
					"lng": "6.925017"
				}
			},
			"distance": 0,
			"type": "ING"
		},
		{
			"address": {
				"street": "Lijnbaan",
				"housenumber": "11",
				"postalcode": "4132 CB",
				"city": "Vianen",
				"geoLocation": {
					"lat": "51.991669",
					"lng": "5.09321"
				}
			},
			"distance": 0,
			"type": "ING"
		},
		{
			"address": {
				"street": "Varkensmarkt",
				"housenumber": "12",
				"postalcode": "7131 DH",
				"city": "Lichtenvoorde",
				"geoLocation": {
					"lat": "51.98856",
					"lng": "6.568712"
				}
			},
			"distance": 0,
			"type": "ING"
		},
		{
			"address": {
				"street": "Lange Baan",
				"housenumber": "6",
				"postalcode": "2632 GC",
				"city": "Nootdorp",
				"geoLocation": {
					"lat": "52.045149",
					"lng": "4.391405"
				}
			},
			"distance": 0,
			"type": "ING"
		},
		{
			"address": {
				"street": "Molenhof",
				"housenumber": "20",
				"postalcode": "8102 EX",
				"city": "Raalte",
				"geoLocation": {
					"lat": "52.386166",
					"lng": "6.277109"
				}
			},
			"distance": 0,
			"type": "ING"
		},
		{
			"address": {
				"street": "Kouvenderstraat",
				"housenumber": "100",
				"postalcode": "6431 HH",
				"city": "Hoensbroek",
				"geoLocation": {
					"lat": "50.925449",
					"lng": "5.931027"
				}
			},
			"distance": 0,
			"type": "ING"
		},
		{
			"address": {
				"street": "Alerderbrink",
				"housenumber": "4",
				"postalcode": "7812 RT",
				"city": "Emmen",
				"geoLocation": {
					"lat": "52.764198",
					"lng": "6.886895"
				}
			},
			"distance": 0,
			"type": "ING"
		},
		{
			"address": {
				"street": "Stationsplein",
				"housenumber": "1",
				"postalcode": "1012 AB",
				"city": "Amsterdam",
				"geoLocation": {
					"lat": "52.377907",
					"lng": "4.901844"
				}
			},
			"distance": 0,
			"type": "ING"
		},
		{
			"address": {
				"street": "Polenplein",
				"housenumber": "24",
				"postalcode": "6665 CN",
				"city": "Driel",
				"geoLocation": {
					"lat": "51.961118",
					"lng": "5.813471"
				}
			},
			"distance": 0,
			"type": "ING"
		},
		{
			"address": {
				"street": "Raadhuislaan",
				"housenumber": "48",
				"postalcode": "5931 NS",
				"city": "Tegelen",
				"geoLocation": {
					"lat": "51.341288",
					"lng": "6.141278"
				}
			},
			"distance": 0,
			"type": "ING"
		},
		{
			"address": {
				"street": "Zuiderzeestraatweg Oost",
				"housenumber": "88",
				"postalcode": "8081 LE",
				"city": "Elburg",
				"geoLocation": {
					"lat": "52.443314",
					"lng": "5.844878"
				}
			},
			"distance": 0,
			"type": "ING"
		},
		{
			"address": {
				"street": "Westwijkplein",
				"housenumber": "90",
				"postalcode": "1187 LV",
				"city": "Amstelveen",
				"geoLocation": {
					"lat": "52.281898",
					"lng": "4.826532"
				}
			},
			"distance": 0,
			"type": "ING"
		},
		{
			"address": {
				"street": "Hertogenlaan",
				"housenumber": "29",
				"postalcode": "6461 BT",
				"city": "Kerkrade",
				"geoLocation": {
					"lat": "50.869249",
					"lng": "6.068942"
				}
			},
			"distance": 0,
			"type": "ING"
		},
		{
			"address": {
				"street": "B.S.F. von Suttnerstraat",
				"housenumber": "1",
				"postalcode": "9728 WZ",
				"city": "Groningen",
				"geoLocation": {
					"lat": "53.187584",
					"lng": "6.554865"
				}
			},
			"distance": 0,
			"type": "ING"
		},
		{
			"address": {
				"street": "Markenburg",
				"housenumber": "99",
				"postalcode": "2135 DS",
				"city": "Hoofddorp",
				"geoLocation": {
					"lat": "52.301683",
					"lng": "4.66398"
				}
			},
			"distance": 0,
			"type": "ING"
		},
		{
			"address": {
				"street": "De Clomp",
				"housenumber": "3132",
				"postalcode": "3704 KA",
				"city": "Zeist",
				"geoLocation": {
					"lat": "52.083536",
					"lng": "5.21974"
				}
			},
			"distance": 0,
			"type": "ING"
		},
		{
			"address": {
				"street": "Linie",
				"housenumber": "189",
				"postalcode": "7325 DR",
				"city": "Apeldoorn",
				"geoLocation": {
					"lat": "52.216312",
					"lng": "6.003621"
				}
			},
			"distance": 0,
			"type": "ING"
		},
		{
			"address": {
				"street": "Hendrik Jan van Heekplein",
				"housenumber": "63",
				"postalcode": "7511 HN",
				"city": "Enschede",
				"geoLocation": {
					"lat": "52.21682",
					"lng": "6.899305"
				}
			},
			"distance": 0,
			"type": "ING"
		},
		{
			"address": {
				"street": "Sint Janstraat",
				"housenumber": "6",
				"postalcode": "1251 LA",
				"city": "Laren",
				"geoLocation": {
					"lat": "52.255324",
					"lng": "5.226271"
				}
			},
			"distance": 0,
			"type": "ING"
		},
		{
			"address": {
				"street": "Henri Dunantlaan",
				"housenumber": "86-88",
				"postalcode": "2286 GE",
				"city": "Rijswijk",
				"geoLocation": {
					"lat": "52.028483",
					"lng": "4.314619"
				}
			},
			"distance": 0,
			"type": "ING"
		},
		{
			"address": {
				"street": "De Meent",
				"housenumber": "19",
				"postalcode": "1218 CB",
				"city": "Hilversum",
				"geoLocation": {
					"lat": "52.270802",
					"lng": "5.137846"
				}
			},
			"distance": 0,
			"type": "ING"
		},
		{
			"address": {
				"street": "Voorstraat",
				"housenumber": "38",
				"postalcode": "3512 AP",
				"city": "Utrecht",
				"geoLocation": {
					"lat": "52.094786",
					"lng": "5.119884"
				}
			},
			"distance": 0,
			"type": "ING"
		},
		{
			"address": {
				"street": "Voorstraat",
				"housenumber": "10",
				"postalcode": "1394 CS",
				"city": "Nederhorst den Berg",
				"geoLocation": {
					"lat": "52.264178",
					"lng": "5.044943"
				}
			},
			"distance": 0,
			"type": "ING"
		},
		{
			"address": {
				"street": "Karspeldreef",
				"housenumber": "1387",
				"postalcode": "1104 SE",
				"city": "Amsterdam-Zuidoost",
				"geoLocation": {
					"lat": "52.31611",
					"lng": "4.978115"
				}
			},
			"distance": 0,
			"type": "ING"
		},
		{
			"address": {
				"street": "Espenhof",
				"housenumber": "20",
				"postalcode": "3355 BM",
				"city": "Papendrecht",
				"geoLocation": {
					"lat": "51.836205",
					"lng": "4.702231"
				}
			},
			"distance": 0,
			"type": "ING"
		},
		{
			"address": {
				"street": "Ambachtsgaarde",
				"housenumber": "162",
				"postalcode": "2542 EJ",
				"city": "Den Haag",
				"geoLocation": {
					"lat": "52.034604",
					"lng": "4.26522"
				}
			},
			"distance": 0,
			"type": "ING"
		},
		{
			"address": {
				"street": "Professor de Moorplein",
				"housenumber": "124",
				"postalcode": "5037 DN",
				"city": "Tilburg",
				"geoLocation": {
					"lat": "51.560831",
					"lng": "5.053539"
				}
			},
			"distance": 0,
			"type": "ING"
		},
		{
			"address": {
				"street": "Vlinderveen",
				"housenumber": "423-425",
				"postalcode": "3205 EE",
				"city": "Spijkenisse",
				"geoLocation": {
					"lat": "51.832766",
					"lng": "4.343289"
				}
			},
			"distance": 0,
			"type": "ING"
		},
		{
			"address": {
				"street": "Nieuwe Ebbingestraat",
				"housenumber": "73-75",
				"postalcode": "9712 NG",
				"city": "Groningen",
				"geoLocation": {
					"lat": "53.223482",
					"lng": "6.563723"
				}
			},
			"distance": 0,
			"type": "ING"
		},
		{
			"address": {
				"street": "Adrianusplein",
				"housenumber": "1",
				"postalcode": "5271 BN",
				"city": "Sint-Michielsgestel",
				"geoLocation": {
					"lat": "51.638317",
					"lng": "5.348977"
				}
			},
			"distance": 0,
			"type": "ING"
		},
		{
			"address": {
				"street": "Wisseloord",
				"housenumber": "97",
				"postalcode": "1106 MA",
				"city": "Amsterdam-Zuidoost",
				"geoLocation": {
					"lat": "52.296438",
					"lng": "4.987107"
				}
			},
			"distance": 0,
			"type": "ING"
		},
		{
			"address": {
				"street": "Zandvoortselaan",
				"housenumber": "169",
				"postalcode": "2106 AM",
				"city": "Heemstede",
				"geoLocation": {
					"lat": "52.359778",
					"lng": "4.604483"
				}
			},
			"distance": 0,
			"type": "ING"
		},
		{
			"address": {
				"street": "Samanthagang",
				"housenumber": "64",
				"postalcode": "2719 CK",
				"city": "Zoetermeer",
				"geoLocation": {
					"lat": "52.043313",
					"lng": "4.476907"
				}
			},
			"distance": 0,
			"type": "ING"
		},
		{
			"address": {
				"street": "Hoog Zandveld",
				"housenumber": "2",
				"postalcode": "3434 EE",
				"city": "Nieuwegein",
				"geoLocation": {
					"lat": "52.0055039",
					"lng": "5.085616"
				}
			},
			"distance": 0,
			"type": "ING"
		},
		{
			"address": {
				"street": "Marius Bolkplein",
				"housenumber": "4",
				"postalcode": "3067 AK",
				"city": "Rotterdam",
				"geoLocation": {
					"lat": "51.941777",
					"lng": "4.547909"
				}
			},
			"distance": 0,
			"type": "ING"
		},
		{
			"address": {
				"street": "Raadhuisplein",
				"housenumber": "115B",
				"postalcode": "2922 AK",
				"city": "Krimpen aan den IJssel",
				"geoLocation": {
					"lat": "51.914481",
					"lng": "4.589834"
				}
			},
			"distance": 0,
			"type": "ING"
		},
		{
			"address": {
				"street": "M.W. van de Waalstraat",
				"housenumber": "2",
				"postalcode": "3911 LP",
				"city": "Rhenen",
				"geoLocation": {
					"lat": "51.9580532",
					"lng": "5.5691737"
				}
			},
			"distance": 0,
			"type": "ING"
		},
		{
			"address": {
				"street": "Petuniatuin",
				"housenumber": "12",
				"postalcode": "2724 NA",
				"city": "Zoetermeer",
				"geoLocation": {
					"lat": "52.063479",
					"lng": "4.515309"
				}
			},
			"distance": 0,
			"type": "ING"
		},
		{
			"address": {
				"street": "Brugstraat",
				"housenumber": "14",
				"postalcode": "9711 HX",
				"city": "Groningen",
				"geoLocation": {
					"lat": "53.21644",
					"lng": "6.560568"
				}
			},
			"distance": 0,
			"type": "ING"
		},
		{
			"address": {
				"street": "Burgemeester Cortenstraat",
				"housenumber": "8",
				"postalcode": "6226 GV",
				"city": "Maastricht",
				"geoLocation": {
					"lat": "50.844174",
					"lng": "5.72799"
				}
			},
			"distance": 0,
			"type": "ING"
		},
		{
			"address": {
				"street": "Ridderhof",
				"housenumber": "25",
				"postalcode": "2981 ET",
				"city": "Ridderkerk",
				"geoLocation": {
					"lat": "51.87006",
					"lng": "4.598854"
				}
			},
			"distance": 0,
			"type": "ING"
		},
		{
			"address": {
				"street": "Laan van Wateringse Veld",
				"housenumber": "688",
				"postalcode": "2548 CM",
				"city": "Den Haag",
				"geoLocation": {
					"lat": "52.030432",
					"lng": "4.288032"
				}
			},
			"distance": 0,
			"type": "ING"
		},
		{
			"address": {
				"street": "Brink",
				"housenumber": "47",
				"postalcode": "7991 CJ",
				"city": "Dwingeloo",
				"geoLocation": {
					"lat": "52.832624",
					"lng": "6.366171"
				}
			},
			"distance": 0,
			"type": "ING"
		},
		{
			"address": {
				"street": "Veerstraat",
				"housenumber": "20",
				"postalcode": "1404 CH",
				"city": "Bussum",
				"geoLocation": {
					"lat": "52.275909",
					"lng": "5.161059"
				}
			},
			"distance": 0,
			"type": "ING"
		},
		{
			"address": {
				"street": "Gelderstraat",
				"housenumber": "52",
				"postalcode": "5081 AC",
				"city": "Hilvarenbeek",
				"geoLocation": {
					"lat": "51.482666",
					"lng": "5.138142"
				}
			},
			"distance": 0,
			"type": "ING"
		},
		{
			"address": {
				"street": "Hugo de Grootplein",
				"housenumber": "17",
				"postalcode": "1052 KV",
				"city": "Amsterdam",
				"geoLocation": {
					"lat": "52.374657",
					"lng": "4.872771"
				}
			},
			"distance": 0,
			"type": "ING"
		},
		{
			"address": {
				"street": "Molencatenlaan",
				"housenumber": "30",
				"postalcode": "7339 LM",
				"city": "Ugchelen",
				"geoLocation": {
					"lat": "52.185746",
					"lng": "5.942434"
				}
			},
			"distance": 0,
			"type": "ING"
		},
		{
			"address": {
				"street": "Phoenixstraat",
				"housenumber": "28",
				"postalcode": "2611 AL",
				"city": "Delft",
				"geoLocation": {
					"lat": "52.010602",
					"lng": "4.354964"
				}
			},
			"distance": 0,
			"type": "ING"
		},
		{
			"address": {
				"street": "Heksenwaag",
				"housenumber": "2",
				"postalcode": "4823 JV",
				"city": "Breda",
				"geoLocation": {
					"lat": "51.623267",
					"lng": "4.743373"
				}
			},
			"distance": 0,
			"type": "ING"
		},
		{
			"address": {
				"street": "Corridor",
				"housenumber": "24",
				"postalcode": "5554 HN",
				"city": "Valkenswaard",
				"geoLocation": {
					"lat": "51.353273",
					"lng": "5.458609"
				}
			},
			"distance": 0,
			"type": "ING"
		},
		{
			"address": {
				"street": "Gedempte Zuiderdiep",
				"housenumber": "14",
				"postalcode": "9711 HG",
				"city": "Groningen",
				"geoLocation": {
					"lat": "53.215365",
					"lng": "6.57033"
				}
			},
			"distance": 0,
			"type": "ING"
		},
		{
			"address": {
				"street": "Lilienthalplein",
				"housenumber": "28",
				"postalcode": "9501 XP",
				"city": "Stadskanaal",
				"geoLocation": {
					"lat": "52.989687",
					"lng": "6.952043"
				}
			},
			"distance": 0,
			"type": "ING"
		},
		{
			"address": {
				"street": "'t Erf",
				"housenumber": "9",
				"postalcode": "3831 NA",
				"city": "Leusden",
				"geoLocation": {
					"lat": "52.130957",
					"lng": "5.428406"
				}
			},
			"distance": 0,
			"type": "ING"
		},
		{
			"address": {
				"street": "John Lennonstraat",
				"housenumber": "265",
				"postalcode": "1544 LT",
				"city": "Zaandijk",
				"geoLocation": {
					"lat": "52.476429",
					"lng": "4.799944"
				}
			},
			"distance": 0,
			"type": "ING"
		},
		{
			"address": {
				"street": "1e Hogeweg",
				"housenumber": "200",
				"postalcode": "3701 HL",
				"city": "Zeist",
				"geoLocation": {
					"lat": "52.084671",
					"lng": "5.242279"
				}
			},
			"distance": 0,
			"type": "ING"
		},
		{
			"address": {
				"street": "Huis te Veldelaan",
				"housenumber": "2",
				"postalcode": "3155 SE",
				"city": "Maasland",
				"geoLocation": {
					"lat": "51.934061",
					"lng": "4.269167"
				}
			},
			"distance": 0,
			"type": "ING"
		},
		{
			"address": {
				"street": "Boerhaavelaan",
				"housenumber": "22",
				"postalcode": "2035 RC",
				"city": "Haarlem",
				"geoLocation": {
					"lat": "52.366347",
					"lng": "4.651915"
				}
			},
			"distance": 0,
			"type": "ING"
		},
		{
			"address": {
				"street": "Oostelijke Handelskade",
				"housenumber": "1065",
				"postalcode": "1019 BW",
				"city": "Amsterdam",
				"geoLocation": {
					"lat": "52.373962",
					"lng": "4.938648"
				}
			},
			"distance": 0,
			"type": "ING"
		},
		{
			"address": {
				"street": "Muntplein",
				"housenumber": "20",
				"postalcode": "3437 AP",
				"city": "Nieuwegein",
				"geoLocation": {
					"lat": "52.04126",
					"lng": "5.077754"
				}
			},
			"distance": 0,
			"type": "ING"
		},
		{
			"address": {
				"street": "Hof van Holland",
				"housenumber": "30",
				"postalcode": "3332 EH",
				"city": "Zwijndrecht",
				"geoLocation": {
					"lat": "51.822996",
					"lng": "4.652613"
				}
			},
			"distance": 0,
			"type": "ING"
		},
		{
			"address": {
				"street": "John F Kennedyplein",
				"housenumber": "63-67",
				"postalcode": "1443 EB",
				"city": "Purmerend",
				"geoLocation": {
					"lat": "52.508901",
					"lng": "4.969247"
				}
			},
			"distance": 0,
			"type": "ING"
		},
		{
			"address": {
				"street": "Oude Vest",
				"housenumber": "5",
				"postalcode": "4811 HR",
				"city": "Breda",
				"geoLocation": {
					"lat": "51.586758",
					"lng": "4.778629"
				}
			},
			"distance": 0,
			"type": "ING"
		},
		{
			"address": {
				"street": "Jan Evertsenstraat",
				"housenumber": "85-87",
				"postalcode": "1057 BS",
				"city": "Amsterdam",
				"geoLocation": {
					"lat": "52.370575",
					"lng": "4.854226"
				}
			},
			"distance": 0,
			"type": "ING"
		},
		{
			"address": {
				"street": "Keenenburgweg",
				"housenumber": "15",
				"postalcode": "2636 GK",
				"city": "Schipluiden",
				"geoLocation": {
					"lat": "51.976258",
					"lng": "4.317307"
				}
			},
			"distance": 0,
			"type": "ING"
		},
		{
			"address": {
				"street": "Van Woustraat",
				"housenumber": "150",
				"postalcode": "1073 LV",
				"city": "Amsterdam",
				"geoLocation": {
					"lat": "52.353796",
					"lng": "4.903047"
				}
			},
			"distance": 0,
			"type": "ING"
		},
		{
			"address": {
				"street": "Doelstraat",
				"housenumber": "3",
				"postalcode": "4631 RH",
				"city": "Hoogerheide",
				"geoLocation": {
					"lat": "51.433885",
					"lng": "4.317408"
				}
			},
			"distance": 0,
			"type": "ING"
		},
		{
			"address": {
				"street": "Onderdoor",
				"housenumber": "66",
				"postalcode": "3995 DX",
				"city": "Houten",
				"geoLocation": {
					"lat": "52.034056",
					"lng": "5.168737"
				}
			},
			"distance": 0,
			"type": "ING"
		},
		{
			"address": {
				"street": "Koophandel",
				"housenumber": "7",
				"postalcode": "9101 WZ",
				"city": "Dokkum",
				"geoLocation": {
					"lat": "53.323176",
					"lng": "6.008624"
				}
			},
			"distance": 0,
			"type": "ING"
		},
		{
			"address": {
				"street": "Prins Bernhardweg",
				"housenumber": "40",
				"postalcode": "7241 DH",
				"city": "Lochem",
				"geoLocation": {
					"lat": "52.162079",
					"lng": "6.420316"
				}
			},
			"distance": 0,
			"type": "ING"
		},
		{
			"address": {
				"street": "Middelwyk",
				"housenumber": "31",
				"postalcode": "9202 GN",
				"city": "Drachten",
				"geoLocation": {
					"lat": "53.10967",
					"lng": "6.1115912"
				}
			},
			"distance": 0,
			"type": "ING"
		},
		{
			"address": {
				"street": "Valpoort",
				"housenumber": "157",
				"postalcode": "4873 BM",
				"city": "Etten-Leur",
				"geoLocation": {
					"lat": "51.569107",
					"lng": "4.639954"
				}
			},
			"distance": 0,
			"type": "ING"
		},
		{
			"address": {
				"street": "Kamp",
				"housenumber": "4222",
				"postalcode": "8225 HN",
				"city": "Lelystad",
				"geoLocation": {
					"lat": "52.502322",
					"lng": "5.48915"
				}
			},
			"distance": 0,
			"type": "ING"
		},
		{
			"address": {
				"street": "Uitslagsweg",
				"housenumber": "91-5",
				"postalcode": "7556 LN",
				"city": "Hengelo",
				"geoLocation": {
					"lat": "52.276454",
					"lng": "6.792417"
				}
			},
			"distance": 0,
			"type": "ING"
		},
		{
			"address": {
				"street": "Markt",
				"housenumber": "18",
				"postalcode": "5492 AB",
				"city": "Sint-Oedenrode",
				"geoLocation": {
					"lat": "51.56435",
					"lng": "5.460136"
				}
			},
			"distance": 0,
			"type": "ING"
		},
		{
			"address": {
				"street": "Kesterenlaan",
				"housenumber": "150",
				"postalcode": "4822 WK",
				"city": "Breda",
				"geoLocation": {
					"lat": "51.613331",
					"lng": "4.723688"
				}
			},
			"distance": 0,
			"type": "ING"
		},
		{
			"address": {
				"street": "Floresplein",
				"housenumber": "13",
				"postalcode": "9715 HH",
				"city": "Groningen",
				"geoLocation": {
					"lat": "53.231659",
					"lng": "6.568349"
				}
			},
			"distance": 0,
			"type": "ING"
		},
		{
			"address": {
				"street": "Stadhuisplein",
				"housenumber": "5",
				"postalcode": "4531 GZ",
				"city": "Terneuzen",
				"geoLocation": {
					"lat": "51.337231",
					"lng": "3.831159"
				}
			},
			"distance": 0,
			"type": "ING"
		},
		{
			"address": {
				"street": "Godsweerdersingel",
				"housenumber": "74",
				"postalcode": "6041 GM",
				"city": "Roermond",
				"geoLocation": {
					"lat": "51.196217",
					"lng": "5.99485"
				}
			},
			"distance": 0,
			"type": "ING"
		},
		{
			"address": {
				"street": "Tussen Meer",
				"housenumber": "375B",
				"postalcode": "1069 DR",
				"city": "Amsterdam",
				"geoLocation": {
					"lat": "52.356336",
					"lng": "4.791828"
				}
			},
			"distance": 0,
			"type": "ING"
		},
		{
			"address": {
				"street": "Ackershof",
				"housenumber": "53",
				"postalcode": "2641 DZ",
				"city": "Pijnacker",
				"geoLocation": {
					"lat": "52.019336",
					"lng": "4.433476"
				}
			},
			"distance": 0,
			"type": "ING"
		},
		{
			"address": {
				"street": "Friezenstraat",
				"housenumber": "14",
				"postalcode": "6004 BD",
				"city": "Weert",
				"geoLocation": {
					"lat": "51.253518",
					"lng": "5.734343"
				}
			},
			"distance": 0,
			"type": "ING"
		},
		{
			"address": {
				"street": "Vrieschgroenstraat",
				"housenumber": "5",
				"postalcode": "1503 MC",
				"city": "Zaandam",
				"geoLocation": {
					"lat": "52.444086",
					"lng": "4.836927"
				}
			},
			"distance": 0,
			"type": "ING"
		},
		{
			"address": {
				"street": "Voorstraat",
				"housenumber": "60",
				"postalcode": "8861 BM",
				"city": "Harlingen",
				"geoLocation": {
					"lat": "53.174581",
					"lng": "5.419661"
				}
			},
			"distance": 0,
			"type": "ING"
		},
		{
			"address": {
				"street": "Lijnbaan",
				"housenumber": "295",
				"postalcode": "2728 AH",
				"city": "Zoetermeer",
				"geoLocation": {
					"lat": "52.075469",
					"lng": "4.519847"
				}
			},
			"distance": 0,
			"type": "ING"
		},
		{
			"address": {
				"street": "Evertsenplein",
				"housenumber": "68",
				"postalcode": "3221 BL",
				"city": "Hellevoetsluis",
				"geoLocation": {
					"lat": "51.833403",
					"lng": "4.130827"
				}
			},
			"distance": 0,
			"type": "ING"
		},
		{
			"address": {
				"street": "Wolweg",
				"housenumber": "1",
				"postalcode": "3901 TD",
				"city": "Veenendaal",
				"geoLocation": {
					"lat": "52.024465",
					"lng": "5.557634"
				}
			},
			"distance": 0,
			"type": "ING"
		},
		{
			"address": {
				"street": "Achterom",
				"housenumber": "14A",
				"postalcode": "3311 KC",
				"city": "Dordrecht",
				"geoLocation": {
					"lat": "51.812611",
					"lng": "4.666865"
				}
			},
			"distance": 0,
			"type": "ING"
		},
		{
			"address": {
				"street": "Struytse Hoeck",
				"housenumber": "91",
				"postalcode": "3224 HA",
				"city": "Hellevoetsluis",
				"geoLocation": {
					"lat": "51.830581",
					"lng": "4.144458"
				}
			},
			"distance": 0,
			"type": "ING"
		},
		{
			"address": {
				"street": "Stationsweg",
				"housenumber": "33",
				"postalcode": "9471 GK",
				"city": "Zuidlaren",
				"geoLocation": {
					"lat": "53.092521",
					"lng": "6.681769"
				}
			},
			"distance": 0,
			"type": "ING"
		},
		{
			"address": {
				"street": "Turfmarkt",
				"housenumber": "103",
				"postalcode": "2511 DP",
				"city": "Den Haag",
				"geoLocation": {
					"lat": "52.078926",
					"lng": "4.320708"
				}
			},
			"distance": 0,
			"type": "ING"
		},
		{
			"address": {
				"street": "Dobbe",
				"housenumber": "61",
				"postalcode": "8032 JX",
				"city": "Zwolle",
				"geoLocation": {
					"lat": "52.528996",
					"lng": "6.102735"
				}
			},
			"distance": 0,
			"type": "ING"
		},
		{
			"address": {
				"street": "Frederik Hendriklaan",
				"housenumber": "80",
				"postalcode": "2582 BE",
				"city": "Den Haag",
				"geoLocation": {
					"lat": "52.094267",
					"lng": "4.277314"
				}
			},
			"distance": 0,
			"type": "ING"
		},
		{
			"address": {
				"street": "Winkelcentrum Woensel",
				"housenumber": "3-4",
				"postalcode": "5625 AA",
				"city": "Eindhoven",
				"geoLocation": {
					"lat": "51.467866",
					"lng": "5.477226"
				}
			},
			"distance": 0,
			"type": "ING"
		},
		{
			"address": {
				"street": "Reigerhof",
				"housenumber": "160",
				"postalcode": "2914 KE",
				"city": "Nieuwerkerk aan den IJssel",
				"geoLocation": {
					"lat": "51.967933",
					"lng": "4.618009"
				}
			},
			"distance": 0,
			"type": "ING"
		},
		{
			"address": {
				"street": "Zeemanlaan",
				"housenumber": "2",
				"postalcode": "1171 BD",
				"city": "Badhoevedorp",
				"geoLocation": {
					"lat": "52.338486",
					"lng": "4.777861"
				}
			},
			"distance": 0,
			"type": "ING"
		},
		{
			"address": {
				"street": "Boslaan",
				"housenumber": "40",
				"postalcode": "3417 AB",
				"city": "Montfoort",
				"geoLocation": {
					"lat": "52.047207",
					"lng": "4.951441"
				}
			},
			"distance": 0,
			"type": "ING"
		},
		{
			"address": {
				"street": "Boerenstraat",
				"housenumber": "6",
				"postalcode": "4101 EZ",
				"city": "Culemborg",
				"geoLocation": {
					"lat": "51.954512",
					"lng": "5.225997"
				}
			},
			"distance": 0,
			"type": "ING"
		},
		{
			"address": {
				"street": "Pearl Buck-erf",
				"housenumber": "214",
				"postalcode": "3315 BE",
				"city": "Dordrecht",
				"geoLocation": {
					"lat": "51.798381",
					"lng": "4.725293"
				}
			},
			"distance": 0,
			"type": "ING"
		},
		{
			"address": {
				"street": "Bourgondischelaan",
				"housenumber": "14",
				"postalcode": "1181 DD",
				"city": "Amstelveen",
				"geoLocation": {
					"lat": "52.318016",
					"lng": "4.865931"
				}
			},
			"distance": 0,
			"type": "ING"
		},
		{
			"address": {
				"street": "Watermanweg",
				"housenumber": "116",
				"postalcode": "3067 GG",
				"city": "Rotterdam",
				"geoLocation": {
					"lat": "51.950782",
					"lng": "4.556063"
				}
			},
			"distance": 0,
			"type": "ING"
		},
		{
			"address": {
				"street": "Oostelijke Handelskade",
				"housenumber": "1047",
				"postalcode": "1019 BW",
				"city": "Amsterdam",
				"geoLocation": {
					"lat": "52.374129",
					"lng": "4.937545"
				}
			},
			"distance": 0,
			"type": "ING"
		},
		{
			"address": {
				"street": "Blekersvaartweg",
				"housenumber": "57",
				"postalcode": "2101 CD",
				"city": "Heemstede",
				"geoLocation": {
					"lat": "52.356341",
					"lng": "4.620531"
				}
			},
			"distance": 0,
			"type": "ING"
		},
		{
			"address": {
				"street": "Rimsky-Korssakovweg",
				"housenumber": "33",
				"postalcode": "1323 LP",
				"city": "Almere",
				"geoLocation": {
					"lat": "52.366784",
					"lng": "5.190904"
				}
			},
			"distance": 0,
			"type": "ING"
		},
		{
			"address": {
				"street": "Huizerweg",
				"housenumber": "8",
				"postalcode": "1261 AW",
				"city": "Blaricum",
				"geoLocation": {
					"lat": "52.273513",
					"lng": "5.243686"
				}
			},
			"distance": 0,
			"type": "ING"
		},
		{
			"address": {
				"street": "Europaboulevard",
				"housenumber": "5-7",
				"postalcode": "1825 RA",
				"city": "Alkmaar",
				"geoLocation": {
					"lat": "52.654265",
					"lng": "4.758438"
				}
			},
			"distance": 0,
			"type": "ING"
		},
		{
			"address": {
				"street": "Fahrenheitstraat",
				"housenumber": "434A",
				"postalcode": "2561 EN",
				"city": "Den Haag",
				"geoLocation": {
					"lat": "52.07675",
					"lng": "4.271066"
				}
			},
			"distance": 0,
			"type": "ING"
		},
		{
			"address": {
				"street": "Korte Lijnbaan",
				"housenumber": "1B",
				"postalcode": "3012 EC",
				"city": "Rotterdam",
				"geoLocation": {
					"lat": "51.922114",
					"lng": "4.475927"
				}
			},
			"distance": 0,
			"type": "ING"
		},
		{
			"address": {
				"street": "Den Hof",
				"housenumber": "4",
				"postalcode": "5582 JZ",
				"city": "Waalre",
				"geoLocation": {
					"lat": "51.395453",
					"lng": "5.474914"
				}
			},
			"distance": 0,
			"type": "ING"
		},
		{
			"address": {
				"street": "Kerkstraat",
				"housenumber": "27",
				"postalcode": "9751 BB",
				"city": "Haren",
				"geoLocation": {
					"lat": "53.173027",
					"lng": "6.608125"
				}
			},
			"distance": 0,
			"type": "ING"
		},
		{
			"address": {
				"street": "Spaarndammerdijk",
				"housenumber": "3",
				"postalcode": "1013 ZM",
				"city": "Amsterdam",
				"geoLocation": {
					"lat": "52.39165",
					"lng": "4.877995"
				}
			},
			"distance": 0,
			"type": "ING"
		},
		{
			"address": {
				"street": "Nieuwe Egmonderstraatweg",
				"housenumber": "11",
				"postalcode": "1934 PA",
				"city": "Egmond aan den Hoef",
				"geoLocation": {
					"lat": "52.618768",
					"lng": "4.648375"
				}
			},
			"distance": 0,
			"type": "ING"
		},
		{
			"address": {
				"street": "Kleuvenstee",
				"housenumber": "106",
				"postalcode": "9403 LS",
				"city": "Assen",
				"geoLocation": {
					"lat": "53.017388",
					"lng": "6.585375"
				}
			},
			"distance": 0,
			"type": "ING"
		},
		{
			"address": {
				"street": "Hndelplein",
				"housenumber": "185",
				"postalcode": "2151 NN",
				"city": "Nieuw-Vennep",
				"geoLocation": {
					"lat": "52.270735",
					"lng": "4.619894"
				}
			},
			"distance": 0,
			"type": "ING"
		},
		{
			"address": {
				"street": "Makado Center",
				"housenumber": "41",
				"postalcode": "2951 EH",
				"city": "Alblasserdam",
				"geoLocation": {
					"lat": "51.863859",
					"lng": "4.657596"
				}
			},
			"distance": 0,
			"type": "ING"
		},
		{
			"address": {
				"street": "Amstelplein",
				"housenumber": "37",
				"postalcode": "1421 SB",
				"city": "Uithoorn",
				"geoLocation": {
					"lat": "52.232542",
					"lng": "4.828763"
				}
			},
			"distance": 0,
			"type": "ING"
		},
		{
			"address": {
				"street": "Piet Heinstraat",
				"housenumber": "37-39",
				"postalcode": "4461 GL",
				"city": "Goes",
				"geoLocation": {
					"lat": "51.500683",
					"lng": "3.888625"
				}
			},
			"distance": 0,
			"type": "ING"
		},
		{
			"address": {
				"street": "Eemplein",
				"housenumber": "65",
				"postalcode": "3812 EA",
				"city": "Amersfoort",
				"geoLocation": {
					"lat": "52.158821",
					"lng": "5.382012"
				}
			},
			"distance": 0,
			"type": "ING"
		},
		{
			"address": {
				"street": "Vondellaan",
				"housenumber": "200",
				"postalcode": "3521 GZ",
				"city": "Utrecht",
				"geoLocation": {
					"lat": "52.077939",
					"lng": "5.115695"
				}
			},
			"distance": 0,
			"type": "ING"
		},
		{
			"address": {
				"street": "Markt",
				"housenumber": "27",
				"postalcode": "5554 CA",
				"city": "Valkenswaard",
				"geoLocation": {
					"lat": "51.35027",
					"lng": "5.459409"
				}
			},
			"distance": 0,
			"type": "ING"
		},
		{
			"address": {
				"street": "Kastelenstraat",
				"housenumber": "70",
				"postalcode": "1083 CD",
				"city": "Amsterdam",
				"geoLocation": {
					"lat": "52.326243",
					"lng": "4.883146"
				}
			},
			"distance": 0,
			"type": "ING"
		},
		{
			"address": {
				"street": "Boekeloseweg",
				"housenumber": "26",
				"postalcode": "7553 DN",
				"city": "Hengelo",
				"geoLocation": {
					"lat": "52.255149",
					"lng": "6.786253"
				}
			},
			"distance": 0,
			"type": "ING"
		},
		{
			"address": {
				"street": "Brouwhorst",
				"housenumber": "49",
				"postalcode": "5704 EG",
				"city": "Helmond",
				"geoLocation": {
					"lat": "51.470068",
					"lng": "5.701973"
				}
			},
			"distance": 0,
			"type": "ING"
		},
		{
			"address": {
				"street": "Postjesweg",
				"housenumber": "65",
				"postalcode": "1057 DW",
				"city": "Amsterdam",
				"geoLocation": {
					"lat": "52.364062",
					"lng": "4.855156"
				}
			},
			"distance": 0,
			"type": "ING"
		},
		{
			"address": {
				"street": "Lijnbaan",
				"housenumber": "121",
				"postalcode": "3012 EN",
				"city": "Rotterdam",
				"geoLocation": {
					"lat": "51.918903",
					"lng": "4.476807"
				}
			},
			"distance": 0,
			"type": "ING"
		},
		{
			"address": {
				"street": "Walstraat",
				"housenumber": "75",
				"postalcode": "4381 GD",
				"city": "Vlissingen",
				"geoLocation": {
					"lat": "51.444254",
					"lng": "3.574424"
				}
			},
			"distance": 0,
			"type": "ING"
		},
		{
			"address": {
				"street": "Achtergracht",
				"housenumber": "64",
				"postalcode": "1381 BP",
				"city": "Weesp",
				"geoLocation": {
					"lat": "52.3066486",
					"lng": "5.0373109"
				}
			},
			"distance": 0,
			"type": "ING"
		},
		{
			"address": {
				"street": "Land van Cocagneplein",
				"housenumber": "3",
				"postalcode": "1093 NB",
				"city": "Amsterdam",
				"geoLocation": {
					"lat": "52.357259",
					"lng": "4.928525"
				}
			},
			"distance": 0,
			"type": "ING"
		},
		{
			"address": {
				"street": "Steenstraat",
				"housenumber": "13",
				"postalcode": "5961 ET",
				"city": "Horst",
				"geoLocation": {
					"lat": "51.453236",
					"lng": "6.052614"
				}
			},
			"distance": 0,
			"type": "ING"
		},
		{
			"address": {
				"street": "Markt",
				"housenumber": "50",
				"postalcode": "2801 JL",
				"city": "Gouda",
				"geoLocation": {
					"lat": "52.012061",
					"lng": "4.709966"
				}
			},
			"distance": 0,
			"type": "ING"
		},
		{
			"address": {
				"street": "Damstraat",
				"housenumber": "58",
				"postalcode": "3531 BW",
				"city": "Utrecht",
				"geoLocation": {
					"lat": "52.0922024",
					"lng": "5.1032717"
				}
			},
			"distance": 0,
			"type": "ING"
		},
		{
			"address": {
				"street": "Stationsplein",
				"housenumber": "11",
				"postalcode": "2801 AK",
				"city": "Gouda",
				"geoLocation": {
					"lat": "52.016983",
					"lng": "4.706249"
				}
			},
			"distance": 0,
			"type": "ING"
		},
		{
			"address": {
				"street": "Hoofdstraat Oost",
				"housenumber": "9",
				"postalcode": "9981 AG",
				"city": "Uithuizen",
				"geoLocation": {
					"lat": "53.407613",
					"lng": "6.674107"
				}
			},
			"distance": 0,
			"type": "ING"
		},
		{
			"address": {
				"street": "Meijhorst",
				"housenumber": "7001",
				"postalcode": "6537 EN",
				"city": "Nijmegen",
				"geoLocation": {
					"lat": "51.811397",
					"lng": "5.800558"
				}
			},
			"distance": 0,
			"type": "ING"
		},
		{
			"address": {
				"street": "Julianaplein",
				"housenumber": "1",
				"postalcode": "1097 DN",
				"city": "Amsterdam",
				"geoLocation": {
					"lat": "52.346614",
					"lng": "4.918757"
				}
			},
			"distance": 0,
			"type": "ING"
		},
		{
			"address": {
				"street": "Leenderweg",
				"housenumber": "52",
				"postalcode": "5615 AA",
				"city": "Eindhoven",
				"geoLocation": {
					"lat": "51.426602",
					"lng": "5.488635"
				}
			},
			"distance": 0,
			"type": "ING"
		},
		{
			"address": {
				"street": "Koningin Julianaplein",
				"housenumber": "24",
				"postalcode": "2273 BR",
				"city": "Voorburg",
				"geoLocation": {
					"lat": "52.076097",
					"lng": "4.358504"
				}
			},
			"distance": 0,
			"type": "ING"
		},
		{
			"address": {
				"street": "Prins Bernhardstraat",
				"housenumber": "9",
				"postalcode": "2396 GA",
				"city": "Koudekerk aan den Rijn",
				"geoLocation": {
					"lat": "52.133101",
					"lng": "4.600767"
				}
			},
			"distance": 0,
			"type": "ING"
		},
		{
			"address": {
				"street": "Jacoba Van Beijerenhof",
				"housenumber": "29",
				"postalcode": "2215 JK",
				"city": "Voorhout",
				"geoLocation": {
					"lat": "52.222727",
					"lng": "4.486409"
				}
			},
			"distance": 0,
			"type": "ING"
		},
		{
			"address": {
				"street": "Langeweide",
				"housenumber": "77",
				"postalcode": "1507 NC",
				"city": "Zaandam",
				"geoLocation": {
					"lat": "52.448434",
					"lng": "4.802566"
				}
			},
			"distance": 0,
			"type": "ING"
		},
		{
			"address": {
				"street": "Marktveldpassage",
				"housenumber": "6",
				"postalcode": "5261 EC",
				"city": "Vught",
				"geoLocation": {
					"lat": "51.658167",
					"lng": "5.299975"
				}
			},
			"distance": 0,
			"type": "ING"
		},
		{
			"address": {
				"street": "Langestreek",
				"housenumber": "56",
				"postalcode": "9166 LD",
				"city": "Schiermonnikoog",
				"geoLocation": {
					"lat": "53.479886",
					"lng": "6.162479"
				}
			},
			"distance": 0,
			"type": "ING"
		},
		{
			"address": {
				"street": "Marsmanplein",
				"housenumber": "222",
				"postalcode": "2025 DV",
				"city": "Haarlem",
				"geoLocation": {
					"lat": "52.416557",
					"lng": "4.648804"
				}
			},
			"distance": 0,
			"type": "ING"
		},
		{
			"address": {
				"street": "Het Hoekstuk",
				"housenumber": "6",
				"postalcode": "1852 KX",
				"city": "Heiloo",
				"geoLocation": {
					"lat": "52.603799",
					"lng": "4.68794"
				}
			},
			"distance": 0,
			"type": "ING"
		},
		{
			"address": {
				"street": "Turfmarkt",
				"housenumber": "238",
				"postalcode": "2511 DJ",
				"city": "Den Haag",
				"geoLocation": {
					"lat": "52.079435",
					"lng": "4.321294"
				}
			},
			"distance": 0,
			"type": "ING"
		},
		{
			"address": {
				"street": "Cruijgenstraat",
				"housenumber": "3",
				"postalcode": "5469 BS",
				"city": "Erp",
				"geoLocation": {
					"lat": "51.601123",
					"lng": "5.607817"
				}
			},
			"distance": 0,
			"type": "ING"
		},
		{
			"address": {
				"street": "Nieuwstraat",
				"housenumber": "104",
				"postalcode": "4921 CZ",
				"city": "Made",
				"geoLocation": {
					"lat": "51.674643",
					"lng": "4.783608"
				}
			},
			"distance": 0,
			"type": "ING"
		},
		{
			"address": {
				"street": "Stationsplein",
				"housenumber": "17",
				"postalcode": "4561 GC",
				"city": "Hulst",
				"geoLocation": {
					"lat": "51.276612",
					"lng": "4.047936"
				}
			},
			"distance": 0,
			"type": "ING"
		},
		{
			"address": {
				"street": "Hobbemaplein",
				"housenumber": "30A",
				"postalcode": "2526 JB",
				"city": "Den Haag",
				"geoLocation": {
					"lat": "52.06711",
					"lng": "4.296687"
				}
			},
			"distance": 0,
			"type": "ING"
		},
		{
			"address": {
				"street": "Castellumstraat",
				"housenumber": "1",
				"postalcode": "2405 CB",
				"city": "Alphen aan den Rijn",
				"geoLocation": {
					"lat": "52.128868",
					"lng": "4.659852"
				}
			},
			"distance": 0,
			"type": "ING"
		},
		{
			"address": {
				"street": "Willem II Singel",
				"housenumber": "1-3",
				"postalcode": "6041 HP",
				"city": "Roermond",
				"geoLocation": {
					"lat": "51.192011",
					"lng": "5.992948"
				}
			},
			"distance": 0,
			"type": "ING"
		},
		{
			"address": {
				"street": "Nieuwe Markt",
				"housenumber": "45",
				"postalcode": "6101 CV",
				"city": "Echt",
				"geoLocation": {
					"lat": "51.103494",
					"lng": "5.873118"
				}
			},
			"distance": 0,
			"type": "ING"
		},
		{
			"address": {
				"street": "Westelijk Halfrond",
				"housenumber": "70",
				"postalcode": "1183 JG",
				"city": "Amstelveen",
				"geoLocation": {
					"lat": "52.31187",
					"lng": "4.874802"
				}
			},
			"distance": 0,
			"type": "ING"
		},
		{
			"address": {
				"street": "Wethouder Nijhuisstraat",
				"housenumber": "164",
				"postalcode": "7545 NM",
				"city": "Enschede",
				"geoLocation": {
					"lat": "52.213895",
					"lng": "6.861797"
				}
			},
			"distance": 0,
			"type": "ING"
		},
		{
			"address": {
				"street": "Van Burgplein",
				"housenumber": "10",
				"postalcode": "1447 KR",
				"city": "Purmerend",
				"geoLocation": {
					"lat": "52.493766",
					"lng": "4.969581"
				}
			},
			"distance": 0,
			"type": "ING"
		},
		{
			"address": {
				"street": "De Diagonaal",
				"housenumber": "26",
				"postalcode": "1315 XE",
				"city": "Almere",
				"geoLocation": {
					"lat": "52.3699365",
					"lng": "5.2175526"
				}
			},
			"distance": 0,
			"type": "ING"
		},
		{
			"address": {
				"street": "Valburgseweg",
				"housenumber": "16-20",
				"postalcode": "6661 EV",
				"city": "Elst",
				"geoLocation": {
					"lat": "51.919271",
					"lng": "5.840232"
				}
			},
			"distance": 0,
			"type": "ING"
		},
		{
			"address": {
				"street": "Hoofdstraat",
				"housenumber": "35",
				"postalcode": "9531 AB",
				"city": "Borger",
				"geoLocation": {
					"lat": "52.92344",
					"lng": "6.792067"
				}
			},
			"distance": 0,
			"type": "ING"
		},
		{
			"address": {
				"street": "Westerstraat",
				"housenumber": "188",
				"postalcode": "1601 AP",
				"city": "Enkhuizen",
				"geoLocation": {
					"lat": "52.7026866",
					"lng": "5.2829936"
				}
			},
			"distance": 0,
			"type": "ING"
		},
		{
			"address": {
				"street": "Grietsestraat",
				"housenumber": "150",
				"postalcode": "6901 GW",
				"city": "Zevenaar",
				"geoLocation": {
					"lat": "51.930983",
					"lng": "6.077689"
				}
			},
			"distance": 0,
			"type": "ING"
		},
		{
			"address": {
				"street": "Molenweg",
				"housenumber": "34",
				"postalcode": "6051 HJ",
				"city": "Maasbracht",
				"geoLocation": {
					"lat": "51.147191",
					"lng": "5.891374"
				}
			},
			"distance": 0,
			"type": "ING"
		},
		{
			"address": {
				"street": "Lorentzplein",
				"housenumber": "76",
				"postalcode": "2522 EH",
				"city": "Den Haag",
				"geoLocation": {
					"lat": "52.060856",
					"lng": "4.32862"
				}
			},
			"distance": 0,
			"type": "ING"
		},
		{
			"address": {
				"street": "Slinge",
				"housenumber": "409",
				"postalcode": "3085 ES",
				"city": "Rotterdam",
				"geoLocation": {
					"lat": "51.873592",
					"lng": "4.488382"
				}
			},
			"distance": 0,
			"type": "ING"
		},
		{
			"address": {
				"street": "Koningshoek",
				"housenumber": "91001",
				"postalcode": "3144 BA",
				"city": "Maassluis",
				"geoLocation": {
					"lat": "51.928944",
					"lng": "4.240064"
				}
			},
			"distance": 0,
			"type": "ING"
		},
		{
			"address": {
				"street": "Kinheim",
				"housenumber": "305",
				"postalcode": "3191 EG",
				"city": "Hoogvliet Rotterdam",
				"geoLocation": {
					"lat": "51.864567",
					"lng": "4.354779"
				}
			},
			"distance": 0,
			"type": "ING"
		},
		{
			"address": {
				"street": "Theresiastraat",
				"housenumber": "75",
				"postalcode": "2593 AB",
				"city": "Den Haag",
				"geoLocation": {
					"lat": "52.083956",
					"lng": "4.332247"
				}
			},
			"distance": 0,
			"type": "ING"
		},
		{
			"address": {
				"street": "Havenstraat",
				"housenumber": "38",
				"postalcode": "4531 EK",
				"city": "Terneuzen",
				"geoLocation": {
					"lat": "51.337745",
					"lng": "3.829218"
				}
			},
			"distance": 0,
			"type": "ING"
		},
		{
			"address": {
				"street": "Waterlandplein",
				"housenumber": "260",
				"postalcode": "1024 NB",
				"city": "Amsterdam",
				"geoLocation": {
					"lat": "52.392359",
					"lng": "4.9548"
				}
			},
			"distance": 0,
			"type": "ING"
		},
		{
			"address": {
				"street": "Brusselsepoort",
				"housenumber": "5",
				"postalcode": "6216 CE",
				"city": "Maastricht",
				"geoLocation": {
					"lat": "50.849957",
					"lng": "5.666836"
				}
			},
			"distance": 0,
			"type": "ING"
		},
		{
			"address": {
				"street": "Galle Promenade",
				"housenumber": "5",
				"postalcode": "1991 PP",
				"city": "Velserbroek",
				"geoLocation": {
					"lat": "52.43475",
					"lng": "4.658973"
				}
			},
			"distance": 0,
			"type": "ING"
		},
		{
			"address": {
				"street": "Crogtdijk",
				"housenumber": "79",
				"postalcode": "4815 AE",
				"city": "Breda",
				"geoLocation": {
					"lat": "51.601595",
					"lng": "4.770778"
				}
			},
			"distance": 0,
			"type": "ING"
		},
		{
			"address": {
				"street": "De Hoven",
				"housenumber": "25",
				"postalcode": "7122 BJ",
				"city": "Aalten",
				"geoLocation": {
					"lat": "51.927183",
					"lng": "6.579492"
				}
			},
			"distance": 0,
			"type": "ING"
		},
		{
			"address": {
				"street": "Kleiweg",
				"housenumber": "35",
				"postalcode": "3051 GJ",
				"city": "Rotterdam",
				"geoLocation": {
					"lat": "51.945091",
					"lng": "4.481572"
				}
			},
			"distance": 0,
			"type": "ING"
		},
		{
			"address": {
				"street": "Osdorper Ban",
				"housenumber": "90",
				"postalcode": "1068 MK",
				"city": "Amsterdam",
				"geoLocation": {
					"lat": "52.362034",
					"lng": "4.798726"
				}
			},
			"distance": 0,
			"type": "ING"
		},
		{
			"address": {
				"street": "Het Kleine Loo",
				"housenumber": "342",
				"postalcode": "2592 CK",
				"city": "Den Haag",
				"geoLocation": {
					"lat": "52.091778",
					"lng": "4.356757"
				}
			},
			"distance": 0,
			"type": "ING"
		},
		{
			"address": {
				"street": "Middenweg",
				"housenumber": "49",
				"postalcode": "1098 AC",
				"city": "Amsterdam",
				"geoLocation": {
					"lat": "52.354325",
					"lng": "4.929935"
				}
			},
			"distance": 0,
			"type": "ING"
		},
		{
			"address": {
				"street": "Buikslotermeerplein",
				"housenumber": "426",
				"postalcode": "1025 WP",
				"city": "Amsterdam",
				"geoLocation": {
					"lat": "52.397468",
					"lng": "4.94107"
				}
			},
			"distance": 0,
			"type": "ING"
		},
		{
			"address": {
				"street": "Troosterhof",
				"housenumber": "6",
				"postalcode": "3571 NC",
				"city": "Utrecht",
				"geoLocation": {
					"lat": "52.106631",
					"lng": "5.135404"
				}
			},
			"distance": 0,
			"type": "ING"
		},
		{
			"address": {
				"street": "Graaf Willemlaan",
				"housenumber": "24",
				"postalcode": "1141 XL",
				"city": "Monnickendam",
				"geoLocation": {
					"lat": "52.454894",
					"lng": "5.040365"
				}
			},
			"distance": 0,
			"type": "ING"
		},
		{
			"address": {
				"street": "De Brink",
				"housenumber": "86",
				"postalcode": "7206 KC",
				"city": "Zutphen",
				"geoLocation": {
					"lat": "52.124988",
					"lng": "6.199094"
				}
			},
			"distance": 0,
			"type": "ING"
		},
		{
			"address": {
				"street": "Ackershof",
				"housenumber": "74",
				"postalcode": "2641 BL",
				"city": "Pijnacker",
				"geoLocation": {
					"lat": "52.0188",
					"lng": "4.430515"
				}
			},
			"distance": 0,
			"type": "ING"
		},
		{
			"address": {
				"street": "Vrijlandstraat",
				"housenumber": "87-89",
				"postalcode": "4337 EC",
				"city": "Middelburg",
				"geoLocation": {
					"lat": "51.492232",
					"lng": "3.6224"
				}
			},
			"distance": 0,
			"type": "ING"
		},
		{
			"address": {
				"street": "Kiryat Onoplein",
				"housenumber": "87",
				"postalcode": "9203 KS",
				"city": "Drachten",
				"geoLocation": {
					"lat": "53.101238",
					"lng": "6.096774"
				}
			},
			"distance": 0,
			"type": "ING"
		},
		{
			"address": {
				"street": "Zwanebloem",
				"housenumber": "9",
				"postalcode": "1441 TR",
				"city": "Purmerend",
				"geoLocation": {
					"lat": "52.494407",
					"lng": "4.952846"
				}
			},
			"distance": 0,
			"type": "ING"
		},
		{
			"address": {
				"street": "Andriessenplein",
				"housenumber": "34",
				"postalcode": "7425 GZ",
				"city": "Deventer",
				"geoLocation": {
					"lat": "52.260533",
					"lng": "6.224339"
				}
			},
			"distance": 0,
			"type": "ING"
		},
		{
			"address": {
				"street": "Wibautstraat",
				"housenumber": "80",
				"postalcode": "1091 GP",
				"city": "Amsterdam",
				"geoLocation": {
					"lat": "52.355742",
					"lng": "4.910792"
				}
			},
			"distance": 0,
			"type": "ING"
		},
		{
			"address": {
				"street": "Grotestraat",
				"housenumber": "172",
				"postalcode": "5141 HC",
				"city": "Waalwijk",
				"geoLocation": {
					"lat": "51.69005",
					"lng": "5.062394"
				}
			},
			"distance": 0,
			"type": "ING"
		},
		{
			"address": {
				"street": "Veenlustpassage",
				"housenumber": "12",
				"postalcode": "9641 MK",
				"city": "Veendam",
				"geoLocation": {
					"lat": "53.10539",
					"lng": "6.880095"
				}
			},
			"distance": 0,
			"type": "ING"
		},
		{
			"address": {
				"street": "Pastoor Heimerikxstraat",
				"housenumber": "3",
				"postalcode": "7468 EB",
				"city": "Enter",
				"geoLocation": {
					"lat": "52.292668",
					"lng": "6.57763"
				}
			},
			"distance": 0,
			"type": "ING"
		},
		{
			"address": {
				"street": "Lekkenburg",
				"housenumber": "3",
				"postalcode": "2804 XA",
				"city": "Gouda",
				"geoLocation": {
					"lat": "52.032021",
					"lng": "4.704359"
				}
			},
			"distance": 0,
			"type": "ING"
		},
		{
			"address": {
				"street": "Lokerenpassage",
				"housenumber": "25",
				"postalcode": "5235 KR",
				"city": "Den Bosch",
				"geoLocation": {
					"lat": "51.726073",
					"lng": "5.308427"
				}
			},
			"distance": 0,
			"type": "ING"
		},
		{
			"address": {
				"street": "Overdiep",
				"housenumber": "1",
				"postalcode": "9902 DB",
				"city": "Appingedam",
				"geoLocation": {
					"lat": "53.318228",
					"lng": "6.859061"
				}
			},
			"distance": 0,
			"type": "ING"
		},
		{
			"address": {
				"street": "Spoorstraat",
				"housenumber": "30",
				"postalcode": "7481 HZ",
				"city": "Haaksbergen",
				"geoLocation": {
					"lat": "52.156286",
					"lng": "6.740626"
				}
			},
			"distance": 0,
			"type": "ING"
		},
		{
			"address": {
				"street": "Twijnstraat",
				"housenumber": "8",
				"postalcode": "3511 ZK",
				"city": "Utrecht",
				"geoLocation": {
					"lat": "52.0834807",
					"lng": "5.1233556"
				}
			},
			"distance": 0,
			"type": "ING"
		},
		{
			"address": {
				"street": "Achter 't Veer",
				"housenumber": "6",
				"postalcode": "4191 AD",
				"city": "Geldermalsen",
				"geoLocation": {
					"lat": "51.883446",
					"lng": "5.286275"
				}
			},
			"distance": 0,
			"type": "ING"
		},
		{
			"address": {
				"street": "Oudelandstraat",
				"housenumber": "16",
				"postalcode": "2691 CE",
				"city": "'s-Gravenzande",
				"geoLocation": {
					"lat": "52.000336",
					"lng": "4.164191"
				}
			},
			"distance": 0,
			"type": "ING"
		},
		{
			"address": {
				"street": "Plantage",
				"housenumber": "130",
				"postalcode": "1943 LR",
				"city": "Beverwijk",
				"geoLocation": {
					"lat": "52.489357",
					"lng": "4.650447"
				}
			},
			"distance": 0,
			"type": "ING"
		},
		{
			"address": {
				"street": "Helmholtzstraat",
				"housenumber": "63",
				"postalcode": "1098 LE",
				"city": "Amsterdam",
				"geoLocation": {
					"lat": "52.350057",
					"lng": "4.939726"
				}
			},
			"distance": 0,
			"type": "ING"
		},
		{
			"address": {
				"street": "Markt",
				"housenumber": "43",
				"postalcode": "4331 LK",
				"city": "Middelburg",
				"geoLocation": {
					"lat": "51.498013",
					"lng": "3.612293"
				}
			},
			"distance": 0,
			"type": "ING"
		},
		{
			"address": {
				"street": "Rokin",
				"housenumber": "90",
				"postalcode": "1012 KX",
				"city": "Amsterdam",
				"geoLocation": {
					"lat": "52.369732",
					"lng": "4.891963"
				}
			},
			"distance": 0,
			"type": "ING"
		},
		{
			"address": {
				"street": "Middenwaard",
				"housenumber": "2",
				"postalcode": "1703 SE",
				"city": "Heerhugowaard",
				"geoLocation": {
					"lat": "52.662913",
					"lng": "4.831134"
				}
			},
			"distance": 0,
			"type": "ING"
		},
		{
			"address": {
				"street": "Volendamlaan",
				"housenumber": "670",
				"postalcode": "2547 CK",
				"city": "Den Haag",
				"geoLocation": {
					"lat": "52.06224",
					"lng": "4.269079"
				}
			},
			"distance": 0,
			"type": "ING"
		},
		{
			"address": {
				"street": "Wolfsberg",
				"housenumber": "20",
				"postalcode": "5751 GX",
				"city": "Deurne",
				"geoLocation": {
					"lat": "51.462286",
					"lng": "5.79685"
				}
			},
			"distance": 0,
			"type": "ING"
		},
		{
			"address": {
				"street": "Smaragdplein",
				"housenumber": "224",
				"postalcode": "3523 EH",
				"city": "Utrecht",
				"geoLocation": {
					"lat": "52.072081",
					"lng": "5.124848"
				}
			},
			"distance": 0,
			"type": "ING"
		},
		{
			"address": {
				"street": "Schouwburgplein",
				"housenumber": "85",
				"postalcode": "3012 CL",
				"city": "Rotterdam",
				"geoLocation": {
					"lat": "51.9217673",
					"lng": "4.473955"
				}
			},
			"distance": 0,
			"type": "ING"
		},
		{
			"address": {
				"street": "Oostburgwal",
				"housenumber": "22",
				"postalcode": "6845 CZ",
				"city": "Arnhem",
				"geoLocation": {
					"lat": "51.948778",
					"lng": "5.866569"
				}
			},
			"distance": 0,
			"type": "ING"
		},
		{
			"address": {
				"street": "Achterom",
				"housenumber": "42",
				"postalcode": "3311 KC",
				"city": "Dordrecht",
				"geoLocation": {
					"lat": "51.812367",
					"lng": "4.666753"
				}
			},
			"distance": 0,
			"type": "ING"
		},
		{
			"address": {
				"street": "Breestraat",
				"housenumber": "31",
				"postalcode": "1941 ED",
				"city": "Beverwijk",
				"geoLocation": {
					"lat": "52.480171",
					"lng": "4.656297"
				}
			},
			"distance": 0,
			"type": "ING"
		},
		{
			"address": {
				"street": "Emmakade",
				"housenumber": "168",
				"postalcode": "8933 AX",
				"city": "Leeuwarden",
				"geoLocation": {
					"lat": "53.199514",
					"lng": "5.815865"
				}
			},
			"distance": 0,
			"type": "ING"
		},
		{
			"address": {
				"street": "Torenstraat",
				"housenumber": "1",
				"postalcode": "5701 SH",
				"city": "Helmond",
				"geoLocation": {
					"lat": "51.483303",
					"lng": "5.654303"
				}
			},
			"distance": 0,
			"type": "ING"
		},
		{
			"address": {
				"street": "Mercuriusweg",
				"housenumber": "16",
				"postalcode": "2624 BC",
				"city": "Delft",
				"geoLocation": {
					"lat": "52.0001464",
					"lng": "4.3536115"
				}
			},
			"distance": 0,
			"type": "ING"
		},
		{
			"address": {
				"street": "Hooigracht",
				"housenumber": "85",
				"postalcode": "2312 KP",
				"city": "Leiden",
				"geoLocation": {
					"lat": "52.159675",
					"lng": "4.497078"
				}
			},
			"distance": 0,
			"type": "ING"
		},
		{
			"address": {
				"street": "Venedie",
				"housenumber": "3",
				"postalcode": "1601 HA",
				"city": "Enkhuizen",
				"geoLocation": {
					"lat": "52.703413",
					"lng": "5.290503"
				}
			},
			"distance": 0,
			"type": "ING"
		},
		{
			"address": {
				"street": "Groenhof",
				"housenumber": "144",
				"postalcode": "1186 EX",
				"city": "Amstelveen",
				"geoLocation": {
					"lat": "52.28882",
					"lng": "4.869981"
				}
			},
			"distance": 0,
			"type": "ING"
		},
		{
			"address": {
				"street": "De Schaatsenmaker",
				"housenumber": "8",
				"postalcode": "5506 CZ",
				"city": "Veldhoven",
				"geoLocation": {
					"lat": "51.418473",
					"lng": "5.392067"
				}
			},
			"distance": 0,
			"type": "ING"
		},
		{
			"address": {
				"street": "Dorpsstraat",
				"housenumber": "56",
				"postalcode": "2661 CH",
				"city": "Bergschenhoek",
				"geoLocation": {
					"lat": "51.989231",
					"lng": "4.50165"
				}
			},
			"distance": 0,
			"type": "ING"
		},
		{
			"address": {
				"street": "Leeghwaterlaan",
				"housenumber": "131",
				"postalcode": "5223 DS",
				"city": "Den Bosch",
				"geoLocation": {
					"lat": "51.691198",
					"lng": "5.291391"
				}
			},
			"distance": 0,
			"type": "ING"
		},
		{
			"address": {
				"street": "Beverhof",
				"housenumber": "37B",
				"postalcode": "1941 EC",
				"city": "Beverwijk",
				"geoLocation": {
					"lat": "52.482265",
					"lng": "4.658681"
				}
			},
			"distance": 0,
			"type": "ING"
		},
		{
			"address": {
				"street": "Pastoor Doensstraat",
				"housenumber": "8",
				"postalcode": "4854 CP",
				"city": "Bavel",
				"geoLocation": {
					"lat": "51.56575",
					"lng": "4.831532"
				}
			},
			"distance": 0,
			"type": "ING"
		},
		{
			"address": {
				"street": "Leidseplein",
				"housenumber": "1-3",
				"postalcode": "1017 PR",
				"city": "Amsterdam",
				"geoLocation": {
					"lat": "52.364375",
					"lng": "4.883594"
				}
			},
			"distance": 0,
			"type": "ING"
		},
		{
			"address": {
				"street": "Centrumpassage",
				"housenumber": "27",
				"postalcode": "2903 HA",
				"city": "Capelle aan den IJssel",
				"geoLocation": {
					"lat": "51.931908",
					"lng": "4.589249"
				}
			},
			"distance": 0,
			"type": "ING"
		},
		{
			"address": {
				"street": "Antwerpsestraat",
				"housenumber": "9",
				"postalcode": "4645 BA",
				"city": "Putte",
				"geoLocation": {
					"lat": "51.356173",
					"lng": "4.39424"
				}
			},
			"distance": 0,
			"type": "ING"
		},
		{
			"address": {
				"street": "Oosterdokskade",
				"housenumber": "65",
				"postalcode": "1011 DL",
				"city": "Amsterdam",
				"geoLocation": {
					"lat": "52.375747",
					"lng": "4.907458"
				}
			},
			"distance": 0,
			"type": "ING"
		},
		{
			"address": {
				"street": "Provincialeweg",
				"housenumber": "25",
				"postalcode": "1506 MA",
				"city": "Zaandam",
				"geoLocation": {
					"lat": "52.435315",
					"lng": "4.814593"
				}
			},
			"distance": 0,
			"type": "ING"
		},
		{
			"address": {
				"street": "Laan van Decima",
				"housenumber": "1",
				"postalcode": "2031 CX",
				"city": "Haarlem",
				"geoLocation": {
					"lat": "52.38478",
					"lng": "4.670487"
				}
			},
			"distance": 0,
			"type": "ING"
		},
		{
			"address": {
				"street": "Valkenboslaan",
				"housenumber": "173",
				"postalcode": "2563 CK",
				"city": "Den Haag",
				"geoLocation": {
					"lat": "52.072501",
					"lng": "4.275155"
				}
			},
			"distance": 0,
			"type": "ING"
		},
		{
			"address": {
				"street": "De Stede",
				"housenumber": "26",
				"postalcode": "2543 BG",
				"city": "Den Haag",
				"geoLocation": {
					"lat": "52.044038",
					"lng": "4.259006"
				}
			},
			"distance": 0,
			"type": "ING"
		},
		{
			"address": {
				"street": "Kentgensplein",
				"housenumber": "24",
				"postalcode": "2717 HS",
				"city": "Zoetermeer",
				"geoLocation": {
					"lat": "52.066467",
					"lng": "4.478742"
				}
			},
			"distance": 0,
			"type": "ING"
		},
		{
			"address": {
				"street": "Bijlmerplein",
				"housenumber": "880",
				"postalcode": "1102 MG",
				"city": "Amsterdam-Zuidoost",
				"geoLocation": {
					"lat": "52.3137092",
					"lng": "4.9523938"
				}
			},
			"distance": 0,
			"type": "ING"
		},
		{
			"address": {
				"street": "Theresiaplein",
				"housenumber": "8",
				"postalcode": "1749 GX",
				"city": "Warmenhuizen",
				"geoLocation": {
					"lat": "52.7220839",
					"lng": "4.7371937"
				}
			},
			"distance": 0,
			"type": "ING"
		},
		{
			"address": {
				"street": "Fahrenheitstraat",
				"housenumber": "709",
				"postalcode": "2561 DE",
				"city": "Den Haag",
				"geoLocation": {
					"lat": "52.0802",
					"lng": "4.26796"
				}
			},
			"distance": 0,
			"type": "ING"
		},
		{
			"address": {
				"street": "Struytse Hoeck",
				"housenumber": "50",
				"postalcode": "3224 HB",
				"city": "Hellevoetsluis",
				"geoLocation": {
					"lat": "51.831129",
					"lng": "4.146953"
				}
			},
			"distance": 0,
			"type": "ING"
		},
		{
			"address": {
				"street": "Drielse Wetering",
				"housenumber": "55",
				"postalcode": "1509 KP",
				"city": "Zaandam",
				"geoLocation": {
					"lat": "52.467872",
					"lng": "4.835557"
				}
			},
			"distance": 0,
			"type": "ING"
		},
		{
			"address": {
				"street": "Molenhoekpassage",
				"housenumber": "5",
				"postalcode": "5242 CZ",
				"city": "Rosmalen",
				"geoLocation": {
					"lat": "51.710123",
					"lng": "5.367221"
				}
			},
			"distance": 0,
			"type": "ING"
		},
		{
			"address": {
				"street": "Nieuwe Markt",
				"housenumber": "1",
				"postalcode": "3441 AN",
				"city": "Woerden",
				"geoLocation": {
					"lat": "52.086277",
					"lng": "4.882098"
				}
			},
			"distance": 0,
			"type": "ING"
		},
		{
			"address": {
				"street": "Langenkamp",
				"housenumber": "8",
				"postalcode": "7581 JE",
				"city": "Losser",
				"geoLocation": {
					"lat": "52.260686",
					"lng": "7.00782"
				}
			},
			"distance": 0,
			"type": "ING"
		},
		{
			"address": {
				"street": "Postelstraat",
				"housenumber": "39",
				"postalcode": "5711 EM",
				"city": "Someren",
				"geoLocation": {
					"lat": "51.382775",
					"lng": "5.711243"
				}
			},
			"distance": 0,
			"type": "ING"
		},
		{
			"address": {
				"street": "Dorpsstraat",
				"housenumber": "27",
				"postalcode": "3931 ED",
				"city": "Woudenberg",
				"geoLocation": {
					"lat": "52.082528",
					"lng": "5.416601"
				}
			},
			"distance": 0,
			"type": "ING"
		},
		{
			"address": {
				"street": "Beneden Oosterdiep",
				"housenumber": "165",
				"postalcode": "9645 LN",
				"city": "Veendam",
				"geoLocation": {
					"lat": "53.111313",
					"lng": "6.885138"
				}
			},
			"distance": 0,
			"type": "ING"
		},
		{
			"address": {
				"street": "Bevrijdingsplein",
				"housenumber": "48",
				"postalcode": "2321 BX",
				"city": "Leiden",
				"geoLocation": {
					"lat": "52.146156",
					"lng": "4.477109"
				}
			},
			"distance": 0,
			"type": "ING"
		},
		{
			"address": {
				"street": "Noorderkeerkring",
				"housenumber": "8",
				"postalcode": "2408 GZ",
				"city": "Alphen aan den Rijn",
				"geoLocation": {
					"lat": "52.123396",
					"lng": "4.651601"
				}
			},
			"distance": 0,
			"type": "ING"
		},
		{
			"address": {
				"street": "Museumplein",
				"housenumber": "24",
				"postalcode": "9641 AD",
				"city": "Veendam",
				"geoLocation": {
					"lat": "53.106887",
					"lng": "6.876786"
				}
			},
			"distance": 0,
			"type": "ING"
		},
		{
			"address": {
				"street": "Franz Leharplein",
				"housenumber": "19",
				"postalcode": "5654 AZ",
				"city": "Eindhoven",
				"geoLocation": {
					"lat": "51.423313",
					"lng": "5.462716"
				}
			},
			"distance": 0,
			"type": "ING"
		},
		{
			"address": {
				"street": "Doornburglaan",
				"housenumber": "2",
				"postalcode": "3554 EP",
				"city": "Utrecht",
				"geoLocation": {
					"lat": "52.113399",
					"lng": "5.088527"
				}
			},
			"distance": 0,
			"type": "ING"
		},
		{
			"address": {
				"street": "Promenade",
				"housenumber": "1",
				"postalcode": "2741 NL",
				"city": "Waddinxveen",
				"geoLocation": {
					"lat": "52.040906",
					"lng": "4.652181"
				}
			},
			"distance": 0,
			"type": "ING"
		},
		{
			"address": {
				"street": "Noordeinde",
				"housenumber": "159",
				"postalcode": "1334 AN",
				"city": "Almere",
				"geoLocation": {
					"lat": "52.395075",
					"lng": "5.277366"
				}
			},
			"distance": 0,
			"type": "ING"
		},
		{
			"address": {
				"street": "Monseigneur Nolenslaan",
				"housenumber": "524",
				"postalcode": "3119 EN",
				"city": "Schiedam",
				"geoLocation": {
					"lat": "51.921806",
					"lng": "4.390151"
				}
			},
			"distance": 0,
			"type": "ING"
		},
		{
			"address": {
				"street": "Koningsplein",
				"housenumber": "4",
				"postalcode": "1017 BB",
				"city": "Amsterdam",
				"geoLocation": {
					"lat": "52.36723",
					"lng": "4.889112"
				}
			},
			"distance": 0,
			"type": "ING"
		},
		{
			"address": {
				"street": "Molenweg",
				"housenumber": "11",
				"postalcode": "6542 PP",
				"city": "Nijmegen",
				"geoLocation": {
					"lat": "51.840794",
					"lng": "5.839576"
				}
			},
			"distance": 0,
			"type": "ING"
		},
		{
			"address": {
				"street": "Koestraat",
				"housenumber": "15",
				"postalcode": "1441 CV",
				"city": "Purmerend",
				"geoLocation": {
					"lat": "52.5078",
					"lng": "4.948074"
				}
			},
			"distance": 0,
			"type": "ING"
		},
		{
			"address": {
				"street": "Brink",
				"housenumber": "20",
				"postalcode": "1188 NC",
				"city": "Amstelveen",
				"geoLocation": {
					"lat": "52.281366",
					"lng": "4.851396"
				}
			},
			"distance": 0,
			"type": "ING"
		},
		{
			"address": {
				"street": "Oranjelaan",
				"housenumber": "2",
				"postalcode": "8131 DB",
				"city": "Wijhe",
				"geoLocation": {
					"lat": "52.389722",
					"lng": "6.135636"
				}
			},
			"distance": 0,
			"type": "ING"
		},
		{
			"address": {
				"street": "Sint Petrus Canisiuslaan",
				"housenumber": "43",
				"postalcode": "5645 GC",
				"city": "Eindhoven",
				"geoLocation": {
					"lat": "51.426088",
					"lng": "5.508623"
				}
			},
			"distance": 0,
			"type": "ING"
		},
		{
			"address": {
				"street": "Dries",
				"housenumber": "10",
				"postalcode": "6006 HS",
				"city": "Weert",
				"geoLocation": {
					"lat": "51.2472",
					"lng": "5.70185"
				}
			},
			"distance": 0,
			"type": "ING"
		},
		{
			"address": {
				"street": "Steenstraat",
				"housenumber": "136",
				"postalcode": "5831 JK",
				"city": "Boxmeer",
				"geoLocation": {
					"lat": "51.648421",
					"lng": "5.947952"
				}
			},
			"distance": 0,
			"type": "ING"
		},
		{
			"address": {
				"street": "Schiffelerstraat",
				"housenumber": "8",
				"postalcode": "6441 CN",
				"city": "Brunssum",
				"geoLocation": {
					"lat": "50.946097",
					"lng": "5.97062"
				}
			},
			"distance": 0,
			"type": "ING"
		},
		{
			"address": {
				"street": "Van Cleeffkade",
				"housenumber": "3",
				"postalcode": "1431 BA",
				"city": "Aalsmeer",
				"geoLocation": {
					"lat": "52.267252",
					"lng": "4.749459"
				}
			},
			"distance": 0,
			"type": "ING"
		},
		{
			"address": {
				"street": "Stationsplein",
				"housenumber": "1",
				"postalcode": "3311 JV",
				"city": "Dordrecht",
				"geoLocation": {
					"lat": "51.807513",
					"lng": "4.668368"
				}
			},
			"distance": 0,
			"type": "ING"
		},
		{
			"address": {
				"street": "Nachtegaalstraat",
				"housenumber": "55",
				"postalcode": "3581 AD",
				"city": "Utrecht",
				"geoLocation": {
					"lat": "52.091602",
					"lng": "5.131301"
				}
			},
			"distance": 0,
			"type": "ING"
		},
		{
			"address": {
				"street": "Harderwijkerweg",
				"housenumber": "18",
				"postalcode": "8071 GA",
				"city": "Nunspeet",
				"geoLocation": {
					"lat": "52.37612",
					"lng": "5.780694"
				}
			},
			"distance": 0,
			"type": "ING"
		},
		{
			"address": {
				"street": "Meerveldplein",
				"housenumber": "3",
				"postalcode": "1359 HM",
				"city": "Almere",
				"geoLocation": {
					"lat": "52.342526",
					"lng": "5.201663"
				}
			},
			"distance": 0,
			"type": "ING"
		},
		{
			"address": {
				"street": "Vrijthof",
				"housenumber": "45",
				"postalcode": "6211 LE",
				"city": "Maastricht",
				"geoLocation": {
					"lat": "50.849932",
					"lng": "5.68767"
				}
			},
			"distance": 0,
			"type": "ING"
		},
		{
			"address": {
				"street": "Looiershof",
				"housenumber": "1",
				"postalcode": "5104 HV",
				"city": "Dongen",
				"geoLocation": {
					"lat": "51.625288",
					"lng": "4.942498"
				}
			},
			"distance": 0,
			"type": "ING"
		},
		{
			"address": {
				"street": "Prins Hendrikstraat",
				"housenumber": "382",
				"postalcode": "3151 AW",
				"city": "Hoek van Holland",
				"geoLocation": {
					"lat": "51.977748",
					"lng": "4.128672"
				}
			},
			"distance": 0,
			"type": "ING"
		},
		{
			"address": {
				"street": "Het Hof",
				"housenumber": "1",
				"postalcode": "4101 BT",
				"city": "Culemborg",
				"geoLocation": {
					"lat": "51.956694",
					"lng": "5.224185"
				}
			},
			"distance": 0,
			"type": "ING"
		},
		{
			"address": {
				"street": "Nijmeegseweg",
				"housenumber": "20",
				"postalcode": "5916 PT",
				"city": "Venlo",
				"geoLocation": {
					"lat": "51.384194",
					"lng": "6.180247"
				}
			},
			"distance": 0,
			"type": "ING"
		},
		{
			"address": {
				"street": "Gorecht-Oost",
				"housenumber": "256-258",
				"postalcode": "9603 AC",
				"city": "Hoogezand",
				"geoLocation": {
					"lat": "53.154069",
					"lng": "6.756176"
				}
			},
			"distance": 0,
			"type": "ING"
		},
		{
			"address": {
				"street": "Rapenburgerschans",
				"housenumber": "9",
				"postalcode": "3432 TN",
				"city": "Nieuwegein",
				"geoLocation": {
					"lat": "52.0183451",
					"lng": "5.0915608"
				}
			},
			"distance": 0,
			"type": "ING"
		},
		{
			"address": {
				"street": "Voorhof",
				"housenumber": "12",
				"postalcode": "8212 CA",
				"city": "Lelystad",
				"geoLocation": {
					"lat": "52.513922",
					"lng": "5.503011"
				}
			},
			"distance": 0,
			"type": "ING"
		},
		{
			"address": {
				"street": "Stationsplein",
				"housenumber": "22",
				"postalcode": "5611 AC",
				"city": "Eindhoven",
				"geoLocation": {
					"lat": "51.442297",
					"lng": "5.479938"
				}
			},
			"distance": 0,
			"type": "ING"
		},
		{
			"address": {
				"street": "Hondsrug",
				"housenumber": "60",
				"postalcode": "3524 BR",
				"city": "Utrecht",
				"geoLocation": {
					"lat": "52.064853",
					"lng": "5.13704"
				}
			},
			"distance": 0,
			"type": "ING"
		},
		{
			"address": {
				"street": "Kronenburgpromenade",
				"housenumber": "4",
				"postalcode": "6831 EA",
				"city": "Arnhem",
				"geoLocation": {
					"lat": "51.958703",
					"lng": "5.898628"
				}
			},
			"distance": 0,
			"type": "ING"
		},
		{
			"address": {
				"street": "Simon Carmiggelthof",
				"housenumber": "55",
				"postalcode": "2492 JR",
				"city": "Den Haag",
				"geoLocation": {
					"lat": "52.064954",
					"lng": "4.402226"
				}
			},
			"distance": 0,
			"type": "ING"
		},
		{
			"address": {
				"street": "Callunaplein",
				"housenumber": "72",
				"postalcode": "6951 CR",
				"city": "Dieren",
				"geoLocation": {
					"lat": "52.050428",
					"lng": "6.10195"
				}
			},
			"distance": 0,
			"type": "ING"
		},
		{
			"address": {
				"street": "Dorpsstraat",
				"housenumber": "118",
				"postalcode": "6871 AR",
				"city": "Renkum",
				"geoLocation": {
					"lat": "51.971544",
					"lng": "5.72822"
				}
			},
			"distance": 0,
			"type": "ING"
		},
		{
			"address": {
				"street": "Henri Dunantweg",
				"housenumber": "2",
				"postalcode": "8934 AD",
				"city": "Leeuwarden",
				"geoLocation": {
					"lat": "53.189022",
					"lng": "5.8046"
				}
			},
			"distance": 0,
			"type": "ING"
		},
		{
			"address": {
				"street": "Nieuwe Tielseweg",
				"housenumber": "165",
				"postalcode": "4006 BG",
				"city": "Tiel",
				"geoLocation": {
					"lat": "51.878758",
					"lng": "5.416601"
				}
			},
			"distance": 0,
			"type": "ING"
		},
		{
			"address": {
				"street": "Rompertpassage",
				"housenumber": "45",
				"postalcode": "5233 AP",
				"city": "Den Bosch",
				"geoLocation": {
					"lat": "51.712637",
					"lng": "5.313863"
				}
			},
			"distance": 0,
			"type": "ING"
		},
		{
			"address": {
				"street": "Deventerstraat",
				"housenumber": "10",
				"postalcode": "7311 BJ",
				"city": "Apeldoorn",
				"geoLocation": {
					"lat": "52.215496",
					"lng": "5.962136"
				}
			},
			"distance": 0,
			"type": "ING"
		},
		{
			"address": {
				"street": "Orlyplein",
				"housenumber": "107",
				"postalcode": "1043 DT",
				"city": "Amsterdam",
				"geoLocation": {
					"lat": "52.388997",
					"lng": "4.837551"
				}
			},
			"distance": 0,
			"type": "ING"
		},
		{
			"address": {
				"street": "Tijnjedyk",
				"housenumber": "76",
				"postalcode": "8936 AD",
				"city": "Leeuwarden",
				"geoLocation": {
					"lat": "53.191088",
					"lng": "5.817577"
				}
			},
			"distance": 0,
			"type": "ING"
		},
		{
			"address": {
				"street": "Rijnstraat",
				"housenumber": "493A",
				"postalcode": "5215 EJ",
				"city": "Den Bosch",
				"geoLocation": {
					"lat": "51.68991",
					"lng": "5.328712"
				}
			},
			"distance": 0,
			"type": "ING"
		},
		{
			"address": {
				"street": "Maalderij",
				"housenumber": "31",
				"postalcode": "1185 ZC",
				"city": "Amstelveen",
				"geoLocation": {
					"lat": "52.288926",
					"lng": "4.839505"
				}
			},
			"distance": 0,
			"type": "ING"
		},
		{
			"address": {
				"street": "Voorthuizerstraat",
				"housenumber": "2",
				"postalcode": "3881 SH",
				"city": "Putten",
				"geoLocation": {
					"lat": "52.260025",
					"lng": "5.609934"
				}
			},
			"distance": 0,
			"type": "ING"
		},
		{
			"address": {
				"street": "Prins Willem Alexanderplein",
				"housenumber": "5",
				"postalcode": "6291 GZ",
				"city": "Vaals",
				"geoLocation": {
					"lat": "50.773684",
					"lng": "6.01681"
				}
			},
			"distance": 0,
			"type": "ING"
		},
		{
			"address": {
				"street": "Voorstraat",
				"housenumber": "2",
				"postalcode": "4286 AL",
				"city": "Almkerk",
				"geoLocation": {
					"lat": "51.77095",
					"lng": "4.961337"
				}
			},
			"distance": 0,
			"type": "ING"
		},
		{
			"address": {
				"street": "Louwersplein",
				"housenumber": "39",
				"postalcode": "3343 RC",
				"city": "Hendrik-Ido-Ambacht",
				"geoLocation": {
					"lat": "51.838947",
					"lng": "4.63607"
				}
			},
			"distance": 0,
			"type": "ING"
		},
		{
			"address": {
				"street": "Dorpsstraat",
				"housenumber": "25",
				"postalcode": "3941 JK",
				"city": "Doorn",
				"geoLocation": {
					"lat": "52.034647",
					"lng": "5.344453"
				}
			},
			"distance": 0,
			"type": "ING"
		},
		{
			"address": {
				"street": "Lindenlaan",
				"housenumber": "10",
				"postalcode": "1271 BA",
				"city": "Huizen",
				"geoLocation": {
					"lat": "52.29725",
					"lng": "5.234974"
				}
			},
			"distance": 0,
			"type": "ING"
		},
		{
			"address": {
				"street": "Kerkstraat",
				"housenumber": "18",
				"postalcode": "3291 AL",
				"city": "Strijen",
				"geoLocation": {
					"lat": "51.743759",
					"lng": "4.553119"
				}
			},
			"distance": 0,
			"type": "ING"
		},
		{
			"address": {
				"street": "Zijdelwaardplein",
				"housenumber": "84",
				"postalcode": "1422 DN",
				"city": "Uithoorn",
				"geoLocation": {
					"lat": "52.246218",
					"lng": "4.827787"
				}
			},
			"distance": 0,
			"type": "ING"
		},
		{
			"address": {
				"street": "In den Vijfhoek",
				"housenumber": "17",
				"postalcode": "7571 DT",
				"city": "Oldenzaal",
				"geoLocation": {
					"lat": "52.313515",
					"lng": "6.926717"
				}
			},
			"distance": 0,
			"type": "ING"
		},
		{
			"address": {
				"street": "Groote Wielenlaan",
				"housenumber": "385",
				"postalcode": "5247 JC",
				"city": "Rosmalen",
				"geoLocation": {
					"lat": "51.734314",
					"lng": "5.362736"
				}
			},
			"distance": 0,
			"type": "ING"
		},
		{
			"address": {
				"street": "Van Eesterenplein",
				"housenumber": "99",
				"postalcode": "3315 KT",
				"city": "Dordrecht",
				"geoLocation": {
					"lat": "51.803678",
					"lng": "4.717674"
				}
			},
			"distance": 0,
			"type": "ING"
		},
		{
			"address": {
				"street": "Escamplaan",
				"housenumber": "281",
				"postalcode": "2547 EA",
				"city": "Den Haag",
				"geoLocation": {
					"lat": "52.062106",
					"lng": "4.270118"
				}
			},
			"distance": 0,
			"type": "ING"
		},
		{
			"address": {
				"street": "Ooipoortstraat",
				"housenumber": "12",
				"postalcode": "6981 DV",
				"city": "Doesburg",
				"geoLocation": {
					"lat": "52.013171",
					"lng": "6.1359"
				}
			},
			"distance": 0,
			"type": "ING"
		},
		{
			"address": {
				"street": "Amsterdamseweg",
				"housenumber": "73",
				"postalcode": "1182 GP",
				"city": "Amstelveen",
				"geoLocation": {
					"lat": "52.307185",
					"lng": "4.846098"
				}
			},
			"distance": 0,
			"type": "ING"
		},
		{
			"address": {
				"street": "Middenbaan",
				"housenumber": "112",
				"postalcode": "2991 CT",
				"city": "Barendrecht",
				"geoLocation": {
					"lat": "51.856235",
					"lng": "4.537117"
				}
			},
			"distance": 0,
			"type": "ING"
		},
		{
			"address": {
				"street": "Zambesidreef",
				"housenumber": "161",
				"postalcode": "3564 CB",
				"city": "Utrecht",
				"geoLocation": {
					"lat": "52.120607",
					"lng": "5.110208"
				}
			},
			"distance": 0,
			"type": "ING"
		},
		{
			"address": {
				"street": "Cellebroedersstraat",
				"housenumber": "1",
				"postalcode": "2871 AS",
				"city": "Schoonhoven",
				"geoLocation": {
					"lat": "51.946746",
					"lng": "4.858209"
				}
			},
			"distance": 0,
			"type": "ING"
		},
		{
			"address": {
				"street": "Rijksweg",
				"housenumber": "16",
				"postalcode": "9731 AB",
				"city": "Groningen",
				"geoLocation": {
					"lat": "53.227166",
					"lng": "6.599946"
				}
			},
			"distance": 0,
			"type": "ING"
		},
		{
			"address": {
				"street": "Hereplein",
				"housenumber": "51",
				"postalcode": "9711 GD",
				"city": "Groningen",
				"geoLocation": {
					"lat": "53.213807",
					"lng": "6.569764"
				}
			},
			"distance": 0,
			"type": "ING"
		},
		{
			"address": {
				"street": "Wilhelminaplein",
				"housenumber": "4",
				"postalcode": "6591 GX",
				"city": "Gennep",
				"geoLocation": {
					"lat": "51.696746",
					"lng": "5.972853"
				}
			},
			"distance": 0,
			"type": "ING"
		},
		{
			"address": {
				"street": "Korte Lijnbaan",
				"housenumber": "26-28",
				"postalcode": "3012 ED",
				"city": "Rotterdam",
				"geoLocation": {
					"lat": "51.92166",
					"lng": "4.474134"
				}
			},
			"distance": 0,
			"type": "ING"
		},
		{
			"address": {
				"street": "Heidelberglaan",
				"housenumber": "1A",
				"postalcode": "3584 CS",
				"city": "Utrecht",
				"geoLocation": {
					"lat": "52.084231",
					"lng": "5.171936"
				}
			},
			"distance": 0,
			"type": "ING"
		},
		{
			"address": {
				"street": "Johannes Vermeerstraat",
				"housenumber": "23",
				"postalcode": "3601 EL",
				"city": "Maarssen",
				"geoLocation": {
					"lat": "52.142646",
					"lng": "5.04114"
				}
			},
			"distance": 0,
			"type": "ING"
		},
		{
			"address": {
				"street": "Gravinnen van Nassauboulevard",
				"housenumber": "59",
				"postalcode": "4811 BN",
				"city": "Breda",
				"geoLocation": {
					"lat": "51.59618",
					"lng": "4.779157"
				}
			},
			"distance": 0,
			"type": "ING"
		},
		{
			"address": {
				"street": "Binnendoor",
				"housenumber": "4",
				"postalcode": "2741 NP",
				"city": "Waddinxveen",
				"geoLocation": {
					"lat": "52.038824",
					"lng": "4.651009"
				}
			},
			"distance": 0,
			"type": "ING"
		},
		{
			"address": {
				"street": "Sniederslaan",
				"housenumber": "53",
				"postalcode": "5531 EH",
				"city": "Bladel",
				"geoLocation": {
					"lat": "51.36774",
					"lng": "5.220964"
				}
			},
			"distance": 0,
			"type": "ING"
		},
		{
			"address": {
				"street": "Europaboulevard",
				"housenumber": "26",
				"postalcode": "1825 SB",
				"city": "Alkmaar",
				"geoLocation": {
					"lat": "52.654852",
					"lng": "4.757247"
				}
			},
			"distance": 0,
			"type": "ING"
		},
		{
			"address": {
				"street": "Pastoor Spieringsstraat",
				"housenumber": "11",
				"postalcode": "5401 GT",
				"city": "Uden",
				"geoLocation": {
					"lat": "51.659233",
					"lng": "5.613288"
				}
			},
			"distance": 0,
			"type": "ING"
		},
		{
			"address": {
				"street": "Rijksstraatweg",
				"housenumber": "156",
				"postalcode": "9752 BN",
				"city": "Haren",
				"geoLocation": {
					"lat": "53.173118",
					"lng": "6.603506"
				}
			},
			"distance": 0,
			"type": "ING"
		},
		{
			"address": {
				"street": "Diemerplein",
				"housenumber": "200",
				"postalcode": "1111 JD",
				"city": "Diemen",
				"geoLocation": {
					"lat": "52.342565",
					"lng": "4.96299"
				}
			},
			"distance": 0,
			"type": "ING"
		},
		{
			"address": {
				"street": "Molenstraat",
				"housenumber": "58",
				"postalcode": "4881 CT",
				"city": "Zundert",
				"geoLocation": {
					"lat": "51.470794",
					"lng": "4.662107"
				}
			},
			"distance": 0,
			"type": "ING"
		},
		{
			"address": {
				"street": "Kempenaar",
				"housenumber": "341",
				"postalcode": "8242 BD",
				"city": "Lelystad",
				"geoLocation": {
					"lat": "52.517785",
					"lng": "5.46066"
				}
			},
			"distance": 0,
			"type": "ING"
		},
		{
			"address": {
				"street": "Eikenlaan",
				"housenumber": "39",
				"postalcode": "9741 EH",
				"city": "Groningen",
				"geoLocation": {
					"lat": "53.233048",
					"lng": "6.553169"
				}
			},
			"distance": 0,
			"type": "ING"
		},
		{
			"address": {
				"street": "Dudokplein",
				"housenumber": "10",
				"postalcode": "1971 EP",
				"city": "IJmuiden",
				"geoLocation": {
					"lat": "52.460898",
					"lng": "4.623196"
				}
			},
			"distance": 0,
			"type": "ING"
		},
		{
			"address": {
				"street": "Prins Hendrikkade",
				"housenumber": "20",
				"postalcode": "1012 TL",
				"city": "Amsterdam",
				"geoLocation": {
					"lat": "52.378549",
					"lng": "4.896168"
				}
			},
			"distance": 0,
			"type": "ING"
		},
		{
			"address": {
				"street": "Lorentzlaan",
				"housenumber": "2",
				"postalcode": "4532 KP",
				"city": "Terneuzen",
				"geoLocation": {
					"lat": "51.332386",
					"lng": "3.847529"
				}
			},
			"distance": 0,
			"type": "ING"
		},
		{
			"address": {
				"street": "Eemnesserweg",
				"housenumber": "40",
				"postalcode": "3741 GB",
				"city": "Baarn",
				"geoLocation": {
					"lat": "52.214006",
					"lng": "5.285979"
				}
			},
			"distance": 0,
			"type": "ING"
		},
		{
			"address": {
				"street": "De Burcht",
				"housenumber": "1",
				"postalcode": "4834 HE",
				"city": "Breda",
				"geoLocation": {
					"lat": "51.572069",
					"lng": "4.805414"
				}
			},
			"distance": 0,
			"type": "ING"
		},
		{
			"address": {
				"street": "Raadhuisstraat",
				"housenumber": "13",
				"postalcode": "7721 AX",
				"city": "Dalfsen",
				"geoLocation": {
					"lat": "52.50322",
					"lng": "6.258033"
				}
			},
			"distance": 0,
			"type": "ING"
		},
		{
			"address": {
				"street": "Hof van Spaland",
				"housenumber": "1",
				"postalcode": "3121 CA",
				"city": "Schiedam",
				"geoLocation": {
					"lat": "51.934682",
					"lng": "4.376703"
				}
			},
			"distance": 0,
			"type": "ING"
		},
		{
			"address": {
				"street": "De Aarhof",
				"housenumber": "61",
				"postalcode": "2406 BT",
				"city": "Alphen aan den Rijn",
				"geoLocation": {
					"lat": "52.129838",
					"lng": "4.665532"
				}
			},
			"distance": 0,
			"type": "ING"
		},
		{
			"address": {
				"street": "Holleblok",
				"housenumber": "16-18",
				"postalcode": "1273 EG",
				"city": "Huizen",
				"geoLocation": {
					"lat": "52.302379",
					"lng": "5.25415"
				}
			},
			"distance": 0,
			"type": "ING"
		},
		{
			"address": {
				"street": "Mira",
				"housenumber": "25",
				"postalcode": "5505 AR",
				"city": "Veldhoven",
				"geoLocation": {
					"lat": "51.413052",
					"lng": "5.397113"
				}
			},
			"distance": 0,
			"type": "ING"
		},
		{
			"address": {
				"street": "Gorecht-Oost",
				"housenumber": "6",
				"postalcode": "9603 AA",
				"city": "Hoogezand",
				"geoLocation": {
					"lat": "53.156587",
					"lng": "6.756809"
				}
			},
			"distance": 0,
			"type": "ING"
		},
		{
			"address": {
				"street": "Wim Kanplein",
				"housenumber": "2",
				"postalcode": "1311 LH",
				"city": "Almere",
				"geoLocation": {
					"lat": "52.370791",
					"lng": "5.179549"
				}
			},
			"distance": 0,
			"type": "ING"
		},
		{
			"address": {
				"street": "Burgemeester Baumannlaan",
				"housenumber": "127",
				"postalcode": "3043 AJ",
				"city": "Rotterdam",
				"geoLocation": {
					"lat": "51.936994",
					"lng": "4.427455"
				}
			},
			"distance": 0,
			"type": "ING"
		},
		{
			"address": {
				"street": "Sint Antoniusplein",
				"housenumber": "35",
				"postalcode": "8601 HK",
				"city": "Sneek",
				"geoLocation": {
					"lat": "53.033612",
					"lng": "5.655537"
				}
			},
			"distance": 0,
			"type": "ING"
		},
		{
			"address": {
				"street": "Rotterdamsedijk",
				"housenumber": "302",
				"postalcode": "3112 BT",
				"city": "Schiedam",
				"geoLocation": {
					"lat": "51.915016",
					"lng": "4.402716"
				}
			},
			"distance": 0,
			"type": "ING"
		},
		{
			"address": {
				"street": "Watermolen",
				"housenumber": "2",
				"postalcode": "7461 AZ",
				"city": "Rijssen",
				"geoLocation": {
					"lat": "52.309577",
					"lng": "6.523596"
				}
			},
			"distance": 0,
			"type": "ING"
		},
		{
			"address": {
				"street": "Markt",
				"housenumber": "116",
				"postalcode": "6161 GP",
				"city": "Geleen",
				"geoLocation": {
					"lat": "50.969768",
					"lng": "5.828215"
				}
			},
			"distance": 0,
			"type": "ING"
		},
		{
			"address": {
				"street": "Selhorstweg",
				"housenumber": "2",
				"postalcode": "3841 GL",
				"city": "Harderwijk",
				"geoLocation": {
					"lat": "52.347891",
					"lng": "5.62304"
				}
			},
			"distance": 0,
			"type": "ING"
		},
		{
			"address": {
				"street": "Grote Markt",
				"housenumber": "14A",
				"postalcode": "4461 AJ",
				"city": "Goes",
				"geoLocation": {
					"lat": "51.504808",
					"lng": "3.890621"
				}
			},
			"distance": 0,
			"type": "ING"
		},
		{
			"address": {
				"street": "Zuidplein",
				"housenumber": "616",
				"postalcode": "3083 CX",
				"city": "Rotterdam",
				"geoLocation": {
					"lat": "51.888255",
					"lng": "4.491896"
				}
			},
			"distance": 0,
			"type": "ING"
		},
		{
			"address": {
				"street": "Lombokstraat",
				"housenumber": "2",
				"postalcode": "1335 JR",
				"city": "Almere",
				"geoLocation": {
					"lat": "52.4013662",
					"lng": "5.298852"
				}
			},
			"distance": 0,
			"type": "ING"
		},
		{
			"address": {
				"street": "A.C. op Het Landtplantsoen",
				"housenumber": "11",
				"postalcode": "1705 GS",
				"city": "Heerhugowaard",
				"geoLocation": {
					"lat": "52.649835",
					"lng": "4.827073"
				}
			},
			"distance": 0,
			"type": "ING"
		},
		{
			"address": {
				"street": "Nieuwstraat",
				"housenumber": "169",
				"postalcode": "7605 AD",
				"city": "Almelo",
				"geoLocation": {
					"lat": "52.348277",
					"lng": "6.650693"
				}
			},
			"distance": 0,
			"type": "ING"
		},
		{
			"address": {
				"street": "Cornelis Troostplein",
				"housenumber": "11",
				"postalcode": "1072 JJ",
				"city": "Amsterdam",
				"geoLocation": {
					"lat": "52.351009",
					"lng": "4.892024"
				}
			},
			"distance": 0,
			"type": "ING"
		},
		{
			"address": {
				"street": "Weeshuissteeg",
				"housenumber": "2",
				"postalcode": "1441 CS",
				"city": "Purmerend",
				"geoLocation": {
					"lat": "52.508816",
					"lng": "4.9455171"
				}
			},
			"distance": 0,
			"type": "ING"
		},
		{
			"address": {
				"street": "Broekwegzijde",
				"housenumber": "150",
				"postalcode": "2725 PE",
				"city": "Zoetermeer",
				"geoLocation": {
					"lat": "52.071207",
					"lng": "4.49443"
				}
			},
			"distance": 0,
			"type": "ING"
		},
		{
			"address": {
				"street": "Plein",
				"housenumber": "13",
				"postalcode": "3991 DK",
				"city": "Houten",
				"geoLocation": {
					"lat": "52.026582",
					"lng": "5.161939"
				}
			},
			"distance": 0,
			"type": "ING"
		},
		{
			"address": {
				"street": "Glacisstraat",
				"housenumber": "15",
				"postalcode": "4615 AE",
				"city": "Bergen op Zoom",
				"geoLocation": {
					"lat": "51.488241",
					"lng": "4.291017"
				}
			},
			"distance": 0,
			"type": "ING"
		},
		{
			"address": {
				"street": "W.H. van de Pollstraat",
				"housenumber": "2",
				"postalcode": "8191 DA",
				"city": "Wapenveld",
				"geoLocation": {
					"lat": "52.432391",
					"lng": "6.074795"
				}
			},
			"distance": 0,
			"type": "ING"
		},
		{
			"address": {
				"street": "Vierhoeksingel",
				"housenumber": "7",
				"postalcode": "5341 PN",
				"city": "Oss",
				"geoLocation": {
					"lat": "51.769937",
					"lng": "5.514135"
				}
			},
			"distance": 0,
			"type": "ING"
		},
		{
			"address": {
				"street": "Buurmalsenplein",
				"housenumber": "1",
				"postalcode": "5043 XL",
				"city": "Tilburg",
				"geoLocation": {
					"lat": "51.581547",
					"lng": "5.018726"
				}
			},
			"distance": 0,
			"type": "ING"
		},
		{
			"address": {
				"street": "Westerstraat",
				"housenumber": "79",
				"postalcode": "1015 LW",
				"city": "Amsterdam",
				"geoLocation": {
					"lat": "52.378446",
					"lng": "4.884448"
				}
			},
			"distance": 0,
			"type": "ING"
		},
		{
			"address": {
				"street": "Gronausestraat",
				"housenumber": "1130",
				"postalcode": "7534 AS",
				"city": "Enschede",
				"geoLocation": {
					"lat": "52.215169",
					"lng": "6.971231"
				}
			},
			"distance": 0,
			"type": "ING"
		},
		{
			"address": {
				"street": "Ridderhof",
				"housenumber": "20",
				"postalcode": "2402 EN",
				"city": "Alphen aan den Rijn",
				"geoLocation": {
					"lat": "52.144349",
					"lng": "4.674854"
				}
			},
			"distance": 0,
			"type": "ING"
		},
		{
			"address": {
				"street": "Groenestraat",
				"housenumber": "193",
				"postalcode": "6531 HE",
				"city": "Nijmegen",
				"geoLocation": {
					"lat": "51.830937",
					"lng": "5.850026"
				}
			},
			"distance": 0,
			"type": "ING"
		},
		{
			"address": {
				"street": "Parkweide",
				"housenumber": "14",
				"postalcode": "6718 DJ",
				"city": "Ede",
				"geoLocation": {
					"lat": "52.050936",
					"lng": "5.646445"
				}
			},
			"distance": 0,
			"type": "ING"
		},
		{
			"address": {
				"street": "Burgemeester van Stamplein",
				"housenumber": "82",
				"postalcode": "2132 BH",
				"city": "Hoofddorp",
				"geoLocation": {
					"lat": "52.302398",
					"lng": "4.691785"
				}
			},
			"distance": 0,
			"type": "ING"
		},
		{
			"address": {
				"street": "Henri Dunantplein",
				"housenumber": "6",
				"postalcode": "2181 EM",
				"city": "Hillegom",
				"geoLocation": {
					"lat": "52.292305",
					"lng": "4.577434"
				}
			},
			"distance": 0,
			"type": "ING"
		},
		{
			"address": {
				"street": "Brabantplein",
				"housenumber": "24",
				"postalcode": "4817 LR",
				"city": "Breda",
				"geoLocation": {
					"lat": "51.590493",
					"lng": "4.800675"
				}
			},
			"distance": 0,
			"type": "ING"
		},
		{
			"address": {
				"street": "Burgemeester Wegstapelplein",
				"housenumber": "3",
				"postalcode": "2711 AK",
				"city": "Zoetermeer",
				"geoLocation": {
					"lat": "52.061357",
					"lng": "4.486531"
				}
			},
			"distance": 0,
			"type": "ING"
		},
		{
			"address": {
				"street": "Overtoom",
				"housenumber": "116-124",
				"postalcode": "1054 HM",
				"city": "Amsterdam",
				"geoLocation": {
					"lat": "52.3627939",
					"lng": "4.8723508"
				}
			},
			"distance": 0,
			"type": "ING"
		},
		{
			"address": {
				"street": "Korte Bisschopstraat",
				"housenumber": "30",
				"postalcode": "7411 HK",
				"city": "Deventer",
				"geoLocation": {
					"lat": "52.253478",
					"lng": "6.159247"
				}
			},
			"distance": 0,
			"type": "ING"
		},
		{
			"address": {
				"street": "Jan Pieter Heijestraat",
				"housenumber": "132",
				"postalcode": "1054 MJ",
				"city": "Amsterdam",
				"geoLocation": {
					"lat": "52.362205",
					"lng": "4.86412"
				}
			},
			"distance": 0,
			"type": "ING"
		},
		{
			"address": {
				"street": "Zomerakker",
				"housenumber": "105",
				"postalcode": "3206 TL",
				"city": "Spijkenisse",
				"geoLocation": {
					"lat": "51.83324",
					"lng": "4.318928"
				}
			},
			"distance": 0,
			"type": "ING"
		},
		{
			"address": {
				"street": "Paul Krugerkade",
				"housenumber": "16",
				"postalcode": "2021 BN",
				"city": "Haarlem",
				"geoLocation": {
					"lat": "52.391003",
					"lng": "4.649038"
				}
			},
			"distance": 0,
			"type": "ING"
		},
		{
			"address": {
				"street": "Delflandplein",
				"housenumber": "31",
				"postalcode": "1062 HP",
				"city": "Amsterdam",
				"geoLocation": {
					"lat": "52.348938",
					"lng": "4.840263"
				}
			},
			"distance": 0,
			"type": "ING"
		},
		{
			"address": {
				"street": "Prins Bernhardlaan",
				"housenumber": "175",
				"postalcode": "2273 DP",
				"city": "Voorburg",
				"geoLocation": {
					"lat": "52.075048",
					"lng": "4.360935"
				}
			},
			"distance": 0,
			"type": "ING"
		},
		{
			"address": {
				"street": "Hortuslaan",
				"housenumber": "4",
				"postalcode": "2171 CK",
				"city": "Sassenheim",
				"geoLocation": {
					"lat": "52.227524",
					"lng": "4.523421"
				}
			},
			"distance": 0,
			"type": "ING"
		},
		{
			"address": {
				"street": "Sint Martinusplein",
				"housenumber": "8",
				"postalcode": "8161 ED",
				"city": "Epe",
				"geoLocation": {
					"lat": "51.9085577",
					"lng": "6.1878499"
				}
			},
			"distance": 0,
			"type": "ING"
		},
		{
			"address": {
				"street": "Wethouder van der Veldenweg",
				"housenumber": "8",
				"postalcode": "3281 AN",
				"city": "Numansdorp",
				"geoLocation": {
					"lat": "51.730017",
					"lng": "4.43991"
				}
			},
			"distance": 0,
			"type": "ING"
		},
		{
			"address": {
				"street": "Strijensestraat",
				"housenumber": "77",
				"postalcode": "3074 GH",
				"city": "Rotterdam",
				"geoLocation": {
					"lat": "51.896293",
					"lng": "4.509915"
				}
			},
			"distance": 0,
			"type": "ING"
		},
		{
			"address": {
				"street": "Grollorstraat",
				"housenumber": "5",
				"postalcode": "9451 KA",
				"city": "Rolde",
				"geoLocation": {
					"lat": "52.986",
					"lng": "6.648733"
				}
			},
			"distance": 0,
			"type": "ING"
		},
		{
			"address": {
				"street": "Markt",
				"housenumber": "15",
				"postalcode": "5451 BS",
				"city": "Mill",
				"geoLocation": {
					"lat": "51.685437",
					"lng": "5.783502"
				}
			},
			"distance": 0,
			"type": "ING"
		},
		{
			"address": {
				"street": "Marktplein",
				"housenumber": "150",
				"postalcode": "7811 BA",
				"city": "Emmen",
				"geoLocation": {
					"lat": "52.785786",
					"lng": "6.892169"
				}
			},
			"distance": 0,
			"type": "ING"
		},
		{
			"address": {
				"street": "Molukkenstraat",
				"housenumber": "101",
				"postalcode": "1095 AZ",
				"city": "Amsterdam",
				"geoLocation": {
					"lat": "52.362327",
					"lng": "4.939793"
				}
			},
			"distance": 0,
			"type": "ING"
		},
		{
			"address": {
				"street": "Arena",
				"housenumber": "16",
				"postalcode": "5211 XT",
				"city": "Den Bosch",
				"geoLocation": {
					"lat": "51.69154",
					"lng": "5.303801"
				}
			},
			"distance": 0,
			"type": "ING"
		},
		{
			"address": {
				"street": "Hibbertsstraat",
				"housenumber": "4",
				"postalcode": "7481 JD",
				"city": "Haaksbergen",
				"geoLocation": {
					"lat": "52.155225",
					"lng": "6.740696"
				}
			},
			"distance": 0,
			"type": "ING"
		},
		{
			"address": {
				"street": "Beijerse Hof",
				"housenumber": "19",
				"postalcode": "3262 VR",
				"city": "Oud-Beijerland",
				"geoLocation": {
					"lat": "51.820637",
					"lng": "4.404673"
				}
			},
			"distance": 0,
			"type": "ING"
		},
		{
			"address": {
				"street": "Graverstraat",
				"housenumber": "68",
				"postalcode": "6466 KX",
				"city": "Kerkrade",
				"geoLocation": {
					"lat": "50.858561",
					"lng": "6.022562"
				}
			},
			"distance": 0,
			"type": "ING"
		},
		{
			"address": {
				"street": "Betje Wolffstraat",
				"housenumber": "134",
				"postalcode": "2533 HT",
				"city": "Den Haag",
				"geoLocation": {
					"lat": "52.048925",
					"lng": "4.291093"
				}
			},
			"distance": 0,
			"type": "ING"
		},
		{
			"address": {
				"street": "Middenbaan",
				"housenumber": "97",
				"postalcode": "2991 CS",
				"city": "Barendrecht",
				"geoLocation": {
					"lat": "51.855884",
					"lng": "4.536979"
				}
			},
			"distance": 0,
			"type": "ING"
		},
		{
			"address": {
				"street": "Nieuwe Markt",
				"housenumber": "50",
				"postalcode": "6001 EL",
				"city": "Weert",
				"geoLocation": {
					"lat": "51.252768",
					"lng": "5.704195"
				}
			},
			"distance": 0,
			"type": "ING"
		},
		{
			"address": {
				"street": "Hoofdstraat",
				"housenumber": "18",
				"postalcode": "2181 ED",
				"city": "Hillegom",
				"geoLocation": {
					"lat": "52.294829",
					"lng": "4.579851"
				}
			},
			"distance": 0,
			"type": "ING"
		},
		{
			"address": {
				"street": "Kinkerstraat",
				"housenumber": "89",
				"postalcode": "1053 DJ",
				"city": "Amsterdam",
				"geoLocation": {
					"lat": "52.366557",
					"lng": "4.870398"
				}
			},
			"distance": 0,
			"type": "ING"
		},
		{
			"address": {
				"street": "Molenwerf",
				"housenumber": "20",
				"postalcode": "1541 WR",
				"city": "Koog aan de Zaan",
				"geoLocation": {
					"lat": "52.457912",
					"lng": "4.799866"
				}
			},
			"distance": 0,
			"type": "ING"
		},
		{
			"address": {
				"street": "Bellamystraat",
				"housenumber": "141",
				"postalcode": "4536 AJ",
				"city": "Terneuzen",
				"geoLocation": {
					"lat": "51.319874",
					"lng": "3.8465"
				}
			},
			"distance": 0,
			"type": "ING"
		},
		{
			"address": {
				"street": "Enschedesestraat",
				"housenumber": "54",
				"postalcode": "7551 EN",
				"city": "Hengelo",
				"geoLocation": {
					"lat": "52.263916",
					"lng": "6.796769"
				}
			},
			"distance": 0,
			"type": "ING"
		},
		{
			"address": {
				"street": "Van Ostadelaan",
				"housenumber": "294",
				"postalcode": "1816 JH",
				"city": "Alkmaar",
				"geoLocation": {
					"lat": "52.63163",
					"lng": "4.723203"
				}
			},
			"distance": 0,
			"type": "ING"
		},
		{
			"address": {
				"street": "Kaaikhof",
				"housenumber": "22",
				"postalcode": "1567 JP",
				"city": "Assendelft",
				"geoLocation": {
					"lat": "52.488389",
					"lng": "4.752137"
				}
			},
			"distance": 0,
			"type": "ING"
		},
		{
			"address": {
				"street": "Sumatrastraat",
				"housenumber": "2",
				"postalcode": "2585 CS",
				"city": "Den Haag",
				"geoLocation": {
					"lat": "52.091937",
					"lng": "4.304183"
				}
			},
			"distance": 0,
			"type": "ING"
		},
		{
			"address": {
				"street": "Raadhuislaan",
				"housenumber": "49",
				"postalcode": "3201 EM",
				"city": "Spijkenisse",
				"geoLocation": {
					"lat": "51.847901",
					"lng": "4.329714"
				}
			},
			"distance": 0,
			"type": "ING"
		},
		{
			"address": {
				"street": "Dillenburgplein",
				"housenumber": "5-17",
				"postalcode": "2983 CB",
				"city": "Ridderkerk",
				"geoLocation": {
					"lat": "51.883958",
					"lng": "4.605482"
				}
			},
			"distance": 0,
			"type": "ING"
		},
		{
			"address": {
				"street": "Penningkruid",
				"housenumber": "25",
				"postalcode": "8265 EX",
				"city": "Kampen",
				"geoLocation": {
					"lat": "52.552996",
					"lng": "5.900498"
				}
			},
			"distance": 0,
			"type": "ING"
		},
		{
			"address": {
				"street": "De Bongerd",
				"housenumber": "16",
				"postalcode": "7041 GL",
				"city": "'s-Heerenberg",
				"geoLocation": {
					"lat": "51.879681",
					"lng": "6.259098"
				}
			},
			"distance": 0,
			"type": "ING"
		},
		{
			"address": {
				"street": "Koninging Julianaplein",
				"housenumber": "10",
				"postalcode": "1502 DV",
				"city": "Zaandam",
				"geoLocation": {
					"lat": "52.454095",
					"lng": "4.826778"
				}
			},
			"distance": 0,
			"type": "ING"
		},
		{
			"address": {
				"street": "Veemarkt",
				"housenumber": "2",
				"postalcode": "4001 AE",
				"city": "Tiel",
				"geoLocation": {
					"lat": "51.888246",
					"lng": "5.430569"
				}
			},
			"distance": 0,
			"type": "ING"
		},
		{
			"address": {
				"street": "Evert van Beekstraat",
				"housenumber": "1",
				"postalcode": "1118 CL",
				"city": "Schiphol",
				"geoLocation": {
					"lat": "52.305891",
					"lng": "4.752933"
				}
			},
			"distance": 0,
			"type": "ING"
		},
		{
			"address": {
				"street": "Prins Frederiklaan",
				"housenumber": "197",
				"postalcode": "2263 HA",
				"city": "Leidschendam",
				"geoLocation": {
					"lat": "52.097263",
					"lng": "4.40334"
				}
			},
			"distance": 0,
			"type": "ING"
		},
		{
			"address": {
				"street": "Koningin Julianaplein",
				"housenumber": "10",
				"postalcode": "2595 AA",
				"city": "Den Haag",
				"geoLocation": {
					"lat": "52.081477",
					"lng": "4.323405"
				}
			},
			"distance": 0,
			"type": "ING"
		},
		{
			"address": {
				"street": "Vughterstraat",
				"housenumber": "46",
				"postalcode": "5211 GJ",
				"city": "Den Bosch",
				"geoLocation": {
					"lat": "51.686999",
					"lng": "5.301524"
				}
			},
			"distance": 0,
			"type": "ING"
		},
		{
			"address": {
				"street": "Irmengard Passage",
				"housenumber": "3",
				"postalcode": "6301 EC",
				"city": "Valkenburg",
				"geoLocation": {
					"lat": "50.86611",
					"lng": "5.834265"
				}
			},
			"distance": 0,
			"type": "ING"
		},
		{
			"address": {
				"street": "Willem van Noortplein",
				"housenumber": "6",
				"postalcode": "3514 GK",
				"city": "Utrecht",
				"geoLocation": {
					"lat": "52.102236",
					"lng": "5.123036"
				}
			},
			"distance": 0,
			"type": "ING"
		},
		{
			"address": {
				"street": "Helftheuvelpassage",
				"housenumber": "1",
				"postalcode": "5224 AA",
				"city": "Den Bosch",
				"geoLocation": {
					"lat": "51.696758",
					"lng": "5.266873"
				}
			},
			"distance": 0,
			"type": "ING"
		},
		{
			"address": {
				"street": "Kamperfoelielaan",
				"housenumber": "45",
				"postalcode": "5643 BB",
				"city": "Eindhoven",
				"geoLocation": {
					"lat": "51.422456",
					"lng": "5.499112"
				}
			},
			"distance": 0,
			"type": "ING"
		},
		{
			"address": {
				"street": "Bremstraat",
				"housenumber": "9",
				"postalcode": "9404 GA",
				"city": "Assen",
				"geoLocation": {
					"lat": "52.988575",
					"lng": "6.580771"
				}
			},
			"distance": 0,
			"type": "ING"
		},
		{
			"address": {
				"street": "Raadhuisstraat",
				"housenumber": "6",
				"postalcode": "7001 EW",
				"city": "Doetinchem",
				"geoLocation": {
					"lat": "51.963887",
					"lng": "6.292702"
				}
			},
			"distance": 0,
			"type": "ING"
		},
		{
			"address": {
				"street": "Swaenenstate",
				"housenumber": "4",
				"postalcode": "4043 KE",
				"city": "Opheusden",
				"geoLocation": {
					"lat": "51.934341",
					"lng": "5.627899"
				}
			},
			"distance": 0,
			"type": "ING"
		},
		{
			"address": {
				"street": "Marsdiepstraat",
				"housenumber": "262",
				"postalcode": "1784 HV",
				"city": "Den Helder",
				"geoLocation": {
					"lat": "52.943882",
					"lng": "4.741581"
				}
			},
			"distance": 0,
			"type": "ING"
		},
		{
			"address": {
				"street": "Velperbuitensingel",
				"housenumber": "4",
				"postalcode": "6828 CT",
				"city": "Arnhem",
				"geoLocation": {
					"lat": "51.983127",
					"lng": "5.914891"
				}
			},
			"distance": 0,
			"type": "ING"
		},
		{
			"address": {
				"street": "Runneboom",
				"housenumber": "2",
				"postalcode": "7232 CX",
				"city": "Warnsveld",
				"geoLocation": {
					"lat": "52.135292",
					"lng": "6.229638"
				}
			},
			"distance": 0,
			"type": "ING"
		},
		{
			"address": {
				"street": "August Allebeplein",
				"housenumber": "12",
				"postalcode": "1062 AC",
				"city": "Amsterdam",
				"geoLocation": {
					"lat": "52.363676",
					"lng": "4.837585"
				}
			},
			"distance": 0,
			"type": "ING"
		},
		{
			"address": {
				"street": "'t Plateau",
				"housenumber": "31",
				"postalcode": "3202 GL",
				"city": "Spijkenisse",
				"geoLocation": {
					"lat": "51.855684",
					"lng": "4.316538"
				}
			},
			"distance": 0,
			"type": "ING"
		},
		{
			"address": {
				"street": "IJburglaan",
				"housenumber": "719",
				"postalcode": "1087 BS",
				"city": "Amsterdam",
				"geoLocation": {
					"lat": "52.35804",
					"lng": "4.990486"
				}
			},
			"distance": 0,
			"type": "ING"
		},
		{
			"address": {
				"street": "Vasteland",
				"housenumber": "42A",
				"postalcode": "3011 BM",
				"city": "Rotterdam",
				"geoLocation": {
					"lat": "51.911779",
					"lng": "4.479814"
				}
			},
			"distance": 0,
			"type": "ING"
		},
		{
			"address": {
				"street": "Smidsplein",
				"housenumber": "21",
				"postalcode": "3781 GR",
				"city": "Voorthuizen",
				"geoLocation": {
					"lat": "52.186206",
					"lng": "5.6087239"
				}
			},
			"distance": 0,
			"type": "ING"
		},
		{
			"address": {
				"street": "Skagerrak",
				"housenumber": "200",
				"postalcode": "2133 DW",
				"city": "Hoofddorp",
				"geoLocation": {
					"lat": "52.30923",
					"lng": "4.670794"
				}
			},
			"distance": 0,
			"type": "ING"
		},
		{
			"address": {
				"street": "Groenestraat",
				"housenumber": "78",
				"postalcode": "6991 GH",
				"city": "Rheden",
				"geoLocation": {
					"lat": "52.004702",
					"lng": "6.035865"
				}
			},
			"distance": 0,
			"type": "ING"
		},
		{
			"address": {
				"street": "Haagdijk",
				"housenumber": "108",
				"postalcode": "4811 TW",
				"city": "Breda",
				"geoLocation": {
					"lat": "51.587434",
					"lng": "4.768747"
				}
			},
			"distance": 0,
			"type": "ING"
		},
		{
			"address": {
				"street": "Ahoyweg",
				"housenumber": "10",
				"postalcode": "3084 BA",
				"city": "Rotterdam",
				"geoLocation": {
					"lat": "51.883517",
					"lng": "4.487138"
				}
			},
			"distance": 0,
			"type": "ING"
		},
		{
			"address": {
				"street": "Huijbergseweg",
				"housenumber": "21",
				"postalcode": "4631 GC",
				"city": "Hoogerheide",
				"geoLocation": {
					"lat": "51.423399",
					"lng": "4.328928"
				}
			},
			"distance": 0,
			"type": "ING"
		},
		{
			"address": {
				"street": "Westermarkt",
				"housenumber": "21",
				"postalcode": "1016 DJ",
				"city": "Amsterdam",
				"geoLocation": {
					"lat": "52.373878",
					"lng": "4.883927"
				}
			},
			"distance": 0,
			"type": "ING"
		},
		{
			"address": {
				"street": "Kardinaal de Jongstraat",
				"housenumber": "17",
				"postalcode": "5554 RB",
				"city": "Valkenswaard",
				"geoLocation": {
					"lat": "51.352558",
					"lng": "5.45087"
				}
			},
			"distance": 0,
			"type": "ING"
		},
		{
			"address": {
				"street": "Gevers Deynootplein",
				"housenumber": "102",
				"postalcode": "2586 CP",
				"city": "Den Haag",
				"geoLocation": {
					"lat": "52.113196",
					"lng": "4.282657"
				}
			},
			"distance": 0,
			"type": "ING"
		},
		{
			"address": {
				"street": "Osdorpplein",
				"housenumber": "371",
				"postalcode": "1068 EV",
				"city": "Amsterdam",
				"geoLocation": {
					"lat": "52.359121",
					"lng": "4.804182"
				}
			},
			"distance": 0,
			"type": "ING"
		},
		{
			"address": {
				"street": "Haarlemmerdijk",
				"housenumber": "1",
				"postalcode": "1013 JZ",
				"city": "Amsterdam",
				"geoLocation": {
					"lat": "52.381556",
					"lng": "4.888761"
				}
			},
			"distance": 0,
			"type": "ING"
		},
		{
			"address": {
				"street": "Pieter Sipmawei",
				"housenumber": "9",
				"postalcode": "8915 DZ",
				"city": "Leeuwarden",
				"geoLocation": {
					"lat": "53.208096",
					"lng": "5.767692"
				}
			},
			"distance": 0,
			"type": "ING"
		},
		{
			"address": {
				"street": "Reghthuysplein",
				"housenumber": "3",
				"postalcode": "2421 BE",
				"city": "Nieuwkoop",
				"geoLocation": {
					"lat": "52.150532",
					"lng": "4.77908"
				}
			},
			"distance": 0,
			"type": "ING"
		},
		{
			"address": {
				"street": "Stationsplein",
				"housenumber": "11B",
				"postalcode": "2011 LR",
				"city": "Haarlem",
				"geoLocation": {
					"lat": "52.3875973",
					"lng": "4.6369685"
				}
			},
			"distance": 0,
			"type": "ING"
		},
		{
			"address": {
				"street": "Hoofdstraat",
				"housenumber": "135",
				"postalcode": "6881 TG",
				"city": "Velp",
				"geoLocation": {
					"lat": "51.995586",
					"lng": "5.968687"
				}
			},
			"distance": 0,
			"type": "ING"
		},
		{
			"address": {
				"street": "Hoge Brake",
				"housenumber": "8",
				"postalcode": "5672 GL",
				"city": "Nuenen",
				"geoLocation": {
					"lat": "51.46466",
					"lng": "5.549587"
				}
			},
			"distance": 0,
			"type": "ING"
		},
		{
			"address": {
				"street": "Winkelcentrum",
				"housenumber": "19",
				"postalcode": "6581 BV",
				"city": "Malden",
				"geoLocation": {
					"lat": "51.782045",
					"lng": "5.8537"
				}
			},
			"distance": 0,
			"type": "ING"
		},
		{
			"address": {
				"street": "Keizerstraat",
				"housenumber": "327",
				"postalcode": "2584 BG",
				"city": "Den Haag",
				"geoLocation": {
					"lat": "52.103806",
					"lng": "4.276392"
				}
			},
			"distance": 0,
			"type": "ING"
		},
		{
			"address": {
				"street": "W.H. van Leeuwenlaan",
				"housenumber": "1",
				"postalcode": "2613 ZE",
				"city": "Delft",
				"geoLocation": {
					"lat": "52.014074",
					"lng": "4.342893"
				}
			},
			"distance": 0,
			"type": "ING"
		},
		{
			"address": {
				"street": "Korte Parallelweg",
				"housenumber": "165",
				"postalcode": "3311 JN",
				"city": "Dordrecht",
				"geoLocation": {
					"lat": "51.810211",
					"lng": "4.655402"
				}
			},
			"distance": 0,
			"type": "ING"
		},
		{
			"address": {
				"street": "De Hovel",
				"housenumber": "19",
				"postalcode": "5051 NP",
				"city": "Goirle",
				"geoLocation": {
					"lat": "51.521256",
					"lng": "5.069537"
				}
			},
			"distance": 0,
			"type": "ING"
		},
		{
			"address": {
				"street": "Koningsschild",
				"housenumber": "11",
				"postalcode": "5051 TT",
				"city": "Goirle",
				"geoLocation": {
					"lat": "51.519197",
					"lng": "5.055886"
				}
			},
			"distance": 0,
			"type": "ING"
		},
		{
			"address": {
				"street": "Ardechelaan",
				"housenumber": "15",
				"postalcode": "5627 EM",
				"city": "Eindhoven",
				"geoLocation": {
					"lat": "51.488332",
					"lng": "5.440862"
				}
			},
			"distance": 0,
			"type": "ING"
		},
		{
			"address": {
				"street": "Schoolstraat",
				"housenumber": "13",
				"postalcode": "9301 KB",
				"city": "Roden",
				"geoLocation": {
					"lat": "53.1373018",
					"lng": "6.4331007"
				}
			},
			"distance": 0,
			"type": "ING"
		},
		{
			"address": {
				"street": "Van Heutszsingel",
				"housenumber": "6",
				"postalcode": "7741 ET",
				"city": "Coevorden",
				"geoLocation": {
					"lat": "52.66345",
					"lng": "6.737941"
				}
			},
			"distance": 0,
			"type": "ING"
		},
		{
			"address": {
				"street": "Leusderweg",
				"housenumber": "79",
				"postalcode": "3818 AA",
				"city": "Amersfoort",
				"geoLocation": {
					"lat": "52.144043",
					"lng": "5.380567"
				}
			},
			"distance": 0,
			"type": "ING"
		},
		{
			"address": {
				"street": "Juan Grisstraat",
				"housenumber": "44",
				"postalcode": "1328 KA",
				"city": "Almere",
				"geoLocation": {
					"lat": "52.374084",
					"lng": "5.265581"
				}
			},
			"distance": 0,
			"type": "ING"
		},
		{
			"address": {
				"street": "Raadhuisstraat",
				"housenumber": "22",
				"postalcode": "1016 DE",
				"city": "Amsterdam",
				"geoLocation": {
					"lat": "52.373472",
					"lng": "4.887838"
				}
			},
			"distance": 0,
			"type": "ING"
		},
		{
			"address": {
				"street": "Lambertus Zijlplein",
				"housenumber": "8",
				"postalcode": "1067 JS",
				"city": "Amsterdam",
				"geoLocation": {
					"lat": "52.377724",
					"lng": "4.801573"
				}
			},
			"distance": 0,
			"type": "ING"
		},
		{
			"address": {
				"street": "Cypresstraat",
				"housenumber": "3",
				"postalcode": "4814 PN",
				"city": "Breda",
				"geoLocation": {
					"lat": "51.58723",
					"lng": "4.75403"
				}
			},
			"distance": 0,
			"type": "ING"
		},
		{
			"address": {
				"street": "Aankomstpassage",
				"housenumber": "1",
				"postalcode": "1118 AX",
				"city": "Schiphol",
				"geoLocation": {
					"lat": "52.307138",
					"lng": "4.760019"
				}
			},
			"distance": 0,
			"type": "ING"
		},
		{
			"address": {
				"street": "Klein Grachtje",
				"housenumber": "16",
				"postalcode": "8021 JC",
				"city": "Zwolle",
				"geoLocation": {
					"lat": "52.515822",
					"lng": "6.100784"
				}
			},
			"distance": 0,
			"type": "ING"
		},
		{
			"address": {
				"street": "Pastoriepad",
				"housenumber": "1",
				"postalcode": "9919 AP",
				"city": "Loppersum",
				"geoLocation": {
					"lat": "53.3320322",
					"lng": "6.7432953"
				}
			},
			"distance": 0,
			"type": "ING"
		},
		{
			"address": {
				"street": "Brugstraat",
				"housenumber": "1",
				"postalcode": "6131 AE",
				"city": "Sittard",
				"geoLocation": {
					"lat": "50.999513",
					"lng": "5.859231"
				}
			},
			"distance": 0,
			"type": "ING"
		},
		{
			"address": {
				"street": "Markiezaatsweg",
				"housenumber": "3",
				"postalcode": "4615 PA",
				"city": "Bergen op Zoom",
				"geoLocation": {
					"lat": "51.492225",
					"lng": "4.274877"
				}
			},
			"distance": 0,
			"type": "ING"
		},
		{
			"address": {
				"street": "Paddestoelenlaan",
				"housenumber": "40",
				"postalcode": "3903 GG",
				"city": "Veenendaal",
				"geoLocation": {
					"lat": "52.005953",
					"lng": "5.553398"
				}
			},
			"distance": 0,
			"type": "ING"
		},
		{
			"address": {
				"street": "Blaak",
				"housenumber": "1",
				"postalcode": "3011 GA",
				"city": "Rotterdam",
				"geoLocation": {
					"lat": "51.919412",
					"lng": "4.486901"
				}
			},
			"distance": 0,
			"type": "ING"
		},
		{
			"address": {
				"street": "Apeldoornselaan",
				"housenumber": "266",
				"postalcode": "2573 LW",
				"city": "Den Haag",
				"geoLocation": {
					"lat": "52.066036",
					"lng": "4.281748"
				}
			},
			"distance": 0,
			"type": "ING"
		},
		{
			"address": {
				"street": "Molenstraatje",
				"housenumber": "2",
				"postalcode": "4001 CB",
				"city": "Tiel",
				"geoLocation": {
					"lat": "51.888049",
					"lng": "5.42929"
				}
			},
			"distance": 0,
			"type": "ING"
		},
		{
			"address": {
				"street": "Stadspoort",
				"housenumber": "1",
				"postalcode": "6716 RH",
				"city": "Ede",
				"geoLocation": {
					"lat": "52.017515",
					"lng": "5.651072"
				}
			},
			"distance": 0,
			"type": "ING"
		},
		{
			"address": {
				"street": "Oudestraat",
				"housenumber": "137",
				"postalcode": "8261 CK",
				"city": "Kampen",
				"geoLocation": {
					"lat": "52.559389",
					"lng": "5.916485"
				}
			},
			"distance": 0,
			"type": "ING"
		},
		{
			"address": {
				"street": "Veenslag",
				"housenumber": "7",
				"postalcode": "3905 SH",
				"city": "Veenendaal",
				"geoLocation": {
					"lat": "52.028723",
					"lng": "5.53238"
				}
			},
			"distance": 0,
			"type": "ING"
		},
		{
			"address": {
				"street": "Sint Willibrordusstraat",
				"housenumber": "45",
				"postalcode": "5351 EE",
				"city": "Berghem",
				"geoLocation": {
					"lat": "51.770308",
					"lng": "5.567401"
				}
			},
			"distance": 0,
			"type": "ING"
		},
		{
			"address": {
				"street": "De Loop",
				"housenumber": "55",
				"postalcode": "5688 EW",
				"city": "Oirschot",
				"geoLocation": {
					"lat": "51.50479",
					"lng": "5.313134"
				}
			},
			"distance": 0,
			"type": "ING"
		},
		{
			"address": {
				"street": "Willem de Zwijgerlaan",
				"housenumber": "43",
				"postalcode": "2582 EG",
				"city": "Den Haag",
				"geoLocation": {
					"lat": "52.090844",
					"lng": "4.274685"
				}
			},
			"distance": 0,
			"type": "ING"
		},
		{
			"address": {
				"street": "Vechtstraat",
				"housenumber": "7",
				"postalcode": "8051 JM",
				"city": "Hattem",
				"geoLocation": {
					"lat": "52.477693",
					"lng": "6.054358"
				}
			},
			"distance": 0,
			"type": "ING"
		},
		{
			"address": {
				"street": "Loosduinse Hoofdstraat",
				"housenumber": "212",
				"postalcode": "2552 AM",
				"city": "Den Haag",
				"geoLocation": {
					"lat": "52.05361",
					"lng": "4.236454"
				}
			},
			"distance": 0,
			"type": "ING"
		},
		{
			"address": {
				"street": "Wagnerplein",
				"housenumber": "52",
				"postalcode": "5011 LR",
				"city": "Tilburg",
				"geoLocation": {
					"lat": "51.584471",
					"lng": "5.085618"
				}
			},
			"distance": 0,
			"type": "ING"
		},
		{
			"address": {
				"street": "Van Hogendorplaan",
				"housenumber": "44",
				"postalcode": "1215 EH",
				"city": "Hilversum",
				"geoLocation": {
					"lat": "52.214559",
					"lng": "5.155824"
				}
			},
			"distance": 0,
			"type": "ING"
		},
		{
			"address": {
				"street": "Alphons Diepenbrockhof",
				"housenumber": "90",
				"postalcode": "2551 LD",
				"city": "Den Haag",
				"geoLocation": {
					"lat": "52.059203",
					"lng": "4.231046"
				}
			},
			"distance": 0,
			"type": "ING"
		},
		{
			"address": {
				"street": "Mosveld",
				"housenumber": "129",
				"postalcode": "1031 AD",
				"city": "Amsterdam",
				"geoLocation": {
					"lat": "52.3910889",
					"lng": "4.911433"
				}
			},
			"distance": 0,
			"type": "ING"
		},
		{
			"address": {
				"street": "Zilverschoonplein",
				"housenumber": "38-42",
				"postalcode": "1508 CL",
				"city": "Zaandam",
				"geoLocation": {
					"lat": "52.459354",
					"lng": "4.821036"
				}
			},
			"distance": 0,
			"type": "ING"
		},
		{
			"address": {
				"street": "Piusplein",
				"housenumber": "20",
				"postalcode": "4621 EN",
				"city": "Bergen op Zoom",
				"geoLocation": {
					"lat": "51.492794",
					"lng": "4.300025"
				}
			},
			"distance": 0,
			"type": "ING"
		},
		{
			"address": {
				"street": "Rapportstraat",
				"housenumber": "2",
				"postalcode": "5504 BP",
				"city": "Veldhoven",
				"geoLocation": {
					"lat": "51.404232",
					"lng": "5.397126"
				}
			},
			"distance": 0,
			"type": "ING"
		},
		{
			"address": {
				"street": "Stationsweg",
				"housenumber": "43A",
				"postalcode": "1815 CB",
				"city": "Alkmaar",
				"geoLocation": {
					"lat": "52.637546",
					"lng": "4.739839"
				}
			},
			"distance": 0,
			"type": "ING"
		},
		{
			"address": {
				"street": "Heuneind",
				"housenumber": "21",
				"postalcode": "5056 GE",
				"city": "Berkel-Enschot",
				"geoLocation": {
					"lat": "51.584371",
					"lng": "5.142563"
				}
			},
			"distance": 0,
			"type": "ING"
		},
		{
			"address": {
				"street": "Haven Noord",
				"housenumber": "1",
				"postalcode": "7731 GZ",
				"city": "Ommen",
				"geoLocation": {
					"lat": "52.525376",
					"lng": "6.425762"
				}
			},
			"distance": 0,
			"type": "ING"
		},
		{
			"address": {
				"street": "De Symfonie",
				"housenumber": "51",
				"postalcode": "2151 ME",
				"city": "Nieuw-Vennep",
				"geoLocation": {
					"lat": "52.264476",
					"lng": "4.632103"
				}
			},
			"distance": 0,
			"type": "ING"
		},
		{
			"address": {
				"street": "Brinkzicht",
				"housenumber": "16",
				"postalcode": "3743 EX",
				"city": "Baarn",
				"geoLocation": {
					"lat": "52.212096",
					"lng": "5.29169"
				}
			},
			"distance": 0,
			"type": "ING"
		},
		{
			"address": {
				"street": "Torenstraat",
				"housenumber": "27",
				"postalcode": "2513 BN",
				"city": "Den Haag",
				"geoLocation": {
					"lat": "52.077854",
					"lng": "4.305661"
				}
			},
			"distance": 0,
			"type": "ING"
		},
		{
			"address": {
				"street": "Haarlemmerstraat",
				"housenumber": "135",
				"postalcode": "2312 DN",
				"city": "Leiden",
				"geoLocation": {
					"lat": "52.16011",
					"lng": "4.49153"
				}
			},
			"distance": 0,
			"type": "ING"
		},
		{
			"address": {
				"street": "Arkendonk",
				"housenumber": "53",
				"postalcode": "4907 XP",
				"city": "Oosterhout",
				"geoLocation": {
					"lat": "51.65926",
					"lng": "4.86369"
				}
			},
			"distance": 0,
			"type": "ING"
		},
		{
			"address": {
				"street": "Roostenlaan",
				"housenumber": "112",
				"postalcode": "5644 GJ",
				"city": "Eindhoven",
				"geoLocation": {
					"lat": "51.419883",
					"lng": "5.491841"
				}
			},
			"distance": 0,
			"type": "ING"
		},
		{
			"address": {
				"street": "Rimsky-Korssakovweg",
				"housenumber": "9",
				"postalcode": "1323 LP",
				"city": "Almere",
				"geoLocation": {
					"lat": "52.3669",
					"lng": "5.190668"
				}
			},
			"distance": 0,
			"type": "ING"
		},
		{
			"address": {
				"street": "Remigiusplein",
				"housenumber": "6A",
				"postalcode": "6921 BL",
				"city": "Duiven",
				"geoLocation": {
					"lat": "51.949771",
					"lng": "6.02345"
				}
			},
			"distance": 0,
			"type": "ING"
		},
		{
			"address": {
				"street": "Zwanenveld",
				"housenumber": "5505",
				"postalcode": "6538 TZ",
				"city": "Nijmegen",
				"geoLocation": {
					"lat": "51.823252",
					"lng": "5.798607"
				}
			},
			"distance": 0,
			"type": "ING"
		},
		{
			"address": {
				"street": "Kerkstraat",
				"housenumber": "62",
				"postalcode": "5211 KH",
				"city": "Den Bosch",
				"geoLocation": {
					"lat": "51.687965",
					"lng": "5.307134"
				}
			},
			"distance": 0,
			"type": "ING"
		},
		{
			"address": {
				"street": "Middelwaard",
				"housenumber": "42",
				"postalcode": "2716 CW",
				"city": "Zoetermeer",
				"geoLocation": {
					"lat": "52.056195",
					"lng": "4.468742"
				}
			},
			"distance": 0,
			"type": "ING"
		},
		{
			"address": {
				"street": "Hagastraat",
				"housenumber": "1",
				"postalcode": "3114 NC",
				"city": "Schiedam",
				"geoLocation": {
					"lat": "51.907414",
					"lng": "4.402024"
				}
			},
			"distance": 0,
			"type": "ING"
		},
		{
			"address": {
				"street": "Hoofdweg",
				"housenumber": "1197",
				"postalcode": "2151 MG",
				"city": "Nieuw-Vennep",
				"geoLocation": {
					"lat": "52.263702",
					"lng": "4.631985"
				}
			},
			"distance": 0,
			"type": "ING"
		},
		{
			"address": {
				"street": "Johan de Wittstraat",
				"housenumber": "1",
				"postalcode": "2242 LA",
				"city": "Wassenaar",
				"geoLocation": {
					"lat": "52.142665",
					"lng": "4.396278"
				}
			},
			"distance": 0,
			"type": "ING"
		},
		{
			"address": {
				"street": "Rijksweg Zuid",
				"housenumber": "2",
				"postalcode": "6161 BP",
				"city": "Geleen",
				"geoLocation": {
					"lat": "50.967148",
					"lng": "5.826837"
				}
			},
			"distance": 0,
			"type": "ING"
		},
		{
			"address": {
				"street": "Hoofdstraat",
				"housenumber": "162",
				"postalcode": "3972 LG",
				"city": "Driebergen-Rijsenburg",
				"geoLocation": {
					"lat": "52.051715",
					"lng": "5.28276"
				}
			},
			"distance": 0,
			"type": "ING"
		},
		{
			"address": {
				"street": "Midstraat",
				"housenumber": "28",
				"postalcode": "8501 AR",
				"city": "Joure",
				"geoLocation": {
					"lat": "52.968304",
					"lng": "5.793425"
				}
			},
			"distance": 0,
			"type": "ING"
		},
		{
			"address": {
				"street": "Biezelingsestraat",
				"housenumber": "1",
				"postalcode": "4421 BL",
				"city": "Kapelle",
				"geoLocation": {
					"lat": "51.4864183",
					"lng": "3.9592108"
				}
			},
			"distance": 0,
			"type": "ING"
		},
		{
			"address": {
				"street": "Zuidvliet",
				"housenumber": "13",
				"postalcode": "3141 AL",
				"city": "Maassluis",
				"geoLocation": {
					"lat": "51.921917",
					"lng": "4.255292"
				}
			},
			"distance": 0,
			"type": "ING"
		},
		{
			"address": {
				"street": "Parkweg",
				"housenumber": "30",
				"postalcode": "2271 AK",
				"city": "Voorburg",
				"geoLocation": {
					"lat": "52.067843",
					"lng": "4.362413"
				}
			},
			"distance": 0,
			"type": "ING"
		},
		{
			"address": {
				"street": "Helperplein",
				"housenumber": "4",
				"postalcode": "9721 CX",
				"city": "Groningen",
				"geoLocation": {
					"lat": "53.197738",
					"lng": "6.579772"
				}
			},
			"distance": 0,
			"type": "ING"
		},
		{
			"address": {
				"street": "Stationsplein",
				"housenumber": "19",
				"postalcode": "3013 AJ",
				"city": "Rotterdam",
				"geoLocation": {
					"lat": "51.924005",
					"lng": "4.469302"
				}
			},
			"distance": 0,
			"type": "ING"
		},
		{
			"address": {
				"street": "Talingweg",
				"housenumber": "169",
				"postalcode": "7331 GN",
				"city": "Apeldoorn",
				"geoLocation": {
					"lat": "52.200459",
					"lng": "5.967194"
				}
			},
			"distance": 0,
			"type": "ING"
		},
		{
			"address": {
				"street": "Burgemeester Frenckenstraat",
				"housenumber": "14",
				"postalcode": "5721 EZ",
				"city": "Asten",
				"geoLocation": {
					"lat": "51.404552",
					"lng": "5.747045"
				}
			},
			"distance": 0,
			"type": "ING"
		},
		{
			"address": {
				"street": "Laagte",
				"housenumber": "2",
				"postalcode": "7151 BS",
				"city": "Eibergen",
				"geoLocation": {
					"lat": "52.10269",
					"lng": "6.644348"
				}
			},
			"distance": 0,
			"type": "ING"
		},
		{
			"address": {
				"street": "Wolphaertsbocht",
				"housenumber": "37",
				"postalcode": "3082 AB",
				"city": "Rotterdam",
				"geoLocation": {
					"lat": "51.894152",
					"lng": "4.467324"
				}
			},
			"distance": 0,
			"type": "ING"
		},
		{
			"address": {
				"street": "Safariweg",
				"housenumber": "68-70",
				"postalcode": "3605 MA",
				"city": "Maarssen",
				"geoLocation": {
					"lat": "52.134929",
					"lng": "5.033837"
				}
			},
			"distance": 0,
			"type": "ING"
		},
		{
			"address": {
				"street": "Koopmanstraat",
				"housenumber": "12",
				"postalcode": "1315 HE",
				"city": "Almere",
				"geoLocation": {
					"lat": "52.371839",
					"lng": "5.216596"
				}
			},
			"distance": 0,
			"type": "ING"
		},
		{
			"address": {
				"street": "Molenwijk",
				"housenumber": "38",
				"postalcode": "1035 EG",
				"city": "Amsterdam",
				"geoLocation": {
					"lat": "52.417277",
					"lng": "4.89302"
				}
			},
			"distance": 0,
			"type": "ING"
		},
		{
			"address": {
				"street": "Ouddiemerlaan",
				"housenumber": "225",
				"postalcode": "1111 GZ",
				"city": "Diemen",
				"geoLocation": {
					"lat": "52.342318",
					"lng": "4.964298"
				}
			},
			"distance": 0,
			"type": "ING"
		},
		{
			"address": {
				"street": "Pastoor Bruggemanlaan",
				"housenumber": "1",
				"postalcode": "6861 GR",
				"city": "Oosterbeek",
				"geoLocation": {
					"lat": "51.987687",
					"lng": "5.843134"
				}
			},
			"distance": 0,
			"type": "ING"
		},
		{
			"address": {
				"street": "Helftheuvelpassage",
				"housenumber": "30",
				"postalcode": "5224 AP",
				"city": "Den Bosch",
				"geoLocation": {
					"lat": "51.695852",
					"lng": "5.268366"
				}
			},
			"distance": 0,
			"type": "ING"
		},
		{
			"address": {
				"street": "Limburglaan",
				"housenumber": "2",
				"postalcode": "5652 AA",
				"city": "Eindhoven",
				"geoLocation": {
					"lat": "51.435294",
					"lng": "5.451358"
				}
			},
			"distance": 0,
			"type": "ING"
		},
		{
			"address": {
				"street": "Dorpsstraat",
				"housenumber": "17",
				"postalcode": "7451 BR",
				"city": "Holten",
				"geoLocation": {
					"lat": "52.281909",
					"lng": "6.422417"
				}
			},
			"distance": 0,
			"type": "ING"
		},
		{
			"address": {
				"street": "Steenstraat",
				"housenumber": "1",
				"postalcode": "6828 CA",
				"city": "Arnhem",
				"geoLocation": {
					"lat": "51.983726",
					"lng": "5.915699"
				}
			},
			"distance": 0,
			"type": "ING"
		},
		{
			"address": {
				"street": "Dorpsstraat",
				"housenumber": "28",
				"postalcode": "7391 DE",
				"city": "Twello",
				"geoLocation": {
					"lat": "52.237674",
					"lng": "6.10348"
				}
			},
			"distance": 0,
			"type": "ING"
		},
		{
			"address": {
				"street": "Bloemendaalseweg",
				"housenumber": "44",
				"postalcode": "2061 CL",
				"city": "Bloemendaal",
				"geoLocation": {
					"lat": "52.404765",
					"lng": "4.620606"
				}
			},
			"distance": 0,
			"type": "ING"
		},
		{
			"address": {
				"street": "Burgemeester Reigerstraat",
				"housenumber": "57",
				"postalcode": "3581 KM",
				"city": "Utrecht",
				"geoLocation": {
					"lat": "52.089229",
					"lng": "5.135853"
				}
			},
			"distance": 0,
			"type": "ING"
		},
		{
			"address": {
				"street": "Op het Toneel",
				"housenumber": "1",
				"postalcode": "6836 ND",
				"city": "Arnhem",
				"geoLocation": {
					"lat": "51.941617",
					"lng": "5.893649"
				}
			},
			"distance": 0,
			"type": "ING"
		},
		{
			"address": {
				"street": "Wagenhoek",
				"housenumber": "9",
				"postalcode": "4731 JB",
				"city": "Oudenbosch",
				"geoLocation": {
					"lat": "51.589344",
					"lng": "4.524707"
				}
			},
			"distance": 0,
			"type": "ING"
		},
		{
			"address": {
				"street": "Bunschoterplein",
				"housenumber": "1",
				"postalcode": "6711 CD",
				"city": "Ede",
				"geoLocation": {
					"lat": "52.047668",
					"lng": "5.6692903"
				}
			},
			"distance": 0,
			"type": "ING"
		},
		{
			"address": {
				"street": "Scharnerweg",
				"housenumber": "110",
				"postalcode": "6224 JJ",
				"city": "Maastricht",
				"geoLocation": {
					"lat": "50.849208",
					"lng": "5.712519"
				}
			},
			"distance": 0,
			"type": "ING"
		},
		{
			"address": {
				"street": "Eudokiaplein",
				"housenumber": "12",
				"postalcode": "3037 BT",
				"city": "Rotterdam",
				"geoLocation": {
					"lat": "51.932718",
					"lng": "4.470739"
				}
			},
			"distance": 0,
			"type": "ING"
		},
		{
			"address": {
				"street": "Middenmolenplein",
				"housenumber": "64",
				"postalcode": "2807 GZ",
				"city": "Gouda",
				"geoLocation": {
					"lat": "52.01152",
					"lng": "4.743422"
				}
			},
			"distance": 0,
			"type": "ING"
		},
		{
			"address": {
				"street": "Van Lenneplaan",
				"housenumber": "99",
				"postalcode": "9721 PE",
				"city": "Groningen",
				"geoLocation": {
					"lat": "53.1964",
					"lng": "6.567823"
				}
			},
			"distance": 0,
			"type": "ING"
		},
		{
			"address": {
				"street": "In de Cramer",
				"housenumber": "142",
				"postalcode": "6412 PM",
				"city": "Heerlen",
				"geoLocation": {
					"lat": "50.89939",
					"lng": "5.945195"
				}
			},
			"distance": 0,
			"type": "ING"
		},
		{
			"address": {
				"street": "Soestdijkkade",
				"housenumber": "82",
				"postalcode": "2316 RC",
				"city": "Leiden",
				"geoLocation": {
					"lat": "52.166366",
					"lng": "4.506478"
				}
			},
			"distance": 0,
			"type": "ING"
		},
		{
			"address": {
				"street": "Kruisstraat",
				"housenumber": "10",
				"postalcode": "2011 PX",
				"city": "Haarlem",
				"geoLocation": {
					"lat": "52.384466",
					"lng": "4.635779"
				}
			},
			"distance": 0,
			"type": "ING"
		},
		{
			"address": {
				"street": "Laan van Limburg",
				"housenumber": "1",
				"postalcode": "4701 BP",
				"city": "Roosendaal",
				"geoLocation": {
					"lat": "51.529194",
					"lng": "4.453834"
				}
			},
			"distance": 0,
			"type": "ING"
		},
		{
			"address": {
				"street": "Hof van Holland",
				"housenumber": "110",
				"postalcode": "3332 EH",
				"city": "Zwijndrecht",
				"geoLocation": {
					"lat": "51.822467",
					"lng": "4.65149"
				}
			},
			"distance": 0,
			"type": "ING"
		},
		{
			"address": {
				"street": "Stationsplein",
				"housenumber": "6",
				"postalcode": "6512 AA",
				"city": "Nijmegen",
				"geoLocation": {
					"lat": "51.843186",
					"lng": "5.853098"
				}
			},
			"distance": 0,
			"type": "ING"
		},
		{
			"address": {
				"street": "Menton Passage",
				"housenumber": "12",
				"postalcode": "2037 AB",
				"city": "Haarlem",
				"geoLocation": {
					"lat": "52.359679",
					"lng": "4.655094"
				}
			},
			"distance": 0,
			"type": "ING"
		},
		{
			"address": {
				"street": "Vrede en Vrijheid",
				"housenumber": "19",
				"postalcode": "1785 RL",
				"city": "Den Helder",
				"geoLocation": {
					"lat": "52.936096",
					"lng": "4.77164"
				}
			},
			"distance": 0,
			"type": "ING"
		},
		{
			"address": {
				"street": "Stadsdam",
				"housenumber": "2",
				"postalcode": "6851 AH",
				"city": "Huissen",
				"geoLocation": {
					"lat": "51.93949",
					"lng": "5.942023"
				}
			},
			"distance": 0,
			"type": "ING"
		},
		{
			"address": {
				"street": "Da Costasingel",
				"housenumber": "6",
				"postalcode": "2394 BG",
				"city": "Hazerswoude-Rijndijk",
				"geoLocation": {
					"lat": "52.128558",
					"lng": "4.588271"
				}
			},
			"distance": 0,
			"type": "ING"
		},
		{
			"address": {
				"street": "De Weide",
				"housenumber": "28",
				"postalcode": "7908 AB",
				"city": "Hoogeveen",
				"geoLocation": {
					"lat": "52.71866",
					"lng": "6.451842"
				}
			},
			"distance": 0,
			"type": "ING"
		},
		{
			"address": {
				"street": "Spoorwegstraat",
				"housenumber": "1",
				"postalcode": "2015 BL",
				"city": "Haarlem",
				"geoLocation": {
					"lat": "52.387122",
					"lng": "4.622365"
				}
			},
			"distance": 0,
			"type": "ING"
		},
		{
			"address": {
				"street": "Piazza Center",
				"housenumber": "74",
				"postalcode": "4204 BS",
				"city": "Gorinchem",
				"geoLocation": {
					"lat": "51.837115",
					"lng": "4.961642"
				}
			},
			"distance": 0,
			"type": "ING"
		},
		{
			"address": {
				"street": "Houtzagersstraat",
				"housenumber": "6",
				"postalcode": "8171 CW",
				"city": "Vaassen",
				"geoLocation": {
					"lat": "52.2876",
					"lng": "5.970482"
				}
			},
			"distance": 0,
			"type": "ING"
		},
		{
			"address": {
				"street": "Boomstraat",
				"housenumber": "9",
				"postalcode": "8881 BS",
				"city": "West-Terschelling",
				"geoLocation": {
					"lat": "53.360352",
					"lng": "5.21517"
				}
			},
			"distance": 0,
			"type": "ING"
		},
		{
			"address": {
				"street": "Steenweg",
				"housenumber": "8",
				"postalcode": "5301 HL",
				"city": "Zaltbommel",
				"geoLocation": {
					"lat": "51.809604",
					"lng": "5.241613"
				}
			},
			"distance": 0,
			"type": "ING"
		},
		{
			"address": {
				"street": "Breelaan",
				"housenumber": "14",
				"postalcode": "1861 GE",
				"city": "Bergen",
				"geoLocation": {
					"lat": "52.671145",
					"lng": "4.701523"
				}
			},
			"distance": 0,
			"type": "ING"
		},
		{
			"address": {
				"street": "De Kolk",
				"housenumber": "3",
				"postalcode": "7491 XN",
				"city": "Delden",
				"geoLocation": {
					"lat": "52.261256",
					"lng": "6.708531"
				}
			},
			"distance": 0,
			"type": "ING"
		},
		{
			"address": {
				"street": "Zonstraat",
				"housenumber": "28",
				"postalcode": "7521 HH",
				"city": "Enschede",
				"geoLocation": {
					"lat": "52.22939",
					"lng": "6.858429"
				}
			},
			"distance": 0,
			"type": "ING"
		},
		{
			"address": {
				"street": "De Stient",
				"housenumber": "22",
				"postalcode": "1132 BE",
				"city": "Volendam",
				"geoLocation": {
					"lat": "52.498154",
					"lng": "5.052471"
				}
			},
			"distance": 0,
			"type": "ING"
		},
		{
			"address": {
				"street": "Borculoseweg",
				"housenumber": "11",
				"postalcode": "7161 GP",
				"city": "Neede",
				"geoLocation": {
					"lat": "52.134943",
					"lng": "6.610323"
				}
			},
			"distance": 0,
			"type": "ING"
		},
		{
			"address": {
				"street": "Willem de Merodestraat",
				"housenumber": "10",
				"postalcode": "7552 WZ",
				"city": "Hengelo",
				"geoLocation": {
					"lat": "52.262665",
					"lng": "6.820802"
				}
			},
			"distance": 0,
			"type": "ING"
		},
		{
			"address": {
				"street": "Hesseplaats",
				"housenumber": "13",
				"postalcode": "3069 EA",
				"city": "Rotterdam",
				"geoLocation": {
					"lat": "51.962751",
					"lng": "4.554037"
				}
			},
			"distance": 0,
			"type": "ING"
		},
		{
			"address": {
				"street": "Wiardi Beckmanplein",
				"housenumber": "37",
				"postalcode": "4207 NA",
				"city": "Gorinchem",
				"geoLocation": {
					"lat": "51.836819",
					"lng": "4.992815"
				}
			},
			"distance": 0,
			"type": "ING"
		},
		{
			"address": {
				"street": "Kerstendijk",
				"housenumber": "5",
				"postalcode": "3079 ET",
				"city": "Rotterdam",
				"geoLocation": {
					"lat": "51.88131",
					"lng": "4.543661"
				}
			},
			"distance": 0,
			"type": "ING"
		},
		{
			"address": {
				"street": "Emmaplein",
				"housenumber": "2",
				"postalcode": "3701 DA",
				"city": "Zeist",
				"geoLocation": {
					"lat": "52.086844",
					"lng": "5.240083"
				}
			},
			"distance": 0,
			"type": "ING"
		},
		{
			"address": {
				"street": "Pijmanstraat",
				"housenumber": "18",
				"postalcode": "8014 VB",
				"city": "Zwolle",
				"geoLocation": {
					"lat": "52.483382",
					"lng": "6.111245"
				}
			},
			"distance": 0,
			"type": "ING"
		},
		{
			"address": {
				"street": "Stationsplein",
				"housenumber": "73",
				"postalcode": "3818 LE",
				"city": "Amersfoort",
				"geoLocation": {
					"lat": "52.153292",
					"lng": "5.373347"
				}
			},
			"distance": 0,
			"type": "ING"
		},
		{
			"address": {
				"street": "Hatertseweg",
				"housenumber": "829",
				"postalcode": "6535 ZT",
				"city": "Nijmegen",
				"geoLocation": {
					"lat": "51.807525",
					"lng": "5.824741"
				}
			},
			"distance": 0,
			"type": "ING"
		},
		{
			"address": {
				"street": "Stationsplein",
				"housenumber": "27",
				"postalcode": "6221 BT",
				"city": "Maastricht",
				"geoLocation": {
					"lat": "50.849236",
					"lng": "5.705731"
				}
			},
			"distance": 0,
			"type": "ING"
		},
		{
			"address": {
				"street": "Burchtplein",
				"housenumber": "13",
				"postalcode": "4873 BS",
				"city": "Etten-Leur",
				"geoLocation": {
					"lat": "51.568474",
					"lng": "4.6393"
				}
			},
			"distance": 0,
			"type": "ING"
		},
		{
			"address": {
				"street": "Vijzelstraat",
				"housenumber": "113",
				"postalcode": "1017 HJ",
				"city": "Amsterdam",
				"geoLocation": {
					"lat": "52.362838",
					"lng": "4.892201"
				}
			},
			"distance": 0,
			"type": "ING"
		},
		{
			"address": {
				"street": "Hammarskjoldhof",
				"housenumber": "64",
				"postalcode": "3527 HE",
				"city": "Utrecht",
				"geoLocation": {
					"lat": "52.074086",
					"lng": "5.094522"
				}
			},
			"distance": 0,
			"type": "ING"
		},
		{
			"address": {
				"street": "Picassopassage",
				"housenumber": "38",
				"postalcode": "2907 ME",
				"city": "Capelle aan den IJssel",
				"geoLocation": {
					"lat": "51.953505",
					"lng": "4.584355"
				}
			},
			"distance": 0,
			"type": "ING"
		},
		{
			"address": {
				"street": "Beethovenstraat",
				"housenumber": "8",
				"postalcode": "1077 JG",
				"city": "Amsterdam",
				"geoLocation": {
					"lat": "52.350159",
					"lng": "4.878119"
				}
			},
			"distance": 0,
			"type": "ING"
		},
		{
			"address": {
				"street": "Tolbergcentrum",
				"housenumber": "160",
				"postalcode": "4708 HK",
				"city": "Roosendaal",
				"geoLocation": {
					"lat": "51.514022",
					"lng": "4.438641"
				}
			},
			"distance": 0,
			"type": "ING"
		},
		{
			"address": {
				"street": "Haarlemmerdijk",
				"housenumber": "97-103",
				"postalcode": "1013 KD",
				"city": "Amsterdam",
				"geoLocation": {
					"lat": "52.383003",
					"lng": "4.886394"
				}
			},
			"distance": 0,
			"type": "ING"
		},
		{
			"address": {
				"street": "Dorpstraat",
				"housenumber": "23",
				"postalcode": "7361 AP",
				"city": "Beekbergen",
				"geoLocation": {
					"lat": "52.159437",
					"lng": "5.962746"
				}
			},
			"distance": 0,
			"type": "ING"
		},
		{
			"address": {
				"street": "Kaapseplein",
				"housenumber": "125",
				"postalcode": "2572 NH",
				"city": "Den Haag",
				"geoLocation": {
					"lat": "52.061477",
					"lng": "4.298035"
				}
			},
			"distance": 0,
			"type": "ING"
		},
		{
			"address": {
				"street": "Drie Decembersingel",
				"housenumber": "12",
				"postalcode": "5922 BD",
				"city": "Venlo",
				"geoLocation": {
					"lat": "51.373706",
					"lng": "6.140275"
				}
			},
			"distance": 0,
			"type": "ING"
		},
		{
			"address": {
				"street": "Bachplein",
				"housenumber": "16",
				"postalcode": "8031 HR",
				"city": "Zwolle",
				"geoLocation": {
					"lat": "52.526536",
					"lng": "6.082682"
				}
			},
			"distance": 0,
			"type": "ING"
		},
		{
			"address": {
				"street": "Gibraltar",
				"housenumber": "29",
				"postalcode": "1503 BM",
				"city": "Zaandam",
				"geoLocation": {
					"lat": "52.445673",
					"lng": "4.845865"
				}
			},
			"distance": 0,
			"type": "ING"
		},
		{
			"address": {
				"street": "Stadhuisplein",
				"housenumber": "6",
				"postalcode": "5461 KS",
				"city": "Veghel",
				"geoLocation": {
					"lat": "51.614976",
					"lng": "5.547581"
				}
			},
			"distance": 0,
			"type": "ING"
		},
		{
			"address": {
				"street": "Tarwelaan",
				"housenumber": "70",
				"postalcode": "5632 KG",
				"city": "Eindhoven",
				"geoLocation": {
					"lat": "51.476996",
					"lng": "5.492965"
				}
			},
			"distance": 0,
			"type": "ING"
		},
		{
			"address": {
				"street": "Conradi-Veenlandstraat",
				"housenumber": "4",
				"postalcode": "9104 BN",
				"city": "Damwoude",
				"geoLocation": {
					"lat": "53.2939498",
					"lng": "5.9961575"
				}
			},
			"distance": 0,
			"type": "ING"
		},
		{
			"address": {
				"street": "Voldersgracht",
				"housenumber": "38",
				"postalcode": "2512 JV",
				"city": "Den Haag",
				"geoLocation": {
					"lat": "52.0769931",
					"lng": "4.3135186"
				}
			},
			"distance": 0,
			"type": "ING"
		},
		{
			"address": {
				"street": "Koningin Julianalaan",
				"housenumber": "263",
				"postalcode": "2273 JG",
				"city": "Voorburg",
				"geoLocation": {
					"lat": "52.075693",
					"lng": "4.359622"
				}
			},
			"distance": 0,
			"type": "ING"
		},
		{
			"address": {
				"street": "Bankstede",
				"housenumber": "1",
				"postalcode": "3431 HN",
				"city": "Nieuwegein",
				"geoLocation": {
					"lat": "52.029542",
					"lng": "5.082906"
				}
			},
			"distance": 0,
			"type": "ING"
		},
		{
			"address": {
				"street": "Heiligeweg",
				"housenumber": "61-63",
				"postalcode": "1561 DG",
				"city": "Krommenie",
				"geoLocation": {
					"lat": "52.50111",
					"lng": "4.7644"
				}
			},
			"distance": 0,
			"type": "ING"
		},
		{
			"address": {
				"street": "Stationsplein",
				"housenumber": "26",
				"postalcode": "5211 AP",
				"city": "Den Bosch",
				"geoLocation": {
					"lat": "51.690455",
					"lng": "5.295009"
				}
			},
			"distance": 0,
			"type": "ING"
		},
		{
			"address": {
				"street": "Stationsstraat",
				"housenumber": "110",
				"postalcode": "6181 AK",
				"city": "Elsloo",
				"geoLocation": {
					"lat": "50.946557",
					"lng": "5.774383"
				}
			},
			"distance": 0,
			"type": "ING"
		},
		{
			"address": {
				"street": "Nieuwstraat",
				"housenumber": "370",
				"postalcode": "3201 EG",
				"city": "Spijkenisse",
				"geoLocation": {
					"lat": "51.84996",
					"lng": "4.330697"
				}
			},
			"distance": 0,
			"type": "ING"
		},
		{
			"address": {
				"street": "1e Middellandstraat",
				"housenumber": "50",
				"postalcode": "3014 BG",
				"city": "Rotterdam",
				"geoLocation": {
					"lat": "51.919169",
					"lng": "4.464763"
				}
			},
			"distance": 0,
			"type": "ING"
		},
		{
			"address": {
				"street": "Kerklaan",
				"housenumber": "450",
				"postalcode": "2903 HJ",
				"city": "Capelle aan den IJssel",
				"geoLocation": {
					"lat": "51.932243",
					"lng": "4.59093"
				}
			},
			"distance": 0,
			"type": "ING"
		},
		{
			"address": {
				"street": "Lavendelplantsoen",
				"housenumber": "60",
				"postalcode": "1313 GA",
				"city": "Almere",
				"geoLocation": {
					"lat": "52.382337",
					"lng": "5.198488"
				}
			},
			"distance": 0,
			"type": "ING"
		},
		{
			"address": {
				"street": "Sigmondstraat",
				"housenumber": "52",
				"postalcode": "4251 ZB",
				"city": "Werkendam",
				"geoLocation": {
					"lat": "51.809329",
					"lng": "4.890855"
				}
			},
			"distance": 0,
			"type": "ING"
		},
		{
			"address": {
				"street": "Hoofdweg",
				"housenumber": "164A",
				"postalcode": "9628 CT",
				"city": "Siddeburen",
				"geoLocation": {
					"lat": "53.24817",
					"lng": "6.868891"
				}
			},
			"distance": 0,
			"type": "ING"
		},
		{
			"address": {
				"street": "Dorpsstraat",
				"housenumber": "36",
				"postalcode": "6721 JL",
				"city": "Bennekom",
				"geoLocation": {
					"lat": "51.998392",
					"lng": "5.67547"
				}
			},
			"distance": 0,
			"type": "ING"
		},
		{
			"address": {
				"street": "Tegelpoort",
				"housenumber": "7",
				"postalcode": "5911 DM",
				"city": "Venlo",
				"geoLocation": {
					"lat": "51.368693",
					"lng": "6.165701"
				}
			},
			"distance": 0,
			"type": "ING"
		},
		{
			"address": {
				"street": "Pampusweg",
				"housenumber": "1",
				"postalcode": "1398 PR",
				"city": "Muiden",
				"geoLocation": {
					"lat": "52.333863",
					"lng": "5.019124"
				}
			},
			"distance": 0,
			"type": "ING"
		},
		{
			"address": {
				"street": "Overwinningsplein",
				"housenumber": "73",
				"postalcode": "9728 GR",
				"city": "Groningen",
				"geoLocation": {
					"lat": "53.19859",
					"lng": "6.559786"
				}
			},
			"distance": 0,
			"type": "ING"
		},
		{
			"address": {
				"street": "Stadsbrink",
				"housenumber": "375",
				"postalcode": "6707 AA",
				"city": "Wageningen",
				"geoLocation": {
					"lat": "51.969949",
					"lng": "5.668171"
				}
			},
			"distance": 0,
			"type": "ING"
		},
		{
			"address": {
				"street": "Kennedylaan",
				"housenumber": "90",
				"postalcode": "6441 JG",
				"city": "Brunssum",
				"geoLocation": {
					"lat": "50.94946",
					"lng": "5.959689"
				}
			},
			"distance": 0,
			"type": "ING"
		},
		{
			"address": {
				"street": "Tuinfluiter",
				"housenumber": "1",
				"postalcode": "3752 NA",
				"city": "Bunschoten-Spakenburg",
				"geoLocation": {
					"lat": "52.240447",
					"lng": "5.365397"
				}
			},
			"distance": 0,
			"type": "ING"
		},
		{
			"address": {
				"street": "Nieuwstraat",
				"housenumber": "45",
				"postalcode": "4811 WV",
				"city": "Breda",
				"geoLocation": {
					"lat": "51.587564",
					"lng": "4.77296"
				}
			},
			"distance": 0,
			"type": "ING"
		},
		{
			"address": {
				"street": "'t Loo",
				"housenumber": "61",
				"postalcode": "1851 HT",
				"city": "Heiloo",
				"geoLocation": {
					"lat": "52.605645",
					"lng": "4.711931"
				}
			},
			"distance": 0,
			"type": "ING"
		},
		{
			"address": {
				"street": "Moerwijk",
				"housenumber": "2",
				"postalcode": "4826 HN",
				"city": "Breda",
				"geoLocation": {
					"lat": "51.606826",
					"lng": "4.789606"
				}
			},
			"distance": 0,
			"type": "ING"
		},
		{
			"address": {
				"street": "Leeuwarderweg",
				"housenumber": "8A",
				"postalcode": "8801 BV",
				"city": "Franeker",
				"geoLocation": {
					"lat": "53.187671",
					"lng": "5.553406"
				}
			},
			"distance": 0,
			"type": "ING"
		},
		{
			"address": {
				"street": "Beeksestraat",
				"housenumber": "55",
				"postalcode": "4841 GB",
				"city": "Prinsenbeek",
				"geoLocation": {
					"lat": "51.60425",
					"lng": "4.717136"
				}
			},
			"distance": 0,
			"type": "ING"
		},
		{
			"address": {
				"street": "Onderdoor",
				"housenumber": "13",
				"postalcode": "3995 DW",
				"city": "Houten",
				"geoLocation": {
					"lat": "52.034765",
					"lng": "5.168005"
				}
			},
			"distance": 0,
			"type": "ING"
		},
		{
			"address": {
				"street": "Dorpsstraat",
				"housenumber": "62",
				"postalcode": "5241 ED",
				"city": "Rosmalen",
				"geoLocation": {
					"lat": "51.714725",
					"lng": "5.363007"
				}
			},
			"distance": 0,
			"type": "ING"
		},
		{
			"address": {
				"street": "Poolsterstraat",
				"housenumber": "40",
				"postalcode": "3067 LX",
				"city": "Rotterdam",
				"geoLocation": {
					"lat": "51.9501875",
					"lng": "4.5536472"
				}
			},
			"distance": 0,
			"type": "ING"
		},
		{
			"address": {
				"street": "Hogenkampspassage",
				"housenumber": "10",
				"postalcode": "8022 EL",
				"city": "Zwolle",
				"geoLocation": {
					"lat": "52.521298",
					"lng": "6.106413"
				}
			},
			"distance": 0,
			"type": "ING"
		},
		{
			"address": {
				"street": "De Passage",
				"housenumber": "26",
				"postalcode": "3641 AK",
				"city": "Mijdrecht",
				"geoLocation": {
					"lat": "52.206392",
					"lng": "4.866137"
				}
			},
			"distance": 0,
			"type": "ING"
		},
		{
			"address": {
				"street": "Sarphatistraat",
				"housenumber": "141",
				"postalcode": "1018 GD",
				"city": "Amsterdam",
				"geoLocation": {
					"lat": "52.362283",
					"lng": "4.912469"
				}
			},
			"distance": 0,
			"type": "ING"
		},
		{
			"address": {
				"street": "Roda J.C. Ring",
				"housenumber": "5",
				"postalcode": "6466 NH",
				"city": "Kerkrade",
				"geoLocation": {
					"lat": "50.857276",
					"lng": "6.007516"
				}
			},
			"distance": 0,
			"type": "ING"
		},
		{
			"address": {
				"street": "Heyhoefpromenade",
				"housenumber": "105-107",
				"postalcode": "5043 RB",
				"city": "Tilburg",
				"geoLocation": {
					"lat": "51.577654",
					"lng": "5.004488"
				}
			},
			"distance": 0,
			"type": "ING"
		},
		{
			"address": {
				"street": "Lichtenhorst",
				"housenumber": "1",
				"postalcode": "7271 AE",
				"city": "Borculo",
				"geoLocation": {
					"lat": "52.117884",
					"lng": "6.525361"
				}
			},
			"distance": 0,
			"type": "ING"
		},
		{
			"address": {
				"street": "Griendtsveenweg",
				"housenumber": "20",
				"postalcode": "7901 EA",
				"city": "Hoogeveen",
				"geoLocation": {
					"lat": "52.72303",
					"lng": "6.467625"
				}
			},
			"distance": 0,
			"type": "ING"
		},
		{
			"address": {
				"street": "Vuurplaat",
				"housenumber": "426",
				"postalcode": "3071 AR",
				"city": "Rotterdam",
				"geoLocation": {
					"lat": "51.904547",
					"lng": "4.504072"
				}
			},
			"distance": 0,
			"type": "ING"
		},
		{
			"address": {
				"street": "Willemsplein",
				"housenumber": "38",
				"postalcode": "6811 KC",
				"city": "Arnhem",
				"geoLocation": {
					"lat": "51.983088",
					"lng": "5.905471"
				}
			},
			"distance": 0,
			"type": "ING"
		},
		{
			"address": {
				"street": "Middenhaag",
				"housenumber": "5",
				"postalcode": "7815 LB",
				"city": "Emmen",
				"geoLocation": {
					"lat": "52.797847",
					"lng": "6.895133"
				}
			},
			"distance": 0,
			"type": "ING"
		},
		{
			"address": {
				"street": "Bussumerstraat",
				"housenumber": "60",
				"postalcode": "1211 BL",
				"city": "Hilversum",
				"geoLocation": {
					"lat": "52.225433",
					"lng": "5.173362"
				}
			},
			"distance": 0,
			"type": "ING"
		},
		{
			"address": {
				"street": "Slotplein",
				"housenumber": "96",
				"postalcode": "2902 HR",
				"city": "Capelle aan den IJssel",
				"geoLocation": {
					"lat": "51.923393",
					"lng": "4.583642"
				}
			},
			"distance": 0,
			"type": "ING"
		},
		{
			"address": {
				"street": "Orionstraat",
				"housenumber": "149",
				"postalcode": "5632 DC",
				"city": "Eindhoven",
				"geoLocation": {
					"lat": "51.470234",
					"lng": "5.494519"
				}
			},
			"distance": 0,
			"type": "ING"
		},
		{
			"address": {
				"street": "Spui",
				"housenumber": "59",
				"postalcode": "2511 BL",
				"city": "Den Haag",
				"geoLocation": {
					"lat": "52.077312",
					"lng": "4.315173"
				}
			},
			"distance": 0,
			"type": "ING"
		},
		{
			"address": {
				"street": "Wendtsteinweg",
				"housenumber": "64",
				"postalcode": "9363 AR",
				"city": "Marum",
				"geoLocation": {
					"lat": "53.144322",
					"lng": "6.26902"
				}
			},
			"distance": 0,
			"type": "ING"
		},
		{
			"address": {
				"street": "Veerplein",
				"housenumber": "112",
				"postalcode": "3131 CN",
				"city": "Vlaardingen",
				"geoLocation": {
					"lat": "51.910347",
					"lng": "4.339805"
				}
			},
			"distance": 0,
			"type": "ING"
		},
		{
			"address": {
				"street": "Oudenoord",
				"housenumber": "1",
				"postalcode": "3513 EG",
				"city": "Utrecht",
				"geoLocation": {
					"lat": "52.0970886",
					"lng": "5.1133961"
				}
			},
			"distance": 0,
			"type": "ING"
		},
		{
			"address": {
				"street": "Waalderstraat",
				"housenumber": "48",
				"postalcode": "1791 EC",
				"city": "Den Burg",
				"geoLocation": {
					"lat": "53.056402",
					"lng": "4.797803"
				}
			},
			"distance": 0,
			"type": "ING"
		},
		{
			"address": {
				"street": "Koekoeklaan",
				"housenumber": "88",
				"postalcode": "1403 EH",
				"city": "Bussum",
				"geoLocation": {
					"lat": "52.2685",
					"lng": "5.184334"
				}
			},
			"distance": 0,
			"type": "ING"
		},
		{
			"address": {
				"street": "Stokdijkkade",
				"housenumber": "21",
				"postalcode": "2671 GX",
				"city": "Naaldwijk",
				"geoLocation": {
					"lat": "51.995073",
					"lng": "4.211463"
				}
			},
			"distance": 0,
			"type": "ING"
		},
		{
			"address": {
				"street": "Hoofdweg",
				"housenumber": "202",
				"postalcode": "9765 CK",
				"city": "Paterswolde",
				"geoLocation": {
					"lat": "53.147261",
					"lng": "6.5658"
				}
			},
			"distance": 0,
			"type": "ING"
		},
		{
			"address": {
				"street": "Theo Mann-Bouwmeesterlaan",
				"housenumber": "9",
				"postalcode": "2597 GV",
				"city": "Den Haag",
				"geoLocation": {
					"lat": "52.105325",
					"lng": "4.323233"
				}
			},
			"distance": 0,
			"type": "ING"
		},
		{
			"address": {
				"street": "Boterhoek",
				"housenumber": "17",
				"postalcode": "5683 AS",
				"city": "Best",
				"geoLocation": {
					"lat": "51.511134",
					"lng": "5.394079"
				}
			},
			"distance": 0,
			"type": "ING"
		},
		{
			"address": {
				"street": "Peppelweg",
				"housenumber": "151",
				"postalcode": "3053 GL",
				"city": "Rotterdam",
				"geoLocation": {
					"lat": "51.960818",
					"lng": "4.46695"
				}
			},
			"distance": 0,
			"type": "ING"
		},
		{
			"address": {
				"street": "Grote Houtstraat",
				"housenumber": "182",
				"postalcode": "2011 SZ",
				"city": "Haarlem",
				"geoLocation": {
					"lat": "52.376372",
					"lng": "4.630936"
				}
			},
			"distance": 0,
			"type": "ING"
		},
		{
			"address": {
				"street": "Tamboerijn",
				"housenumber": "11",
				"postalcode": "3766 HA",
				"city": "Soest",
				"geoLocation": {
					"lat": "52.168823",
					"lng": "5.281462"
				}
			},
			"distance": 0,
			"type": "ING"
		},
		{
			"address": {
				"street": "Van Dedemstraat",
				"housenumber": "19",
				"postalcode": "1624 NN",
				"city": "Hoorn",
				"geoLocation": {
					"lat": "52.64615",
					"lng": "5.051908"
				}
			},
			"distance": 0,
			"type": "ING"
		},
		{
			"address": {
				"street": "Amsterdamsestraat",
				"housenumber": "9",
				"postalcode": "2587 CN",
				"city": "Den Haag",
				"geoLocation": {
					"lat": "52.111805",
					"lng": "4.287714"
				}
			},
			"distance": 0,
			"type": "ING"
		},
		{
			"address": {
				"street": "Koningin Wilhelminaplein",
				"housenumber": "43",
				"postalcode": "2741 EC",
				"city": "Waddinxveen",
				"geoLocation": {
					"lat": "52.049758",
					"lng": "4.653582"
				}
			},
			"distance": 0,
			"type": "ING"
		},
		{
			"address": {
				"street": "Rozenoord",
				"housenumber": "2",
				"postalcode": "2651 XN",
				"city": "Berkel en Rodenrijs",
				"geoLocation": {
					"lat": "51.981438",
					"lng": "4.460909"
				}
			},
			"distance": 0,
			"type": "ING"
		},
		{
			"address": {
				"street": "Laan van Vollenhove",
				"housenumber": "3011",
				"postalcode": "3706 AL",
				"city": "Zeist",
				"geoLocation": {
					"lat": "52.100752",
					"lng": "5.221529"
				}
			},
			"distance": 0,
			"type": "ING"
		},
		{
			"address": {
				"street": "Kapelaanstraat",
				"housenumber": "25",
				"postalcode": "5421 DD",
				"city": "Gemert",
				"geoLocation": {
					"lat": "51.553584",
					"lng": "5.685143"
				}
			},
			"distance": 0,
			"type": "ING"
		},
		{
			"address": {
				"street": "Bellestein",
				"housenumber": "45-47",
				"postalcode": "6714 DP",
				"city": "Ede",
				"geoLocation": {
					"lat": "52.042413",
					"lng": "5.643973"
				}
			},
			"distance": 0,
			"type": "ING"
		}
	]
}